phoneme,name,county,latitude,longitude
2853,Little Rock,Pulaski County,34.746,-92.290
1695,Fayetteville,Washington County,36.063,-94.157
1778,Fort Smith,Sebastian County,35.386,-94.399
4676,Springdale,Benton County,36.191,-94.155
2515,Jonesboro,Craighead County,35.842,-90.704
4287,Rogers,Benton County,36.332,-94.119
1099,Conway,Faulkner County,35.089,-92.442
0392,Bentonville,Benton County,36.373,-94.209
2362,Hot Springs,Garland County,34.504,-93.055
0390,Benton,Saline County,34.565,-92.587
4550,Sherwood,Pulaski County,34.815,-92.224
0350,Bella Vista,Benton County,36.467,-94.266
4355,Russellville,Pope County,35.278,-93.134
4925,Texarkana,Miller County,33.442,-94.038
2467,Jacksonville,Pulaski County,34.866,-92.110
0710,Cabot,Lonoke County,34.975,-92.017
5106,Van Buren,Crawford County,35.437,-94.348
0652,Bryant,Saline County,34.596,-92.489
0868,Centerton,Benton County,36.360,-94.285
4571,Siloam Springs,Benton County,36.188,-94.540
1509,El Dorado,Union County,33.208,-92.666
3056,Marion,Crittenden County,35.215,-90.196
2163,Harrison,Boone County,36.230,-93.108
3396,Mountain Home,Baxter County,36.335,-92.385
1755,Forrest City,St. Francis County,35.008,-90.790
0294,Batesville,Independence County,35.770,-91.641
2995,Magnolia,Columbia County,33.267,-93.239
3008,Malvern,Hot Spring County,34.362,-92.813
0738,Camden,Ouachita County,33.585,-92.834
0167,Arkadelphia,Clark County,34.121,-93.054
2934,Lowell,Benton County,36.255,-94.131
2062,Greenwood,Sebastian County,35.216,-94.256
0983,Clarksville,Johnson County,35.471,-93.467
2349,Hope,Hempstead County,33.667,-93.592
3314,Monticello,Drew County,33.629,-91.791
5439,Wynne,Cross County,35.225,-90.787
1683,Farmington,Washington County,36.042,-94.247
4810,Stuttgart,Arkansas County,34.500,-91.553
3533,Newport,Jackson County,35.605,-91.282
3971,Pocahontas,Randolph County,36.261,-90.971
4036,Prairie Grove,Washington County,35.976,-94.318
3825,Pea Ridge,Benton County,36.454,-94.115
3713,Osceola,Mississippi County,35.705,-89.970
5214,Ward,Lonoke County,35.030,-91.950
2047,Greenbrier,Faulkner County,35.234,-92.388
0085,Alma,Crawford County,35.478,-94.222
0402,Berryville,Carroll County,36.365,-93.568
3175,Mena,Polk County,34.586,-94.240
5356,White Hall,Jefferson County,34.274,-92.091
5219,Warren,Bradley County,33.613,-92.065
4547,Sheridan,Grant County,34.307,-92.401
3921,Piney,Garland County,34.503,-93.126
4276,Rockwell,Garland County,34.464,-93.134
4651,Southside,Independence County,35.698,-91.623
3438,Nashville,Howard County,33.946,-93.847
0223,Austin,Lonoke County,34.998,-91.984
2184,Haskell,Saline County,34.501,-92.637
1895,Gentry,Benton County,36.268,-94.485
1406,Dumas,Desha County,33.887,-91.492
1910,Gibson,Pulaski County,34.884,-92.236
0527,Booneville,Logan County,35.140,-93.922
1541,Elkins,Washington County,36.001,-94.008
3019,Manila,Mississippi County,35.880,-90.167
2503,Johnson,Washington County,36.133,-94.165
0057,Alexander,Pulaski County,34.619,-92.451
3052,Marianna,Lee County,34.774,-90.758
3748,Ozark,Franklin County,35.487,-93.828
1753,Fordyce,Dallas County,33.814,-92.413
5191,Waldron,Scott County,34.898,-94.091
3785,Paris,Logan County,35.292,-93.730
4022,Pottsville,Pope County,35.248,-93.049
1123,Corning,Clay County,36.408,-90.580
4045,Prescott,Nevada County,33.803,-93.381
2393,Huntsville,Madison County,36.086,-93.741
1332,DeWitt,Arkansas County,34.293,-91.338
3401,Mountain View,Stone County,35.868,-92.118
0200,Atkins,Pope County,35.246,-92.937
2371,Hoxie,Lawrence County,36.050,-90.975
0898,Charleston,Franklin County,35.297,-94.036
0525,Bono,Craighead County,35.909,-90.803
2359,Horseshoe Bend,Fulton County,36.219,-91.738
1012,Clinton,Van Buren County,35.591,-92.460
2120,Hamburg,Ashley County,33.228,-91.798
2683,Lake City,Craighead County,35.816,-90.434
2826,Lincoln,Washington County,35.950,-94.424
4035,Prairie Creek,Benton County,36.342,-94.062
4743,Star City,Lincoln County,33.943,-91.843
4382,Salem,Saline County,34.629,-92.558
2162,Harrisburg,Poinsett County,35.564,-90.717
1983,Goshen,Washington County,36.101,-93.991
1952,Glenwood,Montgomery County,34.328,-93.527
2701,Lake Village,Chicot County,33.329,-91.282
1256,Danville,Yell County,35.054,-93.394
0781,Carlisle,Lonoke County,34.783,-91.747
0218,Augusta,Woodruff County,35.282,-91.365
2687,Lake Hamilton,Garland County,34.425,-93.095
0834,Cave City,Independence County,35.948,-91.547
3169,Melbourne,Izard County,36.060,-91.908
1323,Des Arc,Prairie County,34.977,-91.495
1445,Earle,Crittenden County,35.275,-90.467
4295,Romance,White County,35.240,-92.067
1282,Decatur,Benton County,36.336,-94.461
2716,Lamar,Johnson County,35.441,-93.388
1625,Eudora,Chicot County,33.110,-91.262
4382,Salem,Fulton County,36.371,-91.823
3408,Mulberry,Crawford County,35.501,-94.052
4152,Redfield,Jefferson County,34.445,-92.183
0972,Clarendon,Monroe County,34.693,-91.314
5511,Wrightsville,Pulaski County,34.602,-92.217
3417,Murfreesboro,Pike County,34.062,-93.690
2215,Hazen,Prairie County,34.781,-91.581
0858,Cedarville,Crawford County,35.570,-94.367
2565,Kensett,White County,35.232,-91.668
3858,Perryville,Perry County,35.005,-92.803
1735,Flippin,Marion County,36.279,-92.597
1377,Dover,Pope County,35.401,-93.114
3069,Marshall,Searcy County,35.909,-92.631
4865,Sweet Home,Pulaski County,34.686,-92.242
3220,Midway,Baxter County,36.385,-92.462
0228,Avilla,Saline County,34.683,-92.585
2053,Greenland,Washington County,35.994,-94.175
2130,Hampton,Calhoun County,33.538,-92.470
4824,Sulphur Springs,Jefferson County,34.181,-92.123
3521,Newark,Independence County,35.702,-91.442
5189,Waldo,Columbia County,33.352,-93.296
3264,Mineral Springs,Howard County,33.875,-93.914
3029,Mansfield,Scott County,35.064,-94.234
4289,Roland,Pulaski County,34.901,-92.498
2379,Hughes,St. Francis County,34.949,-90.471
2273,Highland,Sharp County,36.276,-91.524
2883,London,Pope County,35.329,-93.253
3382,Mount Ida,Montgomery County,34.557,-93.634
1893,Genoa,Miller County,33.384,-93.909
3653,Ola,Yell County,35.032,-93.223
4232,Rison,Cleveland County,33.958,-92.190
2355,Horatio,Sevier County,33.938,-94.357
1138,Cotter,Baxter County,36.271,-92.535
2807,Lewisville,Lafayette County,33.358,-93.578
2102,Hackett,Sebastian County,35.190,-94.411
1450,East Camden,Ouachita County,33.608,-92.740
2711,Lakeview,Baxter County,36.369,-92.545
1431,Dyer,Crawford County,35.492,-94.138
0321,Bearden,Ouachita County,33.725,-92.616
4759,Stephens,Ouachita County,33.411,-93.070
2148,Hardy,Fulton County,36.320,-91.481
2096,Guy,Faulkner County,35.325,-92.334
5427,Wilson,Mississippi County,35.568,-90.042
2988,Madison,St. Francis County,35.013,-90.723
2574,Kirby,Pike County,34.250,-93.641
4458,Sardis,Saline County,34.532,-92.408
4089,Quitman,Cleburne County,35.382,-92.215
1986,Gould,Lincoln County,33.985,-91.561
4273,Rockport,Hot Spring County,34.388,-92.825
0116,Amity,Clark County,34.265,-93.461
0556,Bradford,White County,35.423,-91.456
0101,Altus,Franklin County,35.446,-93.762
5491,Woodson,Pulaski County,34.529,-92.211
2631,Knoxville,Johnson County,35.382,-93.364
3125,McRae,White County,35.113,-91.822
1870,Garfield,Benton County,36.448,-93.974
3747,Oxford,Izard County,36.221,-91.929
2317,Holland,Faulkner County,35.171,-92.274
0519,Bonanza,Sebastian County,35.239,-94.426
0454,Black Rock,Lawrence County,36.108,-91.097
1921,Gillett,Arkansas County,34.117,-91.377
4905,Taylor,Columbia County,33.100,-93.461
0927,Cherry Valley,Cross County,35.402,-90.753
4830,Summit,Marion County,36.252,-92.691
2174,Hartman,Johnson County,35.433,-93.615
2245,Hermitage,Bradley County,33.447,-92.174
2170,Hartford,Sebastian County,35.023,-94.381
2478,Jasper,Newton County,36.008,-93.187
2529,Junction City,Union County,33.016,-92.724
2391,Huntington,Sebastian County,35.082,-94.263
3762,Palestine,St. Francis County,34.972,-90.903
0230,Avoca,Benton County,36.402,-94.071
4384,Salesville,Baxter County,36.245,-92.265
4824,Sulphur Springs,Benton County,36.483,-94.459
4379,Salado,Independence County,35.691,-91.595
3945,Plainview,Yell County,34.990,-93.297
0872,Central City,Sebastian County,35.319,-94.252
2385,Humphrey,Arkansas County,34.422,-91.702
2791,Leola,Grant County,34.170,-92.591
1162,Crawfordsville,Crittenden County,35.225,-90.325
1886,Gateway,Benton County,36.490,-93.932
0719,Caldwell,St. Francis County,35.075,-90.817
1226,Cushman,Independence County,35.873,-91.754
1634,Evening Shade,Sharp County,36.072,-91.619
0355,Bellefonte,Boone County,36.201,-93.049
1585,Emmet,Hempstead County,33.723,-93.466
2225,Hector,Pope County,35.467,-92.975
4804,Strong,Union County,33.108,-92.335
5426,Wilmot,Ashley County,33.057,-91.573
0557,Bradley,Lafayette County,33.098,-93.655
0149,Appleton,Pope County,35.425,-92.874
4171,Reyno,Randolph County,36.363,-90.754
5423,Wilmar,Drew County,33.629,-91.932
3611,Oak Grove,Carroll County,36.456,-93.437
1245,Damascus,Faulkner County,35.367,-92.411
3108,Maynard,Randolph County,36.420,-90.897
3149,McNeil,Columbia County,33.348,-93.210
1743,Floyd,White County,35.191,-91.968
3220,Midway,Hot Spring County,34.254,-92.964
2798,Leslie,Searcy County,35.830,-92.558
0168,Arkansas City,Desha County,33.609,-91.207
3386,Mount Pleasant,Izard County,35.962,-91.756
5444,Winslow,Washington County,35.801,-94.135
5158,Viola,Fulton County,36.397,-91.983
3957,Pleasant Plains,Independence County,35.550,-91.626
0432,Bigelow,Perry County,35.001,-92.630
2188,Hatfield,Polk County,34.486,-94.379
2603,Kingsland,Cleveland County,33.858,-92.294
4945,Thornton,Calhoun County,33.779,-92.492
0293,Batavia,Boone County,36.255,-93.223
1148,Cove,Polk County,34.435,-94.411
1595,Enola,Faulkner County,35.195,-92.203
4010,Portland,Ashley County,33.238,-91.512
1990,Grady,Lincoln County,34.080,-91.701
2700,Lake View,Phillips County,34.417,-90.801
0358,Belleville,Yell County,35.093,-93.449
3561,Norman,Montgomery County,34.455,-93.680
2233,Henderson,Baxter County,36.381,-92.228
0963,Cincinnati,Washington County,36.037,-94.511
3810,Patterson,Woodruff County,35.257,-91.235
0562,Branch,Franklin County,35.306,-93.954
4041,Prattsville,Grant County,34.315,-92.553
1581,Emerson,Columbia County,33.098,-93.193
5429,Wilton,Little River County,33.741,-94.148
3278,Mitchellville,Desha County,33.906,-91.499
0870,Centerville,Yell County,35.113,-93.169
0711,Cash,Craighead County,35.794,-90.937
1362,Donaldson,Hot Spring County,34.237,-92.924
3180,Menifee,Conway County,35.148,-92.554
4321,Rosston,Nevada County,33.593,-93.277
1511,El Paso,White County,35.126,-92.096
4801,Strawberry,Lawrence County,35.968,-91.321
3357,Morrow,Washington County,35.858,-94.438
3854,Perry,Perry County,35.048,-92.794
2763,Lawson,Union County,33.197,-92.483
2842,Lynn,Lawrence County,36.007,-91.252
1621,Etowah,Mississippi County,35.729,-90.232
4556,Shirley,Van Buren County,35.656,-92.319
1063,College Station,Pulaski County,34.708,-92.221
3318,Montrose,Ashley County,33.298,-91.494
2193,Havana,Yell County,35.111,-93.530
1495,Edmondson,Crittenden County,35.106,-90.310
4488,Scranton,Logan County,35.361,-93.536
0583,Briarcliff,Baxter County,36.275,-92.286
1796,Fox,Stone County,35.791,-92.298
3953,Pleasant Grove,Stone County,35.816,-91.909
0446,Bismarck,Hot Spring County,34.316,-93.171
4678,Springfield,Conway County,35.267,-92.558
3110,Maysville,Benton County,36.404,-94.602
3217,Midland,Sebastian County,35.093,-94.353
1872,Garner,White County,35.141,-91.786
4697,St. Francis,Clay County,36.453,-90.145
0807,Carthage,Dallas County,34.075,-92.555
4691,St. Charles,Arkansas County,34.372,-91.137
1313,Denning,Franklin County,35.429,-93.757
0412,Bethesda,Independence County,35.791,-91.789
1804,Franklin,Izard County,36.170,-91.776
1871,Garland,Miller County,33.363,-93.710
4565,Sidney,Sharp County,36.003,-91.660
3983,Pollard,Clay County,36.431,-90.268
3607,O'Kean,Randolph County,36.169,-90.814
4364,Rye,Cleveland County,33.746,-91.998
1090,Concord,Cleburne County,35.664,-91.848
1302,Dell,Mississippi County,35.855,-90.042
4354,Russell,White County,35.363,-91.508
5102,Valley Springs,Boone County,36.158,-92.993
3641,Oden,Montgomery County,34.619,-93.777
3348,Moro,Lee County,34.795,-90.991
0864,Center Point,Howard County,34.026,-93.948
5243,Watson,Desha County,33.895,-91.256
5084,Urbana,Union County,33.159,-92.446
1717,Fisher,Poinsett County,35.491,-90.974
3789,Parkdale,Ashley County,33.122,-91.546
4846,Sunset,Crittenden County,35.222,-90.206
1926,Gilmore,Crittenden County,35.412,-90.278
5058,Ulm,Prairie County,34.576,-91.461
5311,West Point,White County,35.207,-91.614
0513,Boles,Scott County,34.779,-94.049
4124,Ratcliff,Logan County,35.308,-93.884
4622,Summers,Washington County,35.981,-94.492
4503,Sedgwick,Lawrence County,35.978,-90.864
5287,Wesley,Madison County,36.027,-93.920
1830,Friendship,Hot Spring County,34.223,-93.003
3919,Pineville,Izard County,36.163,-92.107
0661,Buckner,Lafayette County,33.358,-93.436
5187,Walcott,Greene County,36.043,-90.671
2466,Jacksonport,Jackson County,35.642,-91.310
1065,Collins,Drew County,33.532,-91.565
5414,Willisville,Nevada County,33.517,-93.298
0932,Chester,Crawford County,35.681,-94.175
2626,Knobel,Clay County,36.320,-90.602
3390,Mount Vernon,Faulkner County,35.226,-92.124
2364,Houston,Perry County,35.033,-92.695
2664,Lacey,Drew County,33.455,-91.847
0378,Ben Lomond,Sevier County,33.835,-94.119
2492,Jerusalem,Conway County,35.405,-92.817
5431,Winchester,Drew County,33.775,-91.475
0091,Alpine,Clark County,34.229,-93.379
3674,Omaha,Boone County,36.452,-93.189
4704,St. Joe,Searcy County,36.030,-92.805
1209,Crystal Springs,Garland County,34.522,-93.336
3643,Ogden,Little River County,33.583,-94.043
3325,Moorefield,Independence County,35.768,-91.570
3380,Mount Holly,Union County,33.303,-92.955
4160,Reed,Desha County,33.702,-91.443
0291,Bassett,Mississippi County,35.536,-90.127
1368,Dora,Crawford County,35.457,-94.438
2109,Haynes,Lee County,34.891,-90.792
5449,Winthrop,Little River County,33.832,-94.355
0499,Bluff City,Nevada County,33.718,-93.134
1844,Fulton,Hempstead County,33.615,-93.814
5073,Uniontown,Crawford County,35.584,-94.444
1506,Egypt,Craighead County,35.868,-90.946
4721,St. Paul,Madison County,35.824,-93.764
1790,Fountain Hill,Ashley County,33.358,-91.850
0212,Aubrey,Lee County,34.717,-90.900
2388,Hunter,Woodruff County,35.053,-91.126
4031,Powhatan,Lawrence County,36.082,-91.118
1633,Evansville,Washington County,35.795,-94.497
1638,Everton,Boone County,36.155,-92.907
2900,Lonsdale,Garland County,34.545,-92.808
3652,Okolona,Clark County,33.997,-93.338
4811,Success,Clay County,36.455,-90.722
2605,Kingston,Madison County,36.051,-93.519
2488,Jericho,Crittenden County,35.286,-90.227
5026,Tucker,Jefferson County,34.444,-91.954
3749,Ozone,Johnson County,35.641,-93.443
2089,Gum Springs,Clark County,34.067,-93.092
5230,Washington,Hempstead County,33.774,-93.683
4682,Springtown,Benton County,36.261,-94.423
3272,Minturn,Lawrence County,35.975,-91.028
0084,Allport,Lonoke County,34.542,-91.784
0493,Blue Mountain,Logan County,35.130,-93.712
4602,Smithville,Lawrence County,36.080,-91.304
1237,Daisy,Pike County,34.237,-93.742
0258,Banks,Bradley County,33.575,-92.269
1898,Georgetown,White County,35.127,-91.455
0714,Cale,Nevada County,33.626,-93.240
0545,Bowman,Craighead County,35.823,-90.493
5031,Tupelo,Jackson County,35.393,-91.231
3626,Oakland,Marion County,36.461,-92.571
2086,Guion,Izard County,35.925,-91.941
0327,Beaver,Carroll County,36.474,-93.767
4286,Roe,Monroe County,34.633,-91.385
1298,Delaplaine,Greene County,36.234,-90.727
5272,Weldon,Jackson County,35.445,-91.232
1677,Fargo,Monroe County,34.951,-91.180
1484,Edgemont,Cleburne County,35.602,-92.196
4455,Saratoga,Hempstead County,33.744,-93.904
4549,Sherrill,Jefferson County,34.385,-91.951
2674,LaGrange,Lee County,34.656,-90.733
3296,Monroe,Monroe County,34.735,-91.104
3710,Ozan,Hempstead County,33.848,-93.719
5217,Warm Springs,Randolph County,36.480,-91.051
1117,Corinth,Yell County,35.073,-93.429
2064,Gregory,Woodruff County,35.155,-91.343
0489,Blue Eye,Carroll County,36.498,-93.398
1859,Gamaliel,Baxter County,36.457,-92.233
4135,Reader,Nevada County,33.752,-93.101
3146,McNab,Hempstead County,33.661,-93.833
3989,Ponca,Newton County,36.024,-93.365
1914,Gilbert,Searcy County,35.988,-92.716
2490,Jerome,Drew County,33.400,-91.470
3170,Mellwood,Phillips County,34.220,-90.950
4482,Scott,Lonoke County,34.698,-92.094
5139,Victoria,Mississippi County,35.757,-90.056
3678,Oneida,Phillips County,34.461,-90.783
4053,Princeton,Dallas County,33.982,-92.625
0004,Aberdeen,Monroe County,34.603,-91.342
0197,Athens,Howard County,34.314,-93.977
0217,Augsburg,Pope County,35.414,-93.238
0316,Bear,Garland County,34.534,-93.274
0488,Blue Ball,Scott County,34.962,-93.709
0532,Boston,Madison County,35.801,-93.600
0596,Briggsville,Yell County,34.934,-93.494
0645,Bruno,Marion County,36.144,-92.778
0796,Carrollton,Carroll County,36.263,-93.322
0843,Cecil,Franklin County,35.439,-93.945
1007,Cleveland,Conway County,35.421,-92.710
1081,Columbus,Hempstead County,33.776,-93.817
1083,Combs,Madison County,35.826,-93.837
1118,Corley,Logan County,35.213,-93.635
1221,Current View,Clay County,36.499,-90.778
1242,Dallas,Polk County,34.536,-94.219
1319,Denver,Carroll County,36.392,-93.315
1425,Durham,Washington County,35.949,-93.981
1676,Farewell,Carroll County,36.392,-93.370
1849,Gainesville,Greene County,36.165,-90.511
1940,Glen Rose,Hot Spring County,34.456,-92.730
2051,Greenfield,Poinsett County,35.632,-90.713
2144,Hardin,Jefferson County,34.281,-92.150
2244,Herman,Craighead County,35.715,-90.532
2423,Ingalls,Bradley County,33.383,-92.151
2482,Jefferson,Jefferson County,34.381,-92.164
2527,Jumbo,Izard County,36.060,-91.980
2781,Leetown,Benton County,36.431,-94.047
3045,Marble Falls,Newton County,36.107,-93.132
3048,Marcella,Stone County,35.788,-91.884
3220,Midway,White County,35.518,-91.601
3362,Moscow,Jefferson County,34.146,-91.795
3368,Mound City,Crittenden County,35.190,-90.129
3385,Mount Olive,Bradley County,33.429,-92.059
3640,Odell,Washington County,35.773,-94.418
3910,Pine Ridge,Montgomery County,34.586,-93.910
3954,Pleasant Hill,Logan County,35.176,-93.765
4023,Poughkeepsie,Sharp County,36.077,-91.479
4201,Richmond,Little River County,33.638,-94.207
4372,Sage,Izard County,36.046,-91.816
4465,Savoy,Washington County,36.106,-94.333
4481,Scotland,Van Buren County,35.528,-92.612
4554,Shiloh,Pope County,35.319,-93.136
4679,Springhill,Faulkner County,35.189,-92.392
4864,Sweden,Jefferson County,34.193,-91.724
5028,Tulip,Dallas County,34.082,-92.654
5507,Wright,Jefferson County,34.435,-92.066
5527,Yocum,Carroll County,36.419,-93.413