phoneme,name,county,latitude,longitude
2912,Los Angeles,Los Angeles County,34.052,-118.244
4403,San Diego,San Diego County,32.715,-117.157
4406,San Jose,Santa Clara County,37.339,-121.895
1827,Fresno,Fresno County,36.748,-119.772
4369,Sacramento,Sacramento County,38.582,-121.494
2889,Long Beach,Los Angeles County,33.767,-118.189
3626,Oakland,Alameda County,37.804,-122.271
0247,Bakersfield,Kern County,35.373,-119.019
4779,Stockton,San Joaquin County,37.958,-121.291
4243,Riverside,Riverside County,33.953,-117.396
4442,Santa Ana,Orange County,33.746,-117.868
2449,Irvine,Orange County,33.669,-117.823
0957,Chula Vista,San Diego County,32.640,-117.084
1821,Fremont,Alameda County,37.548,-121.989
3282,Modesto,Stanislaus County,37.639,-120.997
1748,Fontana,San Bernardino County,34.092,-117.435
1943,Glendale,Los Angeles County,34.143,-118.255
1536,Elk Grove,Sacramento County,38.409,-121.372
3682,Ontario,San Bernardino County,34.063,-117.651
4450,Santa Rosa,Sonoma County,38.440,-122.714
3636,Oceanside,San Diego County,33.196,-117.379
1865,Garden Grove,Orange County,33.774,-117.941
2723,Lancaster,Los Angeles County,34.698,-118.137
3768,Palmdale,Los Angeles County,34.579,-118.116
2208,Hayward,Alameda County,37.669,-122.081
1127,Corona,Riverside County,33.875,-117.566
4843,Sunnyvale,Santa Clara County,37.369,-122.036
4314,Roseville,Placer County,38.752,-121.288
3988,Pomona,Los Angeles County,34.055,-117.752
5164,Visalia,Tulare County,36.330,-119.292
1843,Fullerton,Orange County,33.870,-117.925
3689,Orange,Orange County,33.788,-117.853
3807,Pasadena,Los Angeles County,34.148,-118.145
4443,Santa Clara,Santa Clara County,37.354,-121.955
1090,Concord,Contra Costa County,37.978,-122.031
1020,Clovis,Fresno County,36.825,-119.703
1651,Fairfield,Solano County,38.249,-122.040
0395,Berkeley,Alameda County,37.872,-122.273
4201,Richmond,Contra Costa County,37.936,-122.348
0782,Carlsbad,San Diego County,33.158,-117.351
0143,Antioch,Contra Costa County,38.005,-121.806
1378,Downey,Los Angeles County,33.940,-118.133
4447,Santa Maria,Santa Barbara County,34.953,-120.436
3180,Menifee,Riverside County,33.728,-117.146
0679,Burbank,Los Angeles County,34.181,-118.309
2425,Inglewood,Los Angeles County,33.962,-118.353
0939,Chico,Butte County,39.728,-121.837
4413,San Mateo,San Mateo County,37.563,-122.326
2253,Hesperia,San Bernardino County,34.426,-117.301
3598,Norwalk,Los Angeles County,33.902,-118.082
5165,Vista,San Diego County,33.200,-117.243
4998,Tracy,San Joaquin County,37.740,-121.425
4410,San Marcos,San Diego County,33.143,-117.166
1087,Compton,Los Angeles County,33.896,-118.220
0799,Carson,Los Angeles County,33.831,-118.282
4137,Redding,Shasta County,40.587,-122.392
4448,Santa Monica,Los Angeles County,34.019,-118.491
5330,Westminster,Orange County,33.759,-118.007
2860,Livermore,Alameda County,37.682,-121.768
2202,Hawthorne,Los Angeles County,33.916,-118.353
2685,Lake Forest,Orange County,33.647,-117.689
5387,Whittier,Los Angeles County,33.979,-118.033
3401,Mountain View,Santa Clara County,37.386,-122.084
1746,Folsom,Sacramento County,38.678,-121.176
0068,Alhambra,Los Angeles County,34.095,-118.127
2713,Lakewood,Los Angeles County,33.854,-118.134
5042,Tustin,Orange County,33.746,-117.826
5081,Upland,San Bernardino County,34.098,-117.648
2624,Napa,Napa County,38.297,-122.286
3961,Pleasanton,Alameda County,37.662,-121.875
0361,Bellflower,Los Angeles County,33.882,-118.117
3934,Pittsburg,Contra Costa County,38.028,-121.885
0147,Apple Valley,San Bernardino County,34.501,-117.186
4155,Redlands,San Bernardino County,34.056,-117.183
1400,Dublin,Alameda County,37.702,-121.936
1468,Eastvale,Riverside County,33.964,-117.564
0250,Baldwin Park,Los Angeles County,34.085,-117.961
5204,Walnut Creek,Contra Costa County,37.906,-122.065
5067,Union City,Alameda County,37.596,-122.019
2875,Lodi,San Joaquin County,38.130,-121.272
1266,Davis,Yolo County,38.545,-121.741
3773,Palo Alto,Santa Clara County,37.442,-122.143
2969,Lynwood,Los Angeles County,33.930,-118.211
0578,Brentwood,Contra Costa County,37.932,-121.696
4009,Porterville,Tulare County,36.065,-119.017
4445,Santa Cruz,Santa Cruz County,36.974,-122.031
5477,Woodland,Yolo County,38.679,-121.773
3306,Montebello,Los Angeles County,34.009,-118.105
4418,San Rafael,Marin County,37.974,-122.531
2653,La Mesa,San Diego County,32.768,-117.023
4451,Santee,San Diego County,32.838,-116.974
1867,Gardena,Los Angeles County,33.888,-118.309
3309,Monterey Park,Los Angeles County,34.063,-118.123
2133,Hanford,Kings County,36.327,-119.646
2273,Highland,San Bernardino County,34.128,-117.209
0158,Arcadia,Los Angeles County,34.140,-118.035
0325,Beaumont,Riverside County,33.929,-116.977
1029,Colton,San Bernardino County,34.074,-117.314
1297,Delano,Kern County,35.769,-119.247
1945,Glendora,Los Angeles County,34.136,-117.865
2826,Lincoln,Placer County,38.892,-121.293
1232,Cypress,Orange County,33.817,-118.037
0878,Ceres,Stanislaus County,37.595,-120.958
0141,Antelope,Sacramento County,38.708,-121.330
3521,Newark,Alameda County,37.530,-122.040
2913,Los Banos,Merced County,37.058,-120.850
3340,Morgan Hill,Santa Clara County,37.130,-121.654
3766,Palm Springs,Riverside County,33.830,-116.545
3627,Oakley,Contra Costa County,37.997,-121.712
2323,Hollister,San Benito County,36.852,-121.402
1256,Danville,Contra Costa County,37.822,-122.000
0744,Campbell,Santa Clara County,37.287,-121.950
5154,Vineyard,Sacramento County,38.464,-121.347
2659,La Presa,San Diego County,32.708,-116.997
3305,Montclair,San Bernardino County,34.078,-117.690
4738,Stanton,Orange County,33.803,-117.993
3299,Monrovia,Los Angeles County,34.148,-117.999
3077,Martinez,Contra Costa County,38.019,-122.134
5331,Westmont,Los Angeles County,33.941,-118.302
0970,Claremont,Los Angeles County,34.097,-117.720
3017,Manhattan Beach,Los Angeles County,33.885,-118.411
3954,Pleasant Hill,Contra Costa County,37.948,-122.061
4673,Spring Valley,San Diego County,32.745,-116.999
0347,Bell,Los Angeles County,33.978,-118.187
3182,Menlo Park,San Mateo County,37.454,-122.182
4495,Seaside,Monterey County,36.611,-121.845
0209,Atwater,Merced County,37.348,-120.609
0418,Beverly Hills,Los Angeles County,34.074,-118.400
4415,San Pablo,Contra Costa County,37.962,-122.346
1644,Fair Oaks,Sacramento County,38.645,-121.272
2759,Lawndale,Los Angeles County,33.887,-118.353
2911,Los Altos,Santa Clara County,37.385,-122.114
2747,Lathrop,San Joaquin County,37.823,-121.277
4455,Saratoga,Santa Clara County,37.264,-122.023
0687,Burlingame,San Mateo County,37.584,-122.366
4401,San Carlos,San Mateo County,37.507,-122.261
3308,Monterey,Monterey County,36.600,-121.895
4408,San Lorenzo,Alameda County,37.681,-122.124
5228,Wasco,Kern County,35.594,-119.341
4209,Ridgecrest,Kern County,35.622,-117.671
5203,Walnut,Los Angeles County,34.020,-117.865
2787,Lemon Grove,San Diego County,32.743,-117.031
0371,Belmont,San Mateo County,37.520,-122.276
4440,Sanger,Fresno County,36.708,-119.556
1629,Eureka,Humboldt County,40.802,-124.164
4637,South Pasadena,Los Angeles County,34.116,-118.150
2240,Hercules,Contra Costa County,38.017,-122.289
3555,Norco,Riverside County,33.931,-117.549
5433,Windsor,Sonoma County,38.547,-122.816
1508,El Cerrito,Contra Costa County,37.916,-122.312
1856,Galt,Sacramento County,38.255,-121.300
0280,Barstow,San Bernardino County,34.899,-117.023
2671,Lafayette,Contra Costa County,37.886,-122.118
2882,Loma Linda,San Bernardino County,34.048,-117.261
4618,Soledad,Monterey County,36.425,-121.326
4509,Selma,Fresno County,36.571,-119.612
3113,Maywood,Los Angeles County,33.987,-118.185
3397,Mountain House,San Joaquin County,37.774,-121.544
4311,Rosemont,Sacramento County,38.552,-121.365
3810,Patterson,Stanislaus County,37.472,-121.130
4405,San Fernando,Los Angeles County,34.282,-118.439
0187,Ashland,Alameda County,37.695,-122.114
3621,Oakdale,Stanislaus County,37.767,-120.847
2675,Laguna Beach,Orange County,33.542,-117.783
1113,Corcoran,Kings County,36.098,-119.560
1211,Cudahy,Los Angeles County,33.961,-118.185
0484,Bloomington,San Bernardino County,34.070,-117.396
4110,Ramona,San Diego County,33.042,-116.868
2790,Lennox,Los Angeles County,33.938,-118.353
2708,Lakeside,San Diego County,32.857,-116.922
2409,Imperial,Imperial County,32.848,-115.569
4524,Shafter,Kern County,35.501,-119.272
4301,Rosamond,Kern County,34.864,-118.163
3706,Oroville,Butte County,39.514,-121.556
5093,Valle Vista,Riverside County,33.748,-116.893
0044,Albany,Alameda County,37.887,-122.298
2051,Greenfield,Monterey County,36.321,-121.244
1341,Dixon,Solano County,38.445,-121.823
4308,Rosedale,Kern County,35.384,-119.145
0501,Blythe,Riverside County,33.610,-114.596
0740,Cameron Park,El Dorado County,38.669,-120.987
2859,Live Oak,Santa Cruz County,36.984,-121.981
5056,Ukiah,Mendocino County,39.150,-123.208
1710,Fillmore,Ventura County,34.399,-118.918
4230,Ripon,San Joaquin County,37.742,-121.124
5152,Vincent,Los Angeles County,34.501,-118.116
4735,Stanford,Santa Clara County,37.424,-122.166
2575,Kerman,Fresno County,36.724,-120.060
3797,Parkway,Sacramento County,38.496,-121.459
0179,Artesia,Los Angeles County,33.866,-118.083
1349,Discovery Bay,Contra Costa County,37.909,-121.600
0091,Alpine,San Diego County,32.835,-116.766
1514,El Sobrante,Contra Costa County,37.977,-122.295
0041,Alamo,Contra Costa County,37.850,-122.032
4385,Salida,Stanislaus County,37.706,-121.085
2862,Livingston,Merced County,37.387,-120.724
3132,McFarland,Kern County,35.678,-119.229
2721,Lamont,Kern County,35.260,-118.914
0213,Auburn,Placer County,38.897,-121.077
2019,Grass Valley,Nevada County,39.219,-121.061
3616,Oak Park,Ventura County,34.179,-118.763
2596,King City,Monterey County,36.213,-121.126
0523,Bonita,San Diego County,32.658,-117.030
2740,Larkspur,Marin County,37.934,-122.535
3178,Mendota,Fresno County,36.754,-120.382
3084,Marysville,Yuba County,39.146,-121.591
2838,Lindsay,Tulare County,36.203,-119.088
1783,Fortuna,Humboldt County,40.598,-124.157
4411,San Marino,Los Angeles County,34.121,-118.106
1514,El Sobrante,Riverside County,33.872,-117.463
1085,Commerce,Los Angeles County,34.001,-118.160
4320,Rossmoor,Orange County,33.786,-118.085
5450,Winton,Merced County,37.389,-120.613
1336,Diamond Springs,El Dorado County,38.695,-120.815
2285,Hillcrest,Kern County,35.380,-118.956
5095,Valley Center,San Diego County,33.218,-117.034
0123,Anderson,Shasta County,40.448,-122.298
0767,Canyon Lake,Riverside County,33.685,-117.273
3885,Piedmont,Alameda County,37.824,-122.232
1661,Fairview,Alameda County,37.679,-122.046
2291,Hillsborough,San Mateo County,37.574,-122.379
0994,Clayton,Contra Costa County,37.941,-121.936
1301,Delhi,Merced County,37.432,-120.779
3940,Placerville,El Dorado County,38.730,-120.799
4860,Swansboro,El Dorado County,38.730,-120.799
1681,Farmersville,Tulare County,36.298,-119.207
1642,Exeter,Tulare County,36.296,-119.142
4228,Rio Vista,Solano County,38.156,-121.691
0768,Capitola,Santa Cruz County,36.975,-121.953
0904,Charter Oak,Los Angeles County,34.103,-117.846
3184,Mentone,San Bernardino County,34.070,-117.134
1144,Country Club,San Joaquin County,37.969,-121.341
2679,Lake Arrowhead,San Bernardino County,34.248,-117.189
0458,Blackhawk,Contra Costa County,37.821,-121.908
4284,Rodeo,Contra Costa County,38.033,-122.267
1174,Crestline,San Bernardino County,34.242,-117.286
2859,Live Oak,Sutter County,39.276,-121.660
5237,Waterford,Stanislaus County,37.641,-120.760
3614,Oak Hills,San Bernardino County,34.383,-117.381
1018,Cloverdale,Sonoma County,38.805,-123.017
2644,La Cresta,Kern County,35.401,-118.996
4886,Taft,Kern County,35.142,-119.457
1970,Gonzales,Monterey County,36.507,-121.444
2082,Guadalupe,Santa Barbara County,34.972,-120.572
4914,Templeton,San Luis Obispo County,35.550,-120.706
2223,Heber,Imperial County,32.731,-115.530
3701,Orland,Glenn County,39.747,-122.196
1123,Corning,Tehama County,39.928,-122.179
2431,Interlaken,Santa Cruz County,36.951,-121.734
1971,Good Hope,Riverside County,33.765,-117.267
5328,Westlake Village,Los Angeles County,34.146,-118.806
0927,Cherry Valley,Riverside County,33.973,-116.977
5476,Woodlake,Tulare County,36.414,-119.099
0378,Ben Lomond,Santa Cruz County,37.089,-122.086
1650,Fairfax,Marin County,37.987,-122.589
0828,Castroville,Monterey County,36.766,-121.758
4499,Sebastopol,Sonoma County,38.402,-122.824
1804,Franklin,Merced County,37.328,-120.532
2068,Gridley,Butte County,39.364,-121.694
5447,Winters,Yolo County,38.525,-121.971
4412,San Martin,Santa Clara County,37.088,-121.600
1793,Fowler,Fresno County,36.631,-119.678
0198,Atherton,San Mateo County,37.461,-122.198
2903,Loomis,Placer County,38.821,-121.193
0011,Acton,Los Angeles County,34.470,-118.197
2337,Homeland,Riverside County,33.743,-117.109
1170,Crescent City,Del Norte County,41.756,-124.202
5429,Wilton,Sacramento County,38.412,-121.272
2395,Huron,Fresno County,36.203,-120.103
2093,Gustine,Merced County,37.258,-120.999
1425,Durham,Butte County,39.646,-121.800
1141,Cottonwood,Shasta County,40.386,-122.281
1873,Garnet,Riverside County,33.902,-116.546
5146,Villa Park,Orange County,33.814,-117.813
5403,Williams,Colusa County,39.155,-122.149
2333,Holtville,Imperial County,32.811,-115.380
0736,Cambria,San Luis Obispo County,35.564,-121.081
2584,Keyes,Stanislaus County,37.557,-120.915
0679,Burbank,Santa Clara County,37.323,-121.932
3761,Palermo,Butte County,39.435,-121.538
4701,St. Helena,Napa County,38.505,-122.470
4801,Strawberry,Marin County,37.897,-122.509
5046,Twin Lakes,Santa Cruz County,36.967,-121.998
2436,Ione,Amador County,38.353,-120.933
3625,Oakhurst,Madera County,37.328,-119.649
3781,Paradise,Butte County,39.760,-121.622
2742,Las Flores,Orange County,33.588,-117.627
1229,Cutler,Tulare County,36.523,-119.287
1983,Goshen,Tulare County,36.351,-119.420
2705,Lakeport,Lake County,39.043,-122.916
5490,Woodside,San Mateo County,37.430,-122.254
2464,Jackson,Amador County,38.349,-120.774
1508,El Cerrito,Riverside County,33.841,-117.523
2566,Kensington,Contra Costa County,37.911,-122.280
4625,Sonora,Tuolumne County,37.984,-120.382
5402,Willits,Mendocino County,39.410,-123.356
2417,Indian Wells,Riverside County,33.719,-116.308
3094,Mather,Sacramento County,38.548,-121.284
2044,Greenacres,Kern County,35.383,-119.110
0602,Brisbane,San Mateo County,37.681,-122.400
4842,Sunnyside,Fresno County,36.749,-119.699
3156,Mecca,Riverside County,33.572,-116.077
2461,Ivanhoe,Tulare County,36.387,-119.218
1752,Ford City,Kern County,35.154,-119.456
1102,Cool,El Dorado County,38.887,-121.015
1509,El Dorado,El Dorado County,38.683,-120.848
5471,Woodbridge,San Joaquin County,38.154,-121.301
5261,Weaverville,Trinity County,40.731,-122.942
5102,Valley Springs,Calaveras County,38.192,-120.829
3154,Meadowbrook,Riverside County,33.726,-117.285
2051,Greenfield,Kern County,35.269,-119.003
0444,Bishop,Inyo County,37.364,-118.395
5345,Wheatland,Yuba County,39.010,-121.423
1822,French Camp,San Joaquin County,37.884,-121.271
1766,Forestville,Sonoma County,38.474,-122.890
4623,Somerset,El Dorado County,38.648,-120.686
2743,Las Lomas,Monterey County,36.865,-121.735
0350,Bella Vista,Shasta County,40.641,-122.233
0749,Campo,San Diego County,32.606,-116.469
4414,San Miguel,Contra Costa County,37.887,-122.037
2690,Lake Isabella,Kern County,35.618,-118.473
2474,Jamestown,Tuolumne County,37.953,-120.423
4293,Rollingwood,Contra Costa County,37.965,-122.330
2830,Lincoln Village,San Joaquin County,38.005,-121.328
1586,Empire,Stanislaus County,37.638,-120.902
1698,Felton,Santa Cruz County,37.051,-122.073
3275,Mission Hills,Santa Barbara County,34.686,-120.437
1184,Crockett,Contra Costa County,38.052,-122.213
3905,Pine Hills,Humboldt County,40.733,-124.152
1816,Freedom,Santa Cruz County,36.935,-121.773
0225,Avalon,Los Angeles County,33.343,-118.328
0401,Burney,Shasta County,40.882,-121.661
4372,Sage,Riverside County,33.582,-116.932
4225,Rio Dell,Humboldt County,40.499,-124.106
4798,Strathmore,Tulare County,36.146,-119.061
0032,Agua Dulce,Los Angeles County,34.496,-118.326
5431,Winchester,Riverside County,33.707,-117.084
3571,North Fork,Madera County,37.230,-119.509
2033,Green Acres,Riverside County,33.738,-117.076
4966,Tipton,Tulare County,36.059,-119.312
1898,Georgetown,El Dorado County,38.907,-120.839
2941,Lucerne,Lake County,39.090,-122.796
0308,Bayview,Humboldt County,40.773,-124.184
3580,North Shore,Riverside County,33.515,-115.911
2173,Hartley,Solano County,38.417,-121.947
1357,Dogtown,San Joaquin County,38.214,-121.089
3303,Montara,San Mateo County,37.542,-122.516
2475,Janesville,Lassen County,40.297,-120.524
5268,Weed,Siskiyou County,41.423,-122.386
3903,Pine Grove,Amador County,38.413,-120.659
4414,San Miguel,San Luis Obispo County,35.752,-120.696
0308,Bayview,Contra Costa County,38.007,-122.319
3630,Oasis,Riverside County,33.466,-116.099
0100,Alturas,Modoc County,41.487,-120.542
3540,Nice,Lake County,39.123,-122.848
2563,Kennedy,San Joaquin County,37.930,-121.253
4950,Three Rivers,Tulare County,36.439,-118.905
4176,Rescue,El Dorado County,38.712,-120.951
0657,Buckhorn,Amador County,38.452,-120.529
4241,Riverdale,Fresno County,36.431,-119.860
4593,Sleepy Hollow,Marin County,38.010,-122.584
3798,Parkwood,Madera County,36.927,-120.045
1866,Garden Valley,El Dorado County,38.854,-120.859
4318,Ross,Marin County,37.962,-122.555
2711,Lakeview,Riverside County,33.839,-117.118
5272,Weldon,Kern County,35.666,-118.290
0728,Callender,San Luis Obispo County,35.053,-120.596
0932,Chester,Plumas County,40.306,-121.232
4589,Sky Valley,Riverside County,33.890,-116.353
1464,Easton,Fresno County,36.650,-119.791
4101,Rainbow,San Diego County,33.410,-117.148
0442,Byron,Contra Costa County,37.867,-121.638
0176,Arnold,Calaveras County,38.255,-120.351
0375,Belvedere,Marin County,37.873,-122.464
1070,Columbia,Tuolumne County,38.036,-120.401
1061,Colfax,Placer County,39.101,-120.953
3959,Pleasant Valley,El Dorado County,38.683,-120.663
0434,Biggs,Butte County,39.412,-121.713
5494,Woodville,Tulare County,36.094,-119.199
2836,Linden,San Joaquin County,38.021,-121.084
3401,Mountain View,Contra Costa County,38.009,-122.117
1064,Collierville,San Joaquin County,38.215,-121.269
1531,Elizabeth Lake,Los Angeles County,34.656,-118.380
2805,Lewiston,Trinity County,40.707,-122.808
4820,Sugarloaf,San Bernardino County,34.243,-116.829
2023,Graton,Sonoma County,38.436,-122.870
4087,Quincy,Plumas County,39.937,-120.947
4494,Seeley,Imperial County,32.793,-115.691
0072,Allendale,Solano County,38.445,-121.943
2697,Lake Sherwood,Ventura County,34.132,-118.885
4292,Rolling Hills,Los Angeles County,33.757,-118.354
2298,Hinkley,San Bernardino County,34.933,-117.200
3913,Pine Valley,San Diego County,32.821,-116.529
2043,Green Valley,Solano County,38.253,-122.162
2432,Inverness,Marin County,38.101,-122.857
2766,Le Grand,Merced County,37.229,-120.248
5217,Warm Springs,Riverside County,33.707,-117.334
3215,Middletown,Lake County,38.752,-122.615
2883,London,Tulare County,36.476,-119.443
3925,Pioneer,Amador County,38.432,-120.572
1296,Del Rio,Stanislaus County,37.744,-121.012
1704,Ferndale,Humboldt County,40.576,-124.264
5338,Westwood,Lassen County,40.306,-121.006
1837,Fruitdale,Santa Clara County,37.311,-121.933
2026,Grayson,Stanislaus County,37.564,-121.179
2910,Los Alamos,Santa Barbara County,34.744,-120.278
2526,Julian,San Diego County,33.079,-116.602
4547,Sheridan,Placer County,38.980,-121.376
5417,Willow Creek,Humboldt County,40.940,-123.631
0617,Brookdale,Santa Cruz County,37.106,-122.106
3301,Montague,Siskiyou County,41.728,-122.528
3525,Newcastle,Placer County,38.874,-121.133
1540,Elkhorn,Monterey County,36.824,-121.740
2864,Llano,Los Angeles County,34.493,-117.788
2529,Junction City,Trinity County,40.733,-123.054
0883,Chalfant,Mono County,37.492,-118.390
2856,Littlerock,Los Angeles County,34.521,-117.984
5205,Walnut Grove,Sacramento County,38.242,-121.512
3844,Penn Valley,Nevada County,39.196,-121.191
4797,Stratford,Kings County,36.189,-119.823
4526,Shandon,San Luis Obispo County,35.655,-120.375
5310,West Park,Fresno County,36.710,-119.851
3103,Maxwell,Colusa County,39.276,-122.191
3969,Plymouth,Amador County,38.482,-120.845
0989,Clay,Sacramento County,38.336,-121.159
4242,Riverdale Park,Stanislaus County,37.609,-121.052
5377,Whitewater,Riverside County,33.925,-116.638
3848,Penryn,Placer County,38.852,-121.169
0528,Boonville,Mendocino County,39.009,-123.366
2155,Herald,Sacramento County,38.296,-121.244
3379,Mount Hermon,Santa Cruz County,37.051,-122.058
2571,Kenwood,Sonoma County,38.414,-122.546
3053,Maricopa,Kern County,35.059,-119.401
2062,Greenwood,El Dorado County,38.897,-120.913
2043,Green Valley,Los Angeles County,34.622,-118.414
4890,Talmage,Mendocino County,39.133,-123.168
1382,Doyle,Lassen County,40.028,-120.104
1525,Eldridge,Sonoma County,38.349,-122.511
3002,Malaga,Fresno County,36.684,-119.734
0824,Castle Hill,Contra Costa County,37.875,-122.059
5238,Waterloo,San Joaquin County,38.035,-121.187
0096,Alto,Marin County,37.904,-122.526
4945,Thornton,San Joaquin County,38.226,-121.425
3117,McCloud,Siskiyou County,41.256,-122.139
0251,Ballard,Santa Barbara County,34.636,-120.113
1005,Clements,San Joaquin County,38.191,-121.088
0666,Buena Vista,Amador County,38.294,-120.913
3815,Patton Village,Lassen County,40.141,-120.155
4673,Spring Valley,Lake County,39.076,-122.585
2410,Independence,Inyo County,36.803,-118.200
2577,Kernville,Kern County,35.755,-118.425
5199,Wallace,Calaveras County,38.194,-120.978
5311,West Point,Calaveras County,38.399,-120.527
3251,Millville,Shasta County,40.549,-122.175
3241,Millerton,Fresno County,36.977,-119.666
2259,Hickman,Stanislaus County,37.624,-120.754
2694,Lake of the Woods,Kern County,34.817,-118.996
2419,Indianola,Humboldt County,40.810,-124.078
3019,Manila,Humboldt County,40.852,-124.162
0858,Cedarville,Modoc County,41.529,-120.173
1291,Deer Park,Napa County,38.533,-122.470
1262,Davenport,Santa Cruz County,37.012,-122.192
1620,Etna,Siskiyou County,41.457,-122.895
1147,Courtland,Sacramento County,38.331,-121.569
4292,Rolling Hills,Madera County,36.903,-119.798
1052,Cold Springs,El Dorado County,38.742,-120.870
2060,Greenville,Plumas County,40.140,-120.951
1034,Cobb,Lake County,38.822,-122.723
0093,Alta,Placer County,39.207,-120.811
5138,Victor,San Joaquin County,38.138,-121.206
1021,Clyde,Contra Costa County,38.025,-122.029
4229,Ripley,Riverside County,33.525,-114.656
1152,Cowan,Stanislaus County,37.560,-120.989
0246,Baker,San Bernardino County,35.265,-116.074
2871,Lockwood,Amador County,38.487,-120.603
4331,Round Valley,Inyo County,37.419,-118.588
1645,Fair Play,El Dorado County,38.594,-120.661
4197,Richfield,Tehama County,39.975,-122.177
2077,Groveland,Tuolumne County,37.838,-120.233
3945,Plainview,Tulare County,36.144,-119.134
1043,Cohasset,Butte County,39.925,-121.731
4684,Springville,Tulare County,36.130,-118.818
2988,Madison,Yolo County,38.679,-121.968
2553,Kelsey,El Dorado County,38.799,-120.821
4480,Scotia,Humboldt County,40.482,-124.101
1844,Fulton,Sonoma County,38.496,-122.770
3864,Peters,San Joaquin County,37.981,-121.048
2070,Grimes,Colusa County,39.074,-121.894
4520,Seville,Tulare County,36.486,-119.223
0589,Bridgeport,Mono County,38.256,-119.231
4325,Rough and Ready,Nevada County,39.230,-121.136
0256,Bangor,Butte County,39.389,-121.405
2974,McArthur,Shasta County,41.050,-121.399
0379,Bend,Tehama County,40.255,-122.209
4249,Robbins,Sutter County,38.870,-121.706
0134,Annapolis,Sonoma County,38.722,-123.370
5195,Walker,Mono County,38.515,-119.477
3069,Marshall,Marin County,38.161,-122.894
3527,Newell,Modoc County,41.888,-121.372
1498,Edna,San Luis Obispo County,35.204,-120.613
1069,Coloma,El Dorado County,38.800,-120.890
3196,Mesa,Inyo County,37.417,-118.539
0979,Clarksburg,Yolo County,38.420,-121.527
2871,Lockwood,Monterey County,35.944,-121.083
1512,El Portal,Mariposa County,37.675,-119.784
3192,Meridian,Sutter County,39.143,-121.914
2065,Grenada,Siskiyou County,41.647,-122.520
2009,Grangeville,Kings County,36.344,-119.709
4053,Princeton,Colusa County,39.403,-122.010
4763,Stirling City,Butte County,39.908,-121.528
0290,Bass Lake,Madera County,37.325,-119.566
5010,Trinidad,Humboldt County,41.059,-124.143
3696,Orick,Humboldt County,41.287,-124.060
1040,Coffee Creek,Trinity County,41.089,-122.709
0841,Cazadero,Sonoma County,38.533,-123.085
5049,Two Harbors,Los Angeles County,33.440,-118.498
3032,Manton,Tehama County,40.435,-121.870
4516,Seven Oaks,San Bernardino County,34.186,-116.914
0390,Benton,Mono County,37.819,-118.477
0819,Cassel,Shasta County,40.919,-121.548
0996,Clear Creek,Lassen County,40.298,-121.049
2548,Keene,Kern County,35.224,-118.562
3013,Manchester,Mendocino County,38.970,-123.688
0227,Avery,Calaveras County,38.204,-120.370
0756,Canby,Modoc County,41.444,-120.870
4597,Smith Corner,Kern County,35.478,-119.279
0049,Albion,Mendocino County,39.224,-123.769
0817,Caspar,Mendocino County,39.364,-123.816
0513,Bowles,Fresno County,36.604,-119.751
1652,Fairhaven,Humboldt County,40.785,-124.203
2421,Industry,Los Angeles County,34.020,-117.959
2346,Hood,Sacramento County,38.368,-121.517
4396,Samoa,Humboldt County,40.819,-124.186
2617,Kirkwood,Alpine County,38.689,-120.055
2742,Las Flores,Tehama County,40.072,-122.163
5150,Vina,Tehama County,39.933,-122.054
3075,Martell,Amador County,38.367,-120.796
2749,Latrobe,El Dorado County,38.560,-120.984
5130,Vernon,Los Angeles County,34.004,-118.230
2052,Greenhorn,Plumas County,39.904,-120.751
3262,Mineral,Tehama County,40.348,-121.595
3877,Philo,Mendocino County,39.066,-123.445
3902,Pine Flat,Tulare County,35.878,-118.651
1561,Elmira,Solano County,38.348,-121.910
3781,Paradise,Mono County,37.483,-118.602
0480,Bloomfield,Sonoma County,38.314,-122.851
2852,Little River,Mendocino County,39.271,-123.788
3300,Monson,Tulare County,36.492,-119.337
1015,Clio,Plumas County,39.743,-120.580
4347,Rumsey,Yolo County,38.888,-122.237
1781,Fort Washington,Fresno County,36.879,-119.761
0870,Centerville,Fresno County,36.734,-119.498
5125,Verdi,Sierra County,39.524,-120.013
4358,Ruth,Trinity County,40.270,-123.321
3892,Pike,Sierra County,39.439,-120.998
4652,Spaulding,Lassen County,40.656,-120.786
1535,Elk Creek,Glenn County,39.605,-122.539
2850,Litchfield,Lassen County,40.383,-120.387
1683,Farmington,San Joaquin County,37.930,-121.000
2147,Hardwick,Kings County,36.401,-119.719
4605,Snelling,Merced County,37.519,-120.437
0498,Bluewater,San Bernardino County,34.174,-114.271
2580,Keswick,Shasta County,40.622,-122.466
4275,Rockville,Solano County,38.244,-122.122
0424,Big Creek,Fresno County,37.205,-119.246
4801,Strawberry,Tuolumne County,38.198,-120.009
0423,Big Bend,Shasta County,41.021,-121.911
3141,McKittrick,Kern County,35.306,-119.623
4328,Round Mountain,Shasta County,40.794,-121.942
5230,Washington,Nevada County,39.359,-120.799
3294,Monmouth,Fresno County,36.566,-119.740
2059,Greenview,Siskiyou County,41.551,-122.906
0317,Bear Creek,Merced County,37.297,-120.417
4359,Rutherford,Napa County,38.459,-122.422
3227,Milford,Lassen County,40.171,-120.372
1379,Downieville,Sierra County,39.559,-120.827
0921,Cherokee,Butte County,39.646,-121.538
2501,Johannesburg,Kern County,35.373,-117.635
1616,Essex,San Bernardino County,34.734,-115.245
5015,Trona,Inyo County,35.816,-117.347
4390,Salmon Creek,Sonoma County,38.351,-123.062
0320,Bear Valley,Mariposa County,37.569,-120.119
3504,New Pine Creek,Modoc County,41.987,-120.301
2120,Hamburg,Siskiyou County,41.783,-123.060
0320,Bear Valley,Alpine County,38.465,-120.040
1261,Darwin,Inyo County,36.268,-117.592
2973,Mabie,Plumas County,39.794,-120.521
5167,Volcano,Amador County,38.443,-120.631
0557,Bradley,Monterey County,35.863,-120.801
0794,Carrick,Siskiyou County,41.447,-122.364
0803,Cartago,Inyo County,36.321,-118.026
4990,Tuttle,Merced County,37.296,-120.379
5336,Westport,Mendocino County,39.636,-123.783
4042,Prattville,Plumas County,40.209,-121.157
4614,Soda Springs,Nevada County,39.323,-120.380
3991,Ponderosa,Tulare County,36.105,-118.528
1513,El Rancho,Tulare County,36.221,-119.068
1488,Edgewood,Siskiyou County,41.458,-122.432
1012,Clinton,Amador County,38.376,-120.668
2782,Leggett,Mendocino County,39.866,-123.714
1143,Coulterville,Mariposa County,37.710,-120.198
2683,Lake City,Modoc County,41.643,-120.217
2901,Lookout,Modoc County,41.208,-121.155
4916,Tennant,Siskiyou County,41.584,-121.913
2547,Keeler,Inyo County,36.487,-117.874
1357,Dogtown,Marin County,37.945,-122.706
1804,Franklin,Sacramento County,38.379,-121.454
4908,Taylorsville,Plumas County,40.075,-120.840
3557,Norden,Nevada County,39.318,-120.356
4561,Shoshone,Inyo County,35.973,-116.271
1444,Eagleville,Modoc County,41.316,-120.116
4244,Riverton,El Dorado County,38.771,-120.449
5045,Twin Bridges,El Dorado County,38.811,-120.124
2153,Harmony,San Luis Obispo County,35.509,-121.023
3876,Phillips,El Dorado County,38.818,-120.078
2012,Graniteville,Nevada County,39.441,-120.740
2945,Ludlow,San Bernardino County,34.721,-116.160
0109,Amboy,San Bernardino County,34.557,-115.745
3536,Newtown,El Dorado County,38.704,-120.679
4437,Sandy Valley,Inyo County,35.814,-115.678
0095,Altamont,Alameda County,37.744,-121.663
0148,Applegate,Placer County,39.001,-120.993
0195,Asuncion,San Luis Obispo County,35.515,-120.679
0202,Atlanta,San Joaquin County,37.813,-121.121
0237,Badger,Tulare County,36.631,-119.013
0341,Belden,Plumas County,40.006,-121.249
0472,Blanco,Monterey County,36.679,-121.743
0492,Blue Jay,San Bernardino County,34.246,-117.209
0530,Borden,Madera County,36.930,-120.027
0548,Box Springs,Riverside County,33.947,-117.296
0593,Bridgeville,Humboldt County,40.469,-123.800
0612,Brockway,Placer County,39.227,-120.012
0624,Brooks,Yolo County,38.742,-122.148
0630,Brown,Kern County,35.774,-117.850
0634,Browns Valley,Yuba County,39.242,-121.409
0657,Buckhorn,Ventura County,34.401,-118.816
0703,Butte City,Amador County,38.326,-120.735
0703,Butte City,Glenn County,39.465,-121.990
0713,Cadiz,San Bernardino County,34.520,-115.513
0723,Caliente,Kern County,35.291,-118.628
0725,Callahan,Siskiyou County,41.310,-122.801
0765,Canyon,Alameda County,37.834,-122.165
0778,Caribou,Plumas County,40.080,-121.158
0834,Cave City,Calaveras County,38.203,-120.509
0850,Cedar Grove,Fresno County,36.791,-118.670
0870,Centerville,Butte County,39.788,-121.655
0966,Cisco,Placer County,39.302,-120.547
1052,Cold Springs,Tuolumne County,38.162,-120.053
1067,Collinsville,Solano County,38.077,-121.849
1121,Cornell,Los Angeles County,34.114,-118.778
1126,Cornwall,Contra Costa County,38.021,-121.879
1130,Cortez,Merced County,37.475,-120.740
1155,Crafton,San Bernardino County,34.055,-117.121
1175,Creston,San Luis Obispo County,35.519,-120.524
1271,Dayton,Butte County,39.649,-121.872
1316,Dinsmore,Humboldt County,40.492,-123.607
1329,Devore,San Bernardino County,34.216,-117.401
1358,Dolomite,Inyo County,36.553,-117.945
1374,Dougherty,Alameda County,37.711,-121.910
1389,Dresser,Alameda County,37.593,-121.956
1415,Dunlap,Fresno County,36.738,-119.121
1444,Eagleville,Yuba County,39.579,-121.096
1484,Edgemont,Riverside County,33.917,-117.279
1493,Edison,Kern County,35.347,-118.872
1501,Edwards,Kern County,34.926,-117.935
1510,El Mirage,San Bernardino County,34.602,-117.631
1533,Elk,Mendocino County,39.130,-123.718
1538,Elk River,Humboldt County,40.736,-124.174
1580,Emerald Bay,Orange County,33.552,-117.818
1592,Englewood,Humboldt County,40.397,-123.939
1672,Fallon,Marin County,38.275,-122.906
1697,Felicity,Imperial County,32.750,-114.765
1737,Florence,Los Angeles County,33.974,-118.248
1754,Forest,Sierra County,39.491,-120.853
1756,Forest Glen,Trinity County,40.373,-123.325
1785,Foster,San Diego County,32.908,-116.926
1819,Freeport,Sacramento County,38.462,-121.502
1821,Fremont,Yolo County,38.677,-121.635
1838,Fruitland,Humboldt County,40.296,-123.825
1881,Gaston,Nevada County,39.394,-120.742
1933,Glenn,Glenn County,39.522,-122.014
1942,Glencoe,Calaveras County,38.354,-120.585
1950,Glennville,Kern County,35.729,-118.704
1961,Gold Hill,Placer County,38.902,-121.182
1982,Gorman,Los Angeles County,34.796,-118.852
2018,Grapevine,Kern County,34.941,-118.931
2148,Hardy,Mendocino County,39.712,-123.803
2172,Hartland,Tulare County,36.654,-118.958
2188,Hatfield,Siskiyou County,41.998,-121.519
2196,Havilah,Kern County,35.518,-118.519
2221,Hearst,Mendocino County,39.492,-123.215
2248,Herndon,Fresno County,36.837,-119.918
2267,Hidden Valley,Ventura County,34.146,-118.945
2309,Hodge,San Bernardino County,34.816,-117.193
2331,Holt,San Joaquin County,37.934,-121.427
2343,Homewood,Placer County,39.087,-120.160
2358,Horse Creek,Siskiyou County,41.824,-122.997
2384,Hume,Fresno County,36.785,-118.914
2406,Idlewild,Tulare County,35.811,-118.672
2407,Ignacio,Marin County,38.070,-122.539
2416,Indian Village,Inyo County,36.449,-116.874
2472,Jamesburg,Monterey County,36.370,-121.590
2509,Johnsville,Plumas County,39.761,-120.695
2546,Kearsarge,Inyo County,36.807,-118.117
2597,King Salmon,Humboldt County,40.739,-124.219
2599,Kings Mountain,San Mateo County,37.421,-122.323
2644,La Cresta,Riverside County,33.563,-117.316
2650,La Grange,Stanislaus County,37.664,-120.464
2657,La Porte,Plumas County,39.682,-120.984
2683,Lake City,Nevada County,39.359,-120.942
2712,Lakeville,Sonoma County,38.199,-122.547
2866,Loch Lomond,Lake County,38.863,-122.719
2867,Locke,Sacramento County,38.251,-121.509
2904,Loope,Alpine County,38.665,-119.696
2929,Lovelock,Butte County,39.891,-121.578
3077,Martinez,Riverside County,33.563,-116.153
3153,Meadow Lakes,Fresno County,37.080,-119.431
3194,Merrimac,Butte County,39.766,-121.308
3195,Merritt,Yolo County,38.614,-121.761
3200,Metz,Monterey County,36.355,-121.212
3257,Milton,Calaveras County,38.032,-120.852
3272,Minturn,Madera County,37.140,-120.274
3280,Moccasin,Tuolumne County,37.811,-120.300
3312,Montezuma,Solano County,38.091,-121.873
3396,Mountain Home,Santa Clara County,37.121,-121.796
3397,Mountain House,Alameda County,37.754,-121.576
3433,Naples,Santa Barbara County,34.441,-119.959
3444,Navarro,Mendocino County,39.152,-123.542
3541,Nichols,Contra Costa County,38.041,-121.988
3568,North Bloomfield,Nevada County,39.368,-120.899
3619,Oak Run,Shasta County,40.685,-122.024
3620,Oak Valley,Yuba County,39.499,-121.038
3628,Oakville,Napa County,38.437,-122.402
3665,Olive,Orange County,33.836,-117.846
3680,Ono,Shasta County,40.475,-122.618
3686,Ophir,Placer County,38.891,-121.124
3703,Orleans,Humboldt County,41.301,-123.541
3774,Paloma,Calaveras County,38.259,-120.763
3812,Patton,San Bernardino County,34.136,-117.224
3821,Paxton,Plumas County,40.038,-120.995
3868,Petrolia,Humboldt County,40.325,-124.287
3881,Picacho,Imperial County,33.023,-114.611
3886,Piedra,Fresno County,36.810,-119.382
3905,Pine Hills,San Diego County,33.048,-116.631
3914,Pinecrest,Tuolumne County,38.189,-119.991
3979,Polaris,Nevada County,39.339,-120.136
4012,Posey,Tulare County,35.805,-118.683
4047,Preston,Sonoma County,38.835,-123.017
4067,Pumpkin Center,Kern County,35.267,-119.033
4111,Rampart,Placer County,39.165,-120.178
4130,Raymond,Madera County,37.217,-119.906
4167,Relief,Nevada County,39.361,-120.861
4189,Ricardo,Kern County,35.374,-117.989
4225,Rio Dell,Sonoma County,38.499,-122.907
4315,Rosewood,Tehama County,40.280,-122.550
4341,Rucker,Santa Clara County,37.054,-121.591
4362,Ryan,Inyo County,36.323,-116.671
4400,San Benito,San Benito County,36.510,-121.082
4456,Saratoga Springs,Lake County,39.175,-122.981
4459,Sargent,San Benito County,36.930,-121.586
4490,Sea Cliff,Ventura County,34.341,-119.415
4499,Sebastopol,Nevada County,39.363,-121.121
4505,Selby,Contra Costa County,38.057,-122.244
4573,Silver City,Tulare County,36.466,-118.646
4614,Soda Springs,Placer County,39.247,-120.325
4667,Spring Garden,Plumas County,39.895,-120.786
4678,Springfield,Tuolumne County,38.021,-120.411
4682,Springtown,Monterey County,36.645,-121.664
4733,Standish,Lassen County,40.365,-120.422
4788,Storey,Madera County,36.974,-120.019
4801,Strawberry,El Dorado County,38.797,-120.145
4830,Summit,Santa Cruz County,37.132,-121.980
4862,Swanton,Santa Cruz County,37.064,-122.226
4893,Tamarack,Calaveras County,38.439,-120.076
4949,Three Points,Los Angeles County,34.736,-118.599
4962,Timbuctoo,Yuba County,39.217,-121.319
5015,Trona,San Bernardino County,35.765,-117.383
5132,Verona,Alameda County,37.627,-121.881
5136,Vichy Springs,Mendocino County,39.167,-123.158
5136,Vichy Springs,Napa County,38.338,-122.260
5157,Vinton,Plumas County,39.804,-120.178
5269,Weimar,Placer County,39.038,-120.972
5282,Wendel,Lassen County,40.348,-120.234
5350,Whispering Pines,Lake County,38.814,-122.713
5364,White River,Tulare County,35.812,-118.844
5382,Whitmore,Shasta County,40.629,-121.917
5421,Willow Springs,Kern County,34.878,-118.297
5484,Woodleaf,Yuba County,39.517,-121.192
5533,Yorkville,Mendocino County,38.898,-123.214
5539,Zamora,Yolo County,38.797,-121.882