phoneme,name,county,latitude,longitude
2537,Kansas City,Cass County,39.122,-94.555
4711,St. Louis,St. Louis city,38.627,-90.198
4678,Springfield,Christian County,37.194,-93.293
1070,Columbia,Boone County,38.952,-92.334
2410,Independence,Clay County,39.085,-94.352
3606,O'Fallon,St. Charles County,38.811,-90.700
4707,St. Joseph,Buchanan County,39.769,-94.847
4691,St. Charles,St. Charles County,38.784,-90.481
0496,Blue Springs,Jackson County,39.017,-94.282
1741,Florissant,St. Louis County,38.789,-90.323
2518,Joplin,Jasper County,37.075,-94.501
0933,Chesterfield,St. Louis County,38.663,-90.577
2483,Jefferson City,Callaway County,38.567,-92.175
3628,Oakville,St. Louis County,38.470,-90.305
5396,Wildwood,St. Louis County,38.583,-90.663
2813,Liberty,Clay County,39.246,-94.419
4133,Raytown,Jackson County,39.009,-94.464
2617,Kirkwood,St. Louis County,38.583,-90.407
3168,Mehlville,St. Louis County,38.508,-90.323
1928,Gladstone,Clay County,39.204,-94.555
2006,Grandview,Jackson County,38.886,-94.533
2214,Hazelwood,St. Louis County,38.771,-90.371
0374,Belton,Cass County,38.812,-94.532
3748,Ozark,Christian County,37.021,-93.206
4501,Sedalia,Pettis County,38.704,-93.228
0176,Arnold,Jefferson County,38.433,-90.378
4291,Rolla,Phelps County,37.951,-91.771
5221,Warrensburg,Johnson County,38.763,-93.736
4174,Republic,Christian County,37.169,-93.413
0025,Affton,St. Louis County,38.551,-90.333
1090,Concord,St. Louis County,38.525,-90.357
1180,Creve Coeur,St. Louis County,38.661,-90.423
1702,Ferguson,St. Louis County,38.744,-90.305
1683,Farmington,St. Francois County,37.781,-90.422
3013,Manchester,St. Louis County,38.597,-90.509
2136,Hannibal,Marion County,39.710,-91.394
0994,Clayton,St. Louis County,38.643,-90.324
4568,Sikeston,New Madrid County,36.885,-89.587
3737,Overland,St. Louis County,38.701,-90.362
0807,Carthage,Jasper County,37.176,-94.310
2464,Jackson,Cape Girardeau County,37.382,-89.666
2772,Lebanon,Laclede County,37.681,-92.664
5230,Washington,Franklin County,38.558,-91.012
3069,Marshall,Saline County,39.123,-93.197
5019,Troy,Lincoln County,38.979,-90.981
5263,Webb City,Jasper County,37.146,-94.463
2487,Jennings,St. Louis County,38.719,-90.260
0569,Branson,Stone County,36.612,-93.292
1844,Fulton,Callaway County,38.847,-91.948
3459,Neosho,Newton County,36.869,-94.368
5065,Union,Franklin County,38.450,-91.008
1177,Crestwood,St. Louis County,38.557,-90.382
1629,Eureka,Jefferson County,38.498,-90.645
3201,Mexico,Audrain County,39.170,-91.883
4993,Town and Country,St. Louis County,38.612,-90.463
0591,Bridgeton,St. Louis County,38.767,-90.412
0515,Bolivar,Polk County,37.614,-93.410
3085,Maryville,Nodaway County,40.346,-94.872
2545,Kearney,Clay County,39.368,-94.362
4602,Smithville,Clay County,39.397,-94.571
2165,Harrisonville,Cass County,38.653,-94.349
1554,Ellisville,St. Louis County,38.593,-90.587
3291,Monett,Barry County,36.921,-93.927
1012,Clinton,Henry County,38.369,-93.778
4202,Richmond Heights,St. Louis County,38.629,-90.320
5222,Warrenton,Warren County,38.811,-91.142
3954,Pleasant Hill,Cass County,38.806,-94.272
3787,Park Hills,St. Francois County,37.854,-90.518
3858,Perryville,Perry County,37.724,-89.861
0739,Cameron,Caldwell County,39.745,-94.232
3611,Oak Grove,Jackson County,39.007,-94.128
3418,Murphy,Jefferson County,38.490,-90.487
3462,Nevada,Vernon County,37.839,-94.355
3042,Maplewood,St. Louis County,38.613,-90.325
0578,Brentwood,St. Louis County,38.618,-90.349
0395,Berkeley,St. Louis County,38.755,-90.331
1333,Dexter,Stoddard County,36.796,-89.958
0528,Boonville,Cooper County,38.974,-92.743
3796,Parkville,Platte County,39.195,-94.682
3073,Marshfield,Webster County,37.339,-92.907
3751,Pacific,Franklin County,38.481,-90.751
0221,Aurora,Lawrence County,36.971,-93.718
4822,Sullivan,Crawford County,38.213,-91.164
5101,Valley Park,St. Louis County,38.549,-90.493
4705,St. John,St. Louis County,38.715,-90.346
0273,Barnhart,Jefferson County,38.344,-90.393
1275,De Soto,Jefferson County,38.139,-90.555
5401,Willard,Greene County,37.305,-93.429
4562,Shrewsbury,St. Louis County,38.590,-90.337
1943,Glendale,St. Louis County,38.596,-90.377
2062,Greenwood,Cass County,38.842,-94.334
4201,Richmond,Ray County,39.279,-93.977
3642,Odessa,Lafayette County,38.999,-93.954
2985,Macon,Macon County,39.742,-92.473
5255,Waynesville,Pulaski County,37.829,-92.201
5508,Wright City,Warren County,38.828,-91.020
2409,Imperial,Jefferson County,38.370,-90.378
4464,Savannah,Andrew County,39.942,-94.830
0898,Charleston,Mississippi County,36.921,-89.351
1303,Dellwood,St. Louis County,38.749,-90.286
0187,Ashland,Boone County,38.774,-92.257
4692,St. Clair,Franklin County,38.345,-90.981
1206,Crystal City,Jefferson County,38.221,-90.379
4260,Rock Hill,St. Louis County,38.608,-90.378
0875,Centralia,Audrain County,39.211,-92.134
2323,Hollister,Taney County,36.621,-93.215
4382,Salem,Dent County,37.646,-91.536
2808,Lexington,Lafayette County,39.185,-93.880
0724,California,Moniteau County,38.628,-92.567
3390,Mount Vernon,Lawrence County,37.104,-93.819
1521,Eldon,Miller County,38.348,-92.582
4288,Rogersville,Greene County,37.115,-93.075
4483,Scott City,Cape Girardeau County,37.225,-89.538
1813,Fredericktown,Madison County,37.560,-90.294
2716,Lamar,Barton County,37.495,-94.277
0544,Bowling Green,Pike County,39.342,-91.195
3562,Normandy,St. Louis County,38.721,-90.297
0700,Butler,Bates County,38.259,-94.331
4243,Riverside,Platte County,39.178,-94.613
1699,Fenton,St. Louis County,38.513,-90.436
4703,St. James,Phelps County,37.997,-91.614
1834,Frontenac,St. Louis County,38.636,-90.415
3004,Malden,Dunklin County,36.557,-89.966
3771,Palmyra,Marion County,39.794,-91.523
2291,Hillsboro,Jefferson County,38.232,-90.563
5113,Vandalia,Audrain County,39.308,-91.489
0667,Buffalo,Dallas County,37.644,-93.092
4721,St. Paul,St. Charles County,38.861,-90.742
2924,Louisiana,Pike County,39.449,-91.052
4816,Sugar Creek,Clay County,39.139,-94.409
0821,Cassville,Barry County,36.677,-93.869
5147,Villa Ridge,Franklin County,38.473,-90.887
1210,Cuba,Crawford County,38.063,-91.403
0661,Buckner,Jackson County,39.133,-94.199
0224,Ava,Douglas County,36.952,-92.660
4966,Tipton,Moniteau County,38.656,-92.780
5433,Windsor,Henry County,38.532,-93.523
3959,Pleasant Valley,Clay County,39.216,-94.484
3743,Owensville,Gasconade County,38.346,-91.502
1694,Fayette,Howard County,39.146,-92.684
1768,Forsyth,Taney County,36.685,-93.120
2039,Green Park,St. Louis County,38.524,-90.338
3297,Monroe City,Marion County,39.654,-91.732
0764,Canton,Lewis County,40.125,-91.625
4794,Strafford,Greene County,37.269,-93.118
3401,Mountain View,Howell County,36.995,-91.704
5133,Versailles,Morgan County,38.431,-92.841
2763,Lawson,Clay County,39.433,-94.220
4018,Potosi,Washington County,37.936,-90.788
1144,Country Club,Andrew County,39.847,-94.824
2207,Hayti,Pemiscot County,36.234,-89.750
4245,Riverview,St. Louis County,38.748,-90.212
3491,New Haven,Franklin County,38.608,-91.219
1421,Duquesne,Jasper County,37.077,-94.459
1091,Concordia,Lafayette County,38.983,-93.569
2747,Lathrop,Clinton County,39.548,-94.330
4511,Seneca,Newton County,36.841,-94.611
5225,Warsaw,Benton County,38.243,-93.382
3952,Plattsburg,Clinton County,39.566,-94.448
3061,Marlborough,St. Louis County,38.570,-90.337
2314,Holden,Johnson County,38.714,-93.991
2244,Hermann,Gasconade County,38.704,-91.437
5421,Willow Springs,Howell County,36.992,-91.970
2364,Houston,Texas County,37.326,-91.956
1994,Granby,Newton County,36.920,-94.263
0123,Anderson,McDonald County,36.651,-94.444
4655,Sparta,Christian County,37.001,-93.082
4591,Slater,Saline County,39.218,-93.069
3885,Piedmont,Wayne County,37.154,-90.696
4932,Thayer,Oregon County,36.525,-91.538
4522,Seymour,Webster County,37.146,-92.769
0401,Bernie,Stoddard County,36.669,-89.969
0806,Carterville,Jasper County,37.149,-94.443
1854,Gallatin,Daviess County,39.914,-93.962
3222,Milan,Sullivan County,40.202,-93.125
4756,Steele,Pemiscot County,36.084,-89.829
4779,Stockton,Cedar County,37.699,-93.796
0480,Bloomfield,Stoddard County,36.886,-89.929
5333,Weston,Platte County,39.411,-94.902
0851,Cedar Hill,Jefferson County,38.353,-90.641
4199,Richland,Camden County,37.861,-92.400
0023,Adrian,Bates County,38.398,-94.352
5074,Unionville,Putnam County,40.477,-93.003
3174,Memphis,Scotland County,40.458,-92.171
1363,Doniphan,Ripley County,36.621,-90.823
0044,Albany,Gentry County,40.249,-94.331
2117,Hallsville,Boone County,39.117,-92.221
1864,Garden City,Cass County,38.561,-94.191
5279,Wellston,St. Louis County,38.673,-90.299
0535,Bourbon,Crawford County,38.155,-91.244
0744,Campbell,Dunklin County,36.493,-90.075
4699,St. George,St. Louis County,38.536,-90.312
5436,Winfield,Lincoln County,38.997,-90.738
1160,Crane,Stone County,36.905,-93.572
2447,Ironton,Iron County,37.597,-90.627
5431,Winchester,St. Louis County,38.590,-90.528
4757,Steelville,Crawford County,37.968,-91.355
0347,Belle,Maries County,38.285,-91.721
3626,Oakland,St. Louis County,38.576,-90.386
2393,Huntsville,Randolph County,39.441,-92.545
2842,Linn,Osage County,38.486,-91.850
0024,Advance,Stoddard County,37.105,-89.911
4866,Sweet Springs,Saline County,38.964,-93.415
0446,Bismarck,St. Francois County,37.769,-90.625
2656,La Plata,Macon County,40.023,-92.492
3029,Mansfield,Wright County,37.107,-92.581
1341,Dixon,Pulaski County,37.992,-92.094
1974,Goodman,McDonald County,36.742,-94.399
2292,Hillsdale,St. Louis County,38.683,-90.284
2051,Greenfield,Dade County,37.415,-93.841
3688,Oran,Scott County,37.085,-89.655
4899,Taos,Cole County,38.506,-92.071
2826,Lincoln,Benton County,38.391,-93.335
3785,Paris,Monroe County,39.481,-92.001
0435,Billings,Christian County,37.068,-93.552
3110,Maysville,DeKalb County,39.889,-94.362
1931,Glasgow,Chariton County,39.228,-92.838
2414,Indian Lake,Crawford County,38.091,-91.451
3485,New Franklin,Howard County,39.017,-92.737
4070,Purdy,Barry County,36.817,-93.921
1490,Edina,Knox County,40.168,-92.173
5280,Wellsville,Montgomery County,39.072,-91.570
1145,Country Club Hills,St. Louis County,38.721,-90.275
3368,Mound City,Holt County,40.131,-95.232
0984,Clarkton,Dunklin County,36.452,-89.967
4053,Princeton,Mercer County,40.401,-93.581
2279,Highlandville,Christian County,36.933,-93.280
2882,Loma Linda,Newton County,36.991,-94.587
1391,Drexel,Bates County,38.501,-94.604
5443,Winona,Shannon County,37.010,-91.323
3498,New London,Ralls County,39.585,-91.401
4808,Sturgeon,Boone County,39.234,-92.281
1183,Crocker,Pulaski County,37.949,-92.264
3713,Osceola,St. Clair County,38.047,-93.704
5020,Truesdale,Warren County,38.812,-91.130
3261,Miner,Mississippi County,36.907,-89.536
3808,Pasadena Hills,St. Louis County,38.708,-90.293
2478,Jasper,Jasper County,37.336,-94.301
0390,Benton,Scott County,37.098,-89.563
1334,Diamond,Newton County,36.995,-94.316
1495,Edmundson,St. Louis County,38.736,-90.364
4264,Rockaway Beach,Taney County,36.699,-93.160
2650,La Grange,Lewis County,40.043,-91.498
1733,Flint Hill,St. Charles County,38.855,-90.861
3695,Oregon,Holt County,39.987,-95.145
4507,Seligman,Barry County,36.523,-93.940
2871,Lockwood,Dade County,37.386,-93.953
2596,King City,Gentry County,40.051,-94.524
1550,Ellington,Reynolds County,37.242,-90.969
3919,Pineville,McDonald County,36.595,-94.384
0646,Brunswick,Chariton County,39.423,-93.130
4355,Russellville,Cole County,38.512,-92.440
5249,Waverly,Lafayette County,39.209,-93.518
1849,Gainesville,Ozark County,36.603,-92.428
1912,Gideon,New Madrid County,36.452,-89.919
4768,Stewartsville,DeKalb County,39.751,-94.497
5106,Van Buren,Carter County,36.996,-91.015
5275,Wellington,Lafayette County,39.134,-93.983
1642,Exeter,Barry County,36.672,-93.941
3696,Orrick,Ray County,39.213,-94.123
1099,Conway,Laclede County,37.502,-92.821
3335,Morehouse,New Madrid County,36.847,-89.685
0971,Clarence,Shelby County,39.742,-92.259
0405,Bertrand,Mississippi County,36.910,-89.453
2401,Iberia,Miller County,38.090,-92.293
3237,Miller,Lawrence County,37.215,-93.840
0097,Alton,Oregon County,36.694,-91.399
2723,Lancaster,Schuyler County,40.521,-92.528
5346,Wheaton,Barry County,36.763,-94.056
3854,Perry,Ralls County,39.431,-91.675
2642,La Belle,Lewis County,40.117,-91.913
3895,Pilot Grove,Cooper County,38.875,-92.912
3797,Parkway,Franklin County,38.338,-90.970
3484,New Florence,Montgomery County,38.910,-91.448
0028,Agency,Buchanan County,39.645,-94.740
1007,Cleveland,Cass County,38.679,-94.594
3345,Morley,Scott County,37.044,-89.610
5205,Walnut Grove,Greene County,37.411,-93.550
2050,Greendale,St. Louis County,38.695,-90.313
1650,Fairfax,Atchison County,40.339,-95.393
2811,Liberal,Barton County,37.558,-94.520
2771,Leawood,Newton County,37.037,-94.497
1979,Gordonville,Cape Girardeau County,37.311,-89.679
0158,Arcadia,Iron County,37.588,-90.629
2313,Holcomb,Dunklin County,36.399,-90.024
1485,Edgerton,Platte County,39.505,-94.633
2429,Innsbrook,Warren County,38.769,-91.052
5047,Twin Oaks,St. Louis County,38.565,-90.497
5009,Trimble,Clinton County,39.471,-94.565
3601,Norwood,Wright County,37.108,-92.415
2178,Hartville,Wright County,37.251,-92.510
1367,Doolittle,Phelps County,37.940,-91.881
2144,Hardin,Ray County,39.271,-93.834
2473,Jamesport,Daviess County,39.975,-93.801
0776,Cardwell,Dunklin County,36.047,-90.293
2554,Kelso,Scott County,37.191,-89.550
3800,Parma,New Madrid County,36.614,-89.816
4082,Queen City,Schuyler County,40.409,-92.568
0043,Alba,Jasper County,37.238,-94.417
2806,Lewistown,Lewis County,40.086,-91.813
5143,Vienna,Maries County,38.187,-91.947
2988,Madison,Monroe County,39.474,-92.210
3095,Matthews,New Madrid County,36.759,-89.587
1583,Eminence,Shannon County,37.151,-91.358
3985,Polo,Caldwell County,39.552,-94.041
4600,Smithton,Pettis County,38.680,-93.093
5132,Verona,Lawrence County,36.964,-93.796
0473,Bland,Gasconade County,38.300,-91.633
2245,Hermitage,Hickory County,37.941,-93.316
4539,Shelbyville,Shelby County,39.806,-92.042
2669,Laddonia,Audrain County,39.243,-91.645
0862,Center,Ralls County,39.508,-91.529
1280,Dearborn,Buchanan County,39.525,-94.772
1818,Freeman,Cass County,38.618,-94.505
2040,Green Ridge,Pettis County,38.620,-93.409
2331,Holt,Clay County,39.454,-94.339
0418,Beverly Hills,St. Louis County,38.700,-90.292
1851,Galena,Stone County,36.805,-93.467
0349,Bell City,Stoddard County,37.024,-89.820
4828,Summersville,Shannon County,37.179,-91.658
3730,Otterville,Cooper County,38.700,-93.002
3445,Naylor,Ripley County,36.575,-90.604
0232,Avondale,Clay County,39.154,-94.547
4540,Sheldon,Vernon County,37.658,-94.293
0675,Bull Creek,Taney County,36.715,-93.204
5251,Wayland,Clark County,40.394,-91.583
1645,Fair Play,Polk County,37.630,-93.573
1661,Fairview,Newton County,36.818,-94.088
3155,Meadville,Linn County,39.784,-93.302
1640,Ewing,Lewis County,40.006,-91.714
1815,Freeburg,Osage County,38.315,-91.923
5335,Westphalia,Osage County,38.442,-91.999
5229,Washburn,Barry County,36.587,-93.966
0722,Calhoun,Henry County,38.467,-93.626
1616,Essex,Stoddard County,36.813,-89.861
0085,Alma,Lafayette County,39.095,-93.545
3438,Nashville,Barton County,37.375,-94.492
4307,Rosebud,Gasconade County,38.387,-91.401
2060,Greenville,Wayne County,37.127,-90.450
3318,Montrose,Henry County,38.258,-93.981
5084,Urbana,Dallas County,37.842,-93.167
1208,Crystal Lakes,Ray County,39.359,-94.190
0704,Butterfield,Barry County,36.750,-93.908
3074,Marston,New Madrid County,36.519,-89.613
3356,Morrisville,Polk County,37.481,-93.427
0983,Clarksville,Pike County,39.371,-90.905
1307,Delta,Cape Girardeau County,37.197,-89.736
0202,Atlanta,Macon County,39.899,-92.481
3711,Osborn,Clinton County,39.750,-94.357
4214,Ridgeway,Harrison County,40.378,-93.937
2099,Hale,Carroll County,39.604,-93.342
2446,Irondale,Washington County,37.832,-90.678
4131,Raymondville,Texas County,37.340,-91.834
1802,Frankford,Pike County,39.490,-91.320
3522,Newburg,Phelps County,37.914,-91.903
0361,Bellflower,Montgomery County,39.007,-91.355
4134,Rayville,Ray County,39.348,-94.063
1166,Creighton,Cass County,38.495,-94.073
2474,Jamestown,Moniteau County,38.766,-92.481
4715,St. Mary,Ste. Genevieve County,37.879,-89.949
4069,Purcell,Jasper County,37.242,-94.435
4371,Saddlebrooke,Christian County,36.826,-93.203
1720,Fisk,Butler County,36.782,-90.209
4564,Sibley,Jackson County,39.179,-94.193
5338,Westwood,St. Louis County,38.644,-90.440
4373,Saginaw,Newton County,37.024,-94.468
2665,Laclede,Linn County,39.786,-93.167
1380,Downing,Schuyler County,40.488,-92.369
1457,East Lynne,Cass County,38.668,-94.229
0489,Blue Eye,Stone County,36.499,-93.397
4998,Tracy,Platte County,39.377,-94.793
2529,Junction City,Madison County,37.576,-90.288
5345,Wheatland,Hickory County,37.946,-93.401
0869,Centertown,Cole County,38.619,-92.412
0942,Chilhowee,Johnson County,38.589,-93.854
2384,Hume,Bates County,38.090,-94.584
1638,Everton,Dade County,37.343,-93.702
2238,Henrietta,Ray County,39.234,-93.936
1444,Eagleville,Harrison County,40.469,-93.987
2162,Harrisburg,Boone County,39.142,-92.463
2843,Linneus,Linn County,39.879,-93.189
3000,Maitland,Holt County,40.201,-95.074
5409,Williamsville,Wayne County,36.971,-90.550
0218,Augusta,St. Charles County,38.573,-90.882
1678,Farley,Platte County,39.282,-94.831
3187,Mercer,Mercer County,40.511,-93.532
3078,Martinsburg,Audrain County,39.102,-91.648
0134,Annapolis,Iron County,37.360,-90.698
0975,Clark,Boone County,39.280,-92.360
0980,Clarksdale,DeKalb County,39.814,-94.551
3988,Pomona,Howell County,36.867,-91.914
0979,Clarksburg,Moniteau County,38.659,-92.664
0726,Callao,Macon County,39.761,-92.623
0174,Armstrong,Howard County,39.270,-92.701
1755,Forest City,Holt County,39.983,-95.192
2607,Kingsville,Johnson County,38.743,-94.070
4172,Rensselaer,Ralls County,39.671,-91.545
3240,Millersville,Cape Girardeau County,37.433,-89.799
4569,Silex,Lincoln County,39.123,-91.054
3618,Oak Ridge,Cape Girardeau County,37.501,-89.730
0570,Brashear,Adair County,40.149,-92.379
1274,De Kalb,Buchanan County,39.587,-94.925
2005,Grandin,Carter County,36.829,-90.823
0456,Blackburn,Lafayette County,39.105,-93.486
3263,Mineral Point,Washington County,37.945,-90.724
5085,Utica,Livingston County,39.744,-93.627
5445,Winston,Daviess County,39.870,-94.140
1233,Dadeville,Dade County,37.480,-93.674
1708,Fidelity,Jasper County,37.068,-94.313
3487,New Hampton,Harrison County,40.264,-94.196
4588,Skidmore,Nodaway County,40.289,-95.081
1464,Easton,Buchanan County,39.722,-94.642
4727,St. Thomas,Cole County,38.368,-92.217
5515,Wyatt,Mississippi County,36.909,-89.223
0118,Amsterdam,Bates County,38.350,-94.589
2049,Greencastle,Sullivan County,40.263,-92.878
4351,Rushville,Buchanan County,39.587,-95.026
0632,Browning,Linn County,40.035,-93.160
3276,Missouri City,Clay County,39.241,-94.288
3434,Napoleon,Lafayette County,39.131,-94.071
0956,Chula,Livingston County,39.922,-93.474
0430,Big Spring,Montgomery County,38.803,-91.478
0478,Blodgett,Scott County,37.004,-89.527
2613,Kirbyville,Taney County,36.623,-93.164
4663,Spokane,Christian County,36.868,-93.297
1584,Emma,Lafayette County,38.975,-93.495
0715,Cairo,Randolph County,39.512,-92.440
0345,Belgrade,Washington County,37.787,-90.849
2630,Knox City,Knox County,40.144,-92.009
3629,Oakwood,Clay County,39.202,-94.570
2636,Koshkonong,Oregon County,36.596,-91.646
1441,Eagle Rock,Barry County,36.550,-93.754
2317,Holland,Pemiscot County,36.056,-89.871
0182,Asbury,Jasper County,37.275,-94.606
2679,Lake Arrowhead,Clinton County,39.484,-94.319
0440,Birmingham,Clay County,39.166,-94.451
2340,Homestead,Ray County,39.363,-94.201
0247,Bakersfield,Ozark County,36.523,-92.142
0268,Barnard,Nodaway County,40.174,-94.824
2271,High Hill,Montgomery County,38.878,-91.383
1923,Gilliam,Saline County,39.233,-93.005
0135,Anniston,Mississippi County,36.826,-89.328
1952,Glenwood,Schuyler County,40.518,-92.576
2394,Hurley,Stone County,36.931,-93.499
0462,Blackwater,Cooper County,38.980,-92.991
2879,Lohman,Cole County,38.543,-92.364
0738,Camden,Ray County,39.197,-94.023
1710,Fillmore,Andrew County,40.025,-94.974
3215,Middletown,Montgomery County,39.127,-91.414
4047,Preston,Hickory County,37.941,-93.208
4758,Stella,Newton County,36.761,-94.191
3874,Phillipsburg,Laclede County,37.554,-92.785
0095,Altamont,Daviess County,39.889,-94.089
1856,Galt,Grundy County,40.129,-93.387
3231,Mill Spring,Wayne County,37.062,-90.684
1294,Defiance,St. Charles County,38.632,-90.778
0870,Centerville,Reynolds County,37.435,-90.958
3454,Nelson,Saline County,38.995,-93.033
5041,Tuscumbia,Miller County,38.233,-92.459
3789,Parkdale,Jefferson County,38.478,-90.523
4879,Syracuse,Morgan County,38.670,-92.873
2112,Halfway,Polk County,37.616,-93.245
2738,Laredo,Grundy County,40.026,-93.447
3203,Miami,Saline County,39.321,-93.228
3474,New Cambria,Macon County,39.775,-92.750
2380,Hughesville,Pettis County,38.839,-93.295
2625,Knob Lick,St. Francois County,37.664,-90.386
4547,Sheridan,Worth County,40.518,-94.612
1000,Clearmont,Nodaway County,40.510,-95.032
0166,Argyle,Maries County,38.295,-92.026
1992,Graham,Nodaway County,40.201,-95.037
4186,Rhineland,Montgomery County,38.718,-91.517
2798,Leslie,Franklin County,38.418,-91.232
2386,Hunnewell,Shelby County,39.668,-91.862
2922,Louisburg,Dallas County,37.758,-93.139
2175,Hartsburg,Boone County,38.695,-92.309
2980,Mackenzie,St. Louis County,38.580,-90.317
0720,Caledonia,Washington County,37.763,-90.773
4535,Shawneetown,Cape Girardeau County,37.551,-89.652
1323,Des Arc,Iron County,37.283,-90.637
0410,Bethel,Shelby County,39.877,-92.024
3622,Oaks,Clay County,39.196,-94.570
1065,Collins,St. Clair County,37.891,-93.623
3801,Parnell,Nodaway County,40.440,-94.623
5503,Wortham,St. Francois County,37.844,-90.609
0265,Baring,Knox County,40.244,-92.206
3853,Perkins,Scott County,37.095,-89.775
3992,Pontiac,Ozark County,36.516,-92.604
2467,Jacksonville,Randolph County,39.588,-92.471
4313,Rosendale,Andrew County,40.044,-94.821
3662,Olean,Miller County,38.411,-92.529
2320,Holliday,Monroe County,39.494,-92.129
1135,Cosby,Andrew County,39.864,-94.678
2945,Ludlow,Livingston County,39.655,-93.702
3536,Newtown,Sullivan County,40.376,-93.335
5317,Westboro,Atchison County,40.535,-95.319
1729,Fleming,Ray County,39.199,-94.066
1730,Flemington,Polk County,37.805,-93.501
4796,Strasburg,Cass County,38.760,-94.166
0384,Bennett Springs,Dallas County,37.734,-92.856
0058,Alexandria,Clark County,40.359,-91.455
3314,Monticello,Lewis County,40.118,-91.712
1562,Elmo,Nodaway County,40.518,-95.116
0391,Benton City,Audrain County,39.134,-91.765
1156,Craig,Holt County,40.195,-95.371
2118,Halltown,Lawrence County,37.193,-93.625
1403,Dudley,Stoddard County,36.789,-90.093
0622,Brooklyn Heights,Jasper County,37.173,-94.383
1268,Dawn,Livingston County,39.668,-93.635
0228,Avilla,Jasper County,37.195,-94.130
4212,Ridgely,Platte County,39.456,-94.639
5285,Wentworth,Newton County,36.993,-94.074
0467,Blairstown,Henry County,38.556,-93.961
3353,Morrison,Gasconade County,38.673,-91.636
3361,Mosby,Clay County,39.316,-94.294
0078,Allenville,Cape Girardeau County,37.222,-89.758
2388,Hunter,Carter County,36.891,-90.849
3971,Pocahontas,Cape Girardeau County,37.501,-89.639
1745,Foley,Lincoln County,39.046,-90.742
2896,Longtown,Perry County,37.670,-89.774
4303,Roscoe,St. Clair County,37.973,-93.812
3499,New Market,Platte County,39.502,-94.799
3950,Plato,Texas County,37.504,-92.225
1377,Dover,Lafayette County,39.193,-93.688
5377,Whitewater,Cape Girardeau County,37.238,-89.796
1276,De Witt,Carroll County,39.384,-93.221
4361,Rutledge,Scotland County,40.314,-92.088
0250,Baldwin Park,Cass County,38.794,-94.246
1492,Edinburg,Grundy County,40.081,-93.694
1785,Foster,Bates County,38.166,-94.507
3141,McKittrick,Montgomery County,38.735,-91.444
4832,Sumner,Chariton County,39.653,-93.245
5258,Weatherby,DeKalb County,39.909,-94.244
3370,Moundville,Vernon County,37.764,-94.452
4888,Tallapoosa,New Madrid County,36.508,-89.819
2437,Ionia,Benton County,38.504,-93.324
4181,Revere,Clark County,40.495,-91.678
3781,Paradise,Clay County,39.428,-94.516
5172,Waco,Jasper County,37.247,-94.599
2208,Hayward,Pemiscot County,36.399,-89.670
2954,Luray,Clark County,40.453,-91.882
0427,Big Lake,Holt County,40.082,-95.350
0633,Brownington,Henry County,38.246,-93.723
1804,Franklin,Howard County,39.012,-92.753
2179,Hartwell,Henry County,38.435,-93.935
4196,Ritchey,Newton County,36.944,-94.185
1259,Darlington,Gentry County,40.198,-94.396
1687,Farrar,Perry County,37.702,-89.689
2796,Leopold,Bollinger County,37.258,-89.926
3890,Pierpont,Boone County,38.862,-92.315
2161,Harris,Sullivan County,40.306,-93.350
5023,Truxton,Lincoln County,39.002,-91.240
5502,Worth,Worth County,40.405,-94.444
5116,Vandiver,Audrain County,39.163,-91.844
3823,Paynesville,Pike County,39.263,-90.900
4840,Sundown,Ozark County,36.566,-92.637
1281,Deering,Pemiscot County,36.191,-89.883
2026,Grayson,Clinton County,39.533,-94.564
5373,Whiteside,Lincoln County,39.185,-91.017
1934,Glen Allen,Bollinger County,37.318,-90.028
2941,Lucerne,Putnam County,40.464,-93.292
3254,Milo,Vernon County,37.756,-94.306
3521,Newark,Knox County,39.993,-91.973
1919,Guilford,Nodaway County,40.170,-94.736
2863,Livonia,Putnam County,40.491,-92.700
4117,Randolph,Clay County,39.158,-94.496
5243,Watson,Atchison County,40.477,-95.621
1021,Clyde,Nodaway County,40.269,-94.669
1095,Connelsville,Adair County,40.278,-92.700
1895,Gentry,Gentry County,40.332,-94.420
0160,Arkoe,Nodaway County,40.258,-94.828
1559,Elmer,Macon County,39.957,-92.650
2794,Leonard,Shelby County,39.896,-92.179
5505,Worthington,Putnam County,40.408,-92.689
4694,St. Cloud,Crawford County,38.169,-91.218
0072,Allendale,Worth County,40.486,-94.289
1618,Ethel,Macon County,39.895,-92.738
2451,Irwin,Barton County,37.589,-94.286
3984,Pollock,Sullivan County,40.359,-93.085
0601,Brimson,Grundy County,40.144,-93.739
4963,Tindall,Grundy County,40.161,-93.608
1085,Commerce,Scott County,37.159,-89.443
4030,Powersville,Putnam County,40.549,-93.300
4193,Richards,Vernon County,37.907,-94.557
4089,Quitman,Nodaway County,40.373,-95.077
4246,Rives,Dunklin County,36.094,-90.013
0161,Arcola,Dade County,37.549,-93.875
1561,Elmira,Ray County,39.507,-94.155
4791,Stoutsville,Monroe County,39.547,-91.859
5165,Vista,St. Clair County,37.988,-93.664
3841,Pendleton,Warren County,38.827,-91.235
1319,Denver,Worth County,40.397,-94.323
2183,Harwood,Vernon County,37.956,-94.154
0116,Amity,DeKalb County,39.871,-94.436
3809,Passaic,Bates County,38.322,-94.348
3714,Osgood,Sullivan County,40.199,-93.347
0572,Brazeau,Perry County,37.661,-89.653
2008,Granger,Scotland County,40.468,-91.976
0156,Arbela,Scotland County,40.463,-92.017
1782,Fortescue,Holt County,40.052,-95.318
0681,Burgess,Barton County,37.556,-94.615
1636,Evergreen,Laclede County,37.543,-92.597
4789,Stotesbury,Vernon County,37.972,-94.564
1243,Dalton,Chariton County,39.398,-92.990
3964,Plevna,Knox County,39.974,-92.086
0432,Bigelow,Holt County,40.111,-95.290
4233,River Bend,Jackson County,39.179,-94.395
0013,Adair,Adair County,40.252,-92.374
0038,Akron,Harrison County,40.519,-93.817
0069,Alice,Texas County,37.298,-92.189
0081,Alliance,Bollinger County,37.562,-89.997
0090,Alpha,Grundy County,39.985,-93.421
0119,Anaconda,Franklin County,38.302,-91.041
0146,Apple Creek,Perry County,37.613,-89.751
0151,Arab,Bollinger County,37.094,-90.077
0162,Arden,Douglas County,36.985,-92.805
0170,Arlington,Phelps County,37.920,-91.971
0231,Avon,Ste. Genevieve County,37.751,-90.223
0246,Baker,Stoddard County,36.773,-89.764
0251,Ballard,Bates County,38.361,-94.143
0324,Beaufort,Franklin County,38.421,-91.189
0342,Belfast,Newton County,36.866,-94.454
0357,Belleview,Iron County,37.688,-90.740
0379,Bend,Maries County,38.194,-91.847
0381,Bengal,Christian County,36.901,-93.310
0406,Berwick,Newton County,36.933,-94.095
0417,Beverly,Platte County,39.368,-94.867
0422,Bidwell,Laclede County,37.872,-92.710
0428,Big Piney,Pulaski County,37.672,-92.098
0434,Biggs,Douglas County,36.913,-92.192
0449,Black,Reynolds County,37.531,-90.933
0494,Blue Ridge,Harrison County,40.192,-93.936
0532,Boston,Barton County,37.413,-94.282
0539,Bowen,Henry County,38.558,-93.591
0546,Bowmansville,Johnson County,38.709,-93.734
0554,Boynton,Sullivan County,40.284,-93.084
0597,Brighton,Polk County,37.458,-93.348
0621,Brooklyn,Harrison County,40.398,-94.041
0631,Brownfield,Laclede County,37.667,-92.345
0657,Buckhorn,Madison County,37.338,-90.289
0657,Buckhorn,Pulaski County,37.783,-92.269
0690,Burnham,Howell County,36.927,-91.958
0748,Campbellton,Franklin County,38.540,-91.161
0780,Karlin,Polk County,37.554,-93.414
0801,Carsonville,St. Louis County,38.717,-90.319
0827,Castor,Bollinger County,37.068,-89.979
0847,Cedar City,Callaway County,38.597,-92.180
0848,Cedar Creek,Taney County,36.579,-92.998
0881,Chadwick,Christian County,36.930,-93.057
0927,Cherry Valley,Crawford County,37.955,-91.267
0986,Claryville,Perry County,37.892,-89.829
1002,Clearwater,Ste. Genevieve County,37.766,-90.138
1042,Coffman,Ste. Genevieve County,37.794,-90.194
1055,Coldwater,Wayne County,37.303,-90.410
1074,Colony,Knox County,40.254,-91.991
1081,Columbus,Johnson County,38.859,-93.891
1119,Cornelia,Johnson County,38.644,-93.739
1123,Corning,Holt County,40.248,-95.454
1202,Crump,Bollinger County,37.279,-89.829
1221,Current View,Ripley County,36.499,-90.778
1248,Danby,Jefferson County,38.109,-90.308
1256,Danville,Montgomery County,38.911,-91.535
1271,Dayton,Cass County,38.485,-94.194
1283,Decaturville,Camden County,37.908,-92.700
1343,Dillard,Crawford County,37.737,-91.204
1351,Dixie,Callaway County,38.719,-92.009
1406,Dumas,Clark County,40.521,-91.636
1410,Duncan,Webster County,37.282,-92.692
1419,Dunn,Texas County,37.141,-92.191
1540,Elkhorn,Ray County,39.309,-94.113
1542,Elkland,Webster County,37.443,-93.031
1578,Emden,Shelby County,39.796,-91.863
1581,Emerson,Marion County,39.889,-91.698
1598,Enterprise,Linn County,40.024,-93.085
1620,Etna,Scotland County,40.417,-91.979
1665,Faith,Miller County,38.054,-92.398
1676,Farewell,Oregon County,36.501,-91.361
1693,Fay,Ozark County,36.555,-92.344
1713,Finey,Henry County,38.234,-93.546
1726,Flat,Phelps County,37.745,-91.929
1821,Fremont,Carter County,36.952,-91.164
1841,Fruitville,Howell County,36.616,-91.766
1871,Garland,Henry County,38.443,-93.854
1896,Gentryville,Douglas County,36.864,-92.361
2012,Graniteville,Iron County,37.650,-90.680
2020,Grassy,Bollinger County,37.261,-90.124
2063,Greer,Oregon County,36.769,-91.353
2084,Guild,Texas County,37.070,-91.802
2094,Guthrie,Callaway County,38.757,-92.097
2110,Haynesville,Clinton County,39.461,-94.316
2127,Hammond,Ozark County,36.676,-92.644
2169,Hart,McDonald County,36.737,-94.606
2198,Hawkeye,Pulaski County,38.006,-92.393
2224,Hebron,Douglas County,36.852,-92.153
2229,Helena,Andrew County,39.913,-94.649
2240,Hercules,Taney County,36.708,-92.873
2272,High Point,Moniteau County,38.484,-92.591
2273,Highland,Perry County,37.664,-89.891
2281,Hilda,Taney County,36.664,-92.982
2287,Hilliard,Butler County,36.825,-90.417
2302,Hiram,Wayne County,37.179,-90.315
2347,Hooker,Pulaski County,37.860,-92.061
2360,Horton,Howell County,36.870,-92.074
2381,Hugo,Camden County,37.995,-92.659
2396,Hurricane,Bollinger County,37.416,-90.014
2404,Idalia,Stoddard County,36.864,-89.861
2412,Indian Creek,Monroe County,39.594,-91.777
2444,Iron Mountain,St. Francois County,37.695,-90.640
2477,Japan,Franklin County,38.239,-91.306
2486,Jenkins,Barry County,36.779,-93.687
2512,Jolly,Newton County,36.896,-94.070
2523,Joy,Dent County,37.514,-91.674
2629,Knox,Polk County,37.474,-93.611
2631,Knoxville,Ray County,39.446,-94.017
2668,Ladd,Texas County,37.586,-92.112
2672,Laflin,Bollinger County,37.277,-89.888
2776,Leeper,Wayne County,37.075,-90.708
2790,Lenox,Dent County,37.653,-91.761
2799,Lesterville,Reynolds County,37.454,-90.843
2816,Libertyville,St. Francois County,37.704,-90.288
2836,Linden,Christian County,37.047,-93.134
2841,Lingo,Macon County,39.768,-92.821
2849,Lisle,Cass County,38.549,-94.595
3009,Mammoth,Ozark County,36.536,-92.401
3056,Marion,Cole County,38.691,-92.366
3079,Martinsville,Harrison County,40.339,-94.162
3107,Mayfield,Bollinger County,37.454,-89.949
3116,McBride,Perry County,37.833,-89.840
3124,McCracken,Christian County,37.017,-93.158
3126,McCune,Pike County,39.406,-91.246
3161,Medford,Johnson County,38.652,-94.007
3169,Melbourne,Harrison County,40.142,-93.788
3220,Midway,Boone County,38.985,-92.449
3238,Millersburg,Callaway County,38.899,-92.124
3242,Millheim,Perry County,37.617,-89.887
3257,Milton,Randolph County,39.470,-92.329
3260,Mineola,Montgomery County,38.888,-91.572
3310,Montevallo,Vernon County,37.726,-94.108
3322,Moody,Howell County,36.529,-91.989
3338,Morgan,Laclede County,37.510,-92.677
3359,Morton,Ray County,39.319,-93.861
3387,Mount Sterling,Gasconade County,38.465,-91.627
3395,Mountain Dale,Webster County,37.189,-92.754
3410,Mumford,Greene County,37.188,-93.201
3413,Munger,Reynolds County,37.597,-90.796
3424,Myrtle,Oregon County,36.509,-91.267
3451,Needmore,Ste. Genevieve County,38.072,-90.238
3494,New Lebanon,Cooper County,38.764,-92.939
3544,Nile,Texas County,37.360,-91.666
3579,North Salem,Linn County,40.031,-92.989
3593,Northview,Webster County,37.287,-92.997
3618,Oak Ridge,Pemiscot County,36.030,-89.842
3647,Ohio,St. Clair County,38.156,-93.852
3660,Oldfield,Christian County,36.978,-93.040
3665,Olive,Dallas County,37.459,-93.109
3716,Oskaloosa,Barton County,37.639,-94.593
3738,Overton,Cooper County,38.948,-92.576
3741,Owasco,Sullivan County,40.138,-92.978
3747,Oxford,Worth County,40.421,-94.541
3759,Palace,Pulaski County,37.620,-92.140
3770,Palmetto,Greene County,37.142,-93.096
3775,Panama,Vernon County,38.047,-94.355
3810,Patterson,Wayne County,37.188,-90.551
3812,Patton,Bollinger County,37.502,-90.013
3820,Pawnee,Harrison County,40.522,-94.051
3846,Pennsboro,Dade County,37.327,-93.834
3851,Peoria,Washington County,37.756,-90.884
3872,Phenix,Greene County,37.379,-93.546
3922,Pink Hill,Jackson County,39.050,-94.197
3926,Piper,Henry County,38.344,-94.015
3929,Pisgah,Cooper County,38.776,-92.649
3958,Pleasant Ridge,Barry County,36.896,-93.792
3975,Point Lookout,Taney County,36.617,-93.239
3990,Ponce de Leon,Stone County,36.876,-93.351
4010,Portland,Callaway County,38.711,-91.718
4013,Possum Trot,Stone County,36.979,-93.429
4026,Powell,McDonald County,36.623,-94.181
4027,Powellville,Phelps County,37.889,-92.015
4062,Prosperity,Jasper County,37.126,-94.421
4067,Pumpkin Center,Dallas County,37.745,-93.071
4067,Pumpkin Center,Nodaway County,40.200,-94.868
4072,Purvis,Camden County,38.164,-92.817
4087,Quincy,Hickory County,38.008,-93.472
4093,Racine,Newton County,36.896,-94.527
4176,Rescue,Lawrence County,37.192,-93.979
4188,Rome,Douglas County,36.842,-92.773
4204,Richville,Douglas County,36.840,-92.239
4241,Riverdale,Christian County,36.995,-93.290
4265,Rockbridge,Ozark County,36.789,-92.409
4281,Rocky Mount,Miller County,38.324,-92.665
4283,Rocky Ridge,Ste. Genevieve County,37.930,-90.238
4295,Romance,Ozark County,36.717,-92.503
4310,Roselle,Madison County,37.599,-90.526
4374,Saint Anthony,Miller County,38.156,-92.274
4433,Sandy Hook,Moniteau County,38.748,-92.409
4446,Santa Fe,Monroe County,39.369,-91.819
4459,Sargent,Texas County,37.087,-92.027
4524,Shafter,Linn County,39.984,-93.285
4525,Shamrock,Callaway County,39.003,-91.694
4533,Shawnee,Shannon County,37.121,-91.260
4548,Sherman,St. Louis County,38.537,-90.590
4556,Shirley,Washington County,37.915,-90.919
4571,Siloam Springs,Howell County,36.796,-92.076
4572,Silva,Wayne County,37.176,-90.464
4576,Silver Lake,Perry County,37.684,-89.990
4594,Sligo,Dent County,37.774,-91.378
4657,Speed,Cooper County,38.848,-92.803
4658,Spencer,Lawrence County,37.184,-93.703
4688,St. Albans,Franklin County,38.579,-90.775
4720,St. Patrick,Clark County,40.264,-91.627
4770,Stickney,Maries County,38.068,-91.936
4811,Success,Texas County,37.444,-92.088
4824,Sulphur Springs,Jefferson County,38.336,-90.374
4830,Summit,Washington County,37.912,-90.708
4846,Sunset,Polk County,37.551,-93.308
4864,Sweden,Douglas County,36.877,-92.501
4872,Sycamore,Ozark County,36.703,-92.274
4877,Sylvania,Dade County,37.508,-94.023
4946,Thorpe,Dallas County,37.488,-92.998
4957,Tiffin,St. Clair County,37.955,-93.938
4975,Toledo,Ozark County,36.774,-92.686
5001,Trail,Ozark County,36.768,-92.295
5028,Tulip,Audrain County,39.343,-92.157
5053,Tyrone,Texas County,37.203,-91.877
5055,Udall,Ozark County,36.542,-92.263
5067,Union City,Stone County,36.979,-93.466
5073,Uniontown,Perry County,37.615,-89.714
5096,Valley City,Johnson County,38.866,-93.612
5124,Vera Cruz,Douglas County,36.914,-92.494
5141,Vida,Phelps County,37.857,-91.800
5158,Viola,Barry County,36.573,-93.582
5189,Waldo,Webster County,37.189,-92.745
5191,Waldron,Platte County,39.222,-94.793
5199,Wallace,Buchanan County,39.555,-94.847
5334,Westover,Crawford County,37.922,-91.228
5365,White Rock,Carroll County,39.334,-93.285
5398,Willhoit,Ozark County,36.684,-92.506
5404,Williamsburg,Callaway County,38.920,-91.702
5429,Wilton,Boone County,38.735,-92.359
5435,Windyville,Dallas County,37.707,-92.927
5441,Winnipeg,Laclede County,37.604,-92.302
5449,Winthrop,Buchanan County,39.560,-95.108
5457,Wittenberg,Perry County,37.653,-89.524
5521,Yancy Mills,Phelps County,37.791,-91.834
5543,Zell,Ste. Genevieve County,37.953,-90.143