phoneme,name,county,latitude,longitude
0446,Bismarck,Burleigh County,46.808,-100.784
3270,Minot,Ward County,48.233,-101.296
5413,Williston,Williams County,48.147,-103.618
1340,Dickinson,Stark County,46.879,-102.790
3014,Mandan,Morton County,46.827,-100.890
2474,Jamestown,Stutsman County,46.911,-98.708
5182,Wahpeton,Richland County,46.265,-96.606
5096,Valley City,Barnes County,46.923,-98.003
2826,Lincoln,Burleigh County,46.762,-100.700
1991,Grafton,Walsh County,48.412,-97.411
2354,Horace,Cass County,46.759,-96.904
0415,Beulah,Mercer County,47.263,-101.778
3513,New Town,Mountrail County,47.981,-102.490
4345,Rugby,Pierce County,48.369,-99.996
4737,Stanley,Mountrail County,48.317,-102.390
2215,Hazen,Mercer County,47.294,-101.623
2848,Lisbon,Ransom County,46.442,-97.681
3622,Oakes,Dickey County,46.139,-98.090
3112,Mayville,Traill County,47.498,-97.325
2291,Hillsboro,Traill County,47.404,-97.062
2182,Harvey,Wells County,47.770,-99.935
1875,Garrison,McLean County,47.652,-101.416
5229,Washburn,McLean County,47.289,-101.029
4291,Rolla,Rolette County,48.858,-99.618
4940,Thompson,Grand Forks County,47.774,-97.110
1189,Crosby,Divide County,48.914,-103.295
2844,Linton,Emmons County,46.267,-100.233
3509,New Salem,Morton County,46.845,-101.411
0311,Beach,Golden Valley County,46.918,-104.004
3595,Northwood,Grand Forks County,47.734,-97.567
1106,Cooperstown,Griggs County,47.444,-98.124
5194,Walhalla,Pembina County,48.923,-97.918
3805,Parshall,Mountrail County,47.953,-102.135
2183,Harwood,Cass County,46.979,-96.881
2224,Hebron,Morton County,46.901,-102.045
5064,Underwood,McLean County,47.456,-101.137
2033,Green Acres,Rolette County,48.838,-99.690
3434,Napoleon,Logan County,46.508,-99.771
1387,Drayton,Pembina County,48.571,-97.178
5429,Wilton,Burleigh County,47.158,-100.784
2190,Hatton,Traill County,47.640,-97.453
4129,Ray,Williams County,48.344,-103.165
2715,Lakota,Nelson County,48.043,-98.336
4756,Steele,Kidder County,46.855,-99.916
3253,Milnor,Sargent County,46.259,-97.456
3271,Minto,Walsh County,48.292,-97.371
0188,Ashley,McIntosh County,46.034,-99.371
4010,Portland,Traill County,47.498,-97.370
0862,Center,Oliver County,47.116,-101.300
1526,Elgin,Grant County,46.404,-101.846
5006,Trenton,Williams County,48.071,-103.837
4994,Towner,McHenry County,48.346,-100.405
1941,Glenburn,Renville County,48.513,-101.221
3150,McVille,Nelson County,47.764,-98.177
4029,Powers Lake,Burke County,48.563,-102.648
3034,Manvel,Grand Forks County,48.078,-97.176
3746,Oxbow,Cass County,46.673,-96.810
4796,Strasburg,Emmons County,46.134,-100.162
4738,Stanton,Mercer County,47.321,-101.382
0706,Buxton,Traill County,47.602,-97.097
3102,Max,McLean County,47.821,-101.299
4705,St. John,Rolette County,48.944,-99.711
4727,St. Thomas,Pembina County,48.619,-97.446
4466,Sawyer,Ward County,48.090,-101.054
0057,Alexander,McKenzie County,47.843,-103.643
1384,Drake,McHenry County,47.924,-100.372
4184,Reynolds,Grand Forks County,47.669,-97.106
2349,Hope,Steele County,47.322,-97.722
3163,Medina,Stutsman County,46.894,-99.300
1928,Gladstone,Stark County,46.861,-102.568
3206,Michigan City,Nelson County,48.025,-98.117
4992,Tower City,Barnes County,46.926,-97.676
0799,Carson,Grant County,46.418,-101.565
2152,Harmon,Morton County,46.952,-100.953
1262,Davenport,Cass County,46.714,-97.070
2794,Leonard,Cass County,46.652,-97.246
0127,Aneta,Nelson County,47.679,-97.988
4905,Taylor,Stark County,46.901,-102.425
2213,Hazelton,Emmons County,46.485,-100.280
4241,Riverdale,McLean County,47.498,-101.371
4900,Tappen,Kidder County,46.875,-99.636
3997,Porcupine,Sioux County,46.219,-101.099
1492,Edinburg,Walsh County,48.497,-97.862
1835,Frontier,Cass County,46.801,-96.833
0147,Apple Valley,Burleigh County,46.822,-100.598
3414,Munich,Cavalier County,48.669,-98.833
1965,Golden Valley,Mercer County,47.291,-102.065
2005,Grandin,Cass County,47.237,-97.003
4550,Sherwood,Renville County,48.960,-101.633
4420,Sanborn,Barnes County,46.942,-98.224
0955,Christine,Richland County,46.574,-96.802
5416,Willow City,Bottineau County,48.604,-100.294
1497,Edmore,Ramsey County,48.413,-98.454
0538,Bowdon,Wells County,47.470,-99.708
1081,Columbus,Burke County,48.904,-102.780
5080,Upham,McHenry County,48.582,-100.728
3056,Marion,LaMoure County,46.607,-98.332
1869,Gardner,Cass County,47.147,-96.968
1651,Fairfield,Billings County,47.189,-103.222
3164,Medora,Billings County,46.914,-103.524
1975,Goodrich,Sheridan County,47.475,-100.126
0443,Bisbee,Towner County,48.626,-99.378
4568,Sykeston,Wells County,47.465,-99.400
4540,Sheldon,Ransom County,46.586,-97.491
0088,Almont,Morton County,46.725,-101.503
1946,Glenfield,Foster County,47.453,-98.567
3522,Newburg,Bottineau County,48.715,-100.913
1281,Deering,McHenry County,48.396,-101.052
1613,Esmond,Benson County,48.036,-99.762
1375,Douglas,Ward County,47.857,-101.503
4529,Sharon,Steele County,47.597,-97.894
3316,Montpelier,Stutsman County,46.700,-98.590
4318,Ross,Mountrail County,48.311,-102.547
1353,Dodge,Dunn County,47.306,-102.204
2538,Karlsruhe,McHenry County,48.090,-100.620
5542,Zeeland,McIntosh County,45.970,-99.831
3393,Mountain,Pembina County,48.688,-97.865
1430,Dwight,Richland County,46.304,-96.738
1603,Epping,Williams County,48.279,-103.357
3833,Pekin,Nelson County,47.791,-98.328
1237,Dazey,Barnes County,47.191,-98.202
1269,Dawson,Kidder County,46.869,-99.751
1366,Donnybrook,Ward County,48.509,-101.885
0702,Butte,McLean County,47.838,-100.665
1394,Driscoll,Burleigh County,46.844,-100.141
2107,Hague,Emmons County,46.029,-99.996
2193,Havana,Sargent County,45.950,-97.619
5345,Wheatland,Cass County,46.907,-97.345
0380,Benedict,McLean County,47.830,-101.082
0831,Kathryn,Barnes County,46.678,-97.969
3135,McHenry,Foster County,47.576,-98.591
5132,Verona,LaMoure County,46.364,-98.072
1027,Colgate,Steele County,47.245,-97.656
1007,Cleveland,Stutsman County,46.892,-99.118
1843,Fullerton,Dickey County,46.165,-98.427
4990,Tuttle,Kidder County,47.144,-99.995
2891,Long Creek,Williams County,48.102,-103.259
0584,Briarwood,Cass County,46.786,-96.797
1606,Erie,Cass County,47.116,-97.389
0041,Alamo,Williams County,48.582,-103.470
2028,Great Bend,Richland County,46.154,-96.802
3553,Nome,Barnes County,46.678,-97.810
4287,Rogers,Barnes County,47.073,-98.200
3024,Manning,Dunn County,47.229,-102.769
5497,Woodworth,Stutsman County,47.142,-99.303
0069,Alice,Cass County,46.762,-97.556
0272,Barney,Richland County,46.267,-97.001
2427,Inkster,Grand Forks County,48.151,-97.644
3257,Milton,Cavalier County,48.626,-98.043
0840,Cayuga,Sargent County,46.074,-97.384
4508,Selz,Pierce County,47.857,-99.892
1751,Forbes,Dickey County,45.944,-98.782
1814,Fredonia,Logan County,46.329,-99.096
0720,Caledonia,Traill County,47.458,-96.889
2548,Keene,McKenzie County,47.927,-102.942
0397,Berlin,LaMoure County,46.379,-98.490
0213,Auburn,Walsh County,48.507,-97.440
1783,Fortuna,Divide County,48.910,-103.779
3117,McLeod,Ransom County,46.394,-97.300
4254,Robinson,Kidder County,47.143,-99.781
4675,Springbrook,Williams County,48.253,-103.459
0092,Alsen,Cavalier County,48.631,-98.705
1008,Clifford,Traill County,47.348,-97.411
1649,Fairdale,Walsh County,48.491,-98.231
2128,Hampden,Ramsey County,48.540,-98.654
2957,Luverne,Steele County,47.251,-97.935
1158,Kramer,Bottineau County,48.691,-100.707
1867,Gardena,Bottineau County,48.701,-100.498
3254,Mylo,Rolette County,48.635,-99.619
4564,Sibley,Barnes County,47.217,-97.965
0555,Braddock,Emmons County,46.564,-100.091
2109,Haynes,Adams County,45.974,-102.471
0733,Calvin,Cavalier County,48.853,-98.935
4105,Raleigh,Grant County,46.357,-101.305
0283,Barton,Pierce County,48.507,-100.176
1099,Conway,Walsh County,48.238,-97.675
2120,Hamberg,Wells County,47.763,-99.515
3436,Nash,Walsh County,48.471,-97.513
0394,Bergen,McHenry County,48.002,-100.715
2131,Hannah,Cavalier County,48.972,-98.692
2881,Loma,Cavalier County,48.630,-98.533
2905,Loraine,Renville County,48.866,-101.568
5193,Wales,Cavalier County,48.896,-98.603
3698,Orrin,Pierce County,48.091,-100.163
1021,Clyde,Cavalier County,48.770,-98.899
3861,Perth,Towner County,48.716,-99.458
4128,Rawson,McKenzie County,47.818,-103.543
0027,Agate,Rolette County,48.623,-99.493
0062,Alfred,LaMoure County,46.603,-98.999
0249,Baldwin,Burleigh County,47.027,-100.749
0791,Carpenter,Rolette County,48.960,-99.977
0808,Cartwright,McKenzie County,47.860,-103.926
1585,Emmet,McLean County,47.646,-101.654
2137,Hannover,Oliver County,47.111,-101.427
2194,Havelock,Hettinger County,46.475,-102.744
2363,Huff,Morton County,46.624,-100.652
2522,Josephine,Benson County,47.940,-99.314
3285,Moffit,Burleigh County,46.678,-100.295
3588,Northgate,Burke County,48.991,-102.262
3600,Norwich,McHenry County,48.246,-100.989
3843,Penn,Ramsey County,48.222,-99.089
4354,Russell,Bottineau County,48.671,-100.902
4374,Saint Anthony,Morton County,46.617,-100.913
4553,Shields,Grant County,46.234,-101.126
4974,Tokio,Benson County,47.925,-98.816
5225,Warsaw,Walsh County,48.296,-97.255
5381,Whitman,Nelson County,48.159,-98.120