phoneme,name,county,latitude,longitude
06118,Norman,Cleveland County,35.223,-97.439
02623,Edmond,Oklahoma County,35.653,-97.478
04735,Lawton,Comanche County,34.609,-98.390
05699,Moore,Cleveland County,35.340,-97.487
02767,Enid,Garfield County,36.396,-97.878
08201,Stillwater,Payne County,36.116,-97.058
07783,Shawnee,Pottawatomie County,35.327,-96.925
00797,Bixby,Tulsa County,35.946,-95.878
04270,Jenks,Tulsa County,36.023,-95.968
00266,Ardmore,Carter County,34.174,-97.144
09508,Yukon,Canadian County,35.507,-97.763
02481,Duncan,Stephens County,34.502,-97.958
02263,Del City,Oklahoma County,35.442,-97.441
05867,Mustang,Canadian County,35.384,-97.724
00728,Bethany,Oklahoma County,35.519,-97.632
07595,Sand Springs,Osage County,36.136,-96.132
02501,Durant,Bryan County,33.994,-96.371
00170,Altus,Jackson County,34.638,-99.334
00028,Ada,Pontotoc County,34.775,-96.678
05495,Miami,Ottawa County,36.875,-94.877
01645,Choctaw,Oklahoma County,35.498,-97.269
06051,Newcastle,McClain County,35.247,-97.600
09434,Woodward,Woodward County,36.434,-99.390
09058,Weatherford,Custer County,35.526,-98.708
02681,Elk City,Beckham County,35.412,-99.404
03608,Guthrie,Logan County,35.879,-97.425
00839,Blanchard,Grady County,35.152,-97.665
01741,Clinton,Custer County,35.507,-98.971
01830,Collinsville,Rogers County,36.374,-95.860
02143,Cushing,Payne County,35.985,-96.767
06684,Piedmont,Canadian County,35.675,-97.754
08929,Wagoner,Wagoner County,35.960,-95.369
08599,Tuttle,Grady County,35.291,-97.812
04515,Noble,Cleveland County,35.139,-97.395
07736,Seminole,Seminole County,35.225,-96.671
03579,Grove,Delaware County,36.594,-94.769
06990,Purcell,Cleveland County,35.024,-97.374
03717,Harrah,Oklahoma County,35.490,-97.164
08441,Tecumseh,Pottawatomie County,35.258,-96.937
00827,Blackwell,Kay County,36.804,-97.283
00201,Anadarko,Caddo County,35.073,-98.244
08848,Verdigris,Rogers County,36.235,-95.691
08896,Vinita,Craig County,36.639,-95.154
04080,Hugo,Choctaw County,34.011,-95.510
04963,Lone Grove,Carter County,34.175,-97.263
00172,Alva,Woods County,36.805,-98.666
08290,Sulphur,Murray County,34.508,-96.968
06628,Perry,Noble County,36.289,-97.288
05260,Marlow,Stephens County,34.631,-97.957
07661,Sayre,Beckham County,35.291,-99.640
01079,Bristow,Creek County,35.831,-96.391
01097,Broken Bow,McCurtain County,34.029,-94.739
05357,McLoud,Pottawatomie County,35.436,-97.091
08035,Spencer,Oklahoma County,35.523,-97.377
02671,Elgin,Comanche County,34.780,-98.292
08202,Stilwell,Adair County,35.815,-94.629
03145,Frederick,Tillman County,34.392,-99.018
07359,Roland,Sequoyah County,35.421,-94.515
02319,Dewey,Washington County,36.796,-95.936
03958,Hobart,Kiowa County,35.029,-99.093
05841,Muldrow,Sequoyah County,35.406,-94.599
06625,Perkins,Payne County,35.974,-97.034
01732,Cleveland,Pawnee County,36.310,-96.464
00353,Atoka,Atoka County,34.386,-96.128
03952,Hinton,Caddo County,35.471,-98.356
04984,Longtown,Pittsburg County,35.245,-95.513
01269,Cache,Comanche County,34.630,-98.629
08552,Tishomingo,Johnston County,34.236,-96.679
01287,Calera,Bryan County,33.935,-96.429
04311,Jones,Oklahoma County,35.566,-97.287
01553,Chandler,Lincoln County,35.702,-96.881
04876,Lindsay,Garvin County,34.835,-97.603
08683,Turley,Tulsa County,36.242,-95.976
05245,Marietta,Love County,33.937,-97.117
02215,Davis,Garvin County,34.429,-97.174
02824,Eufaula,McIntosh County,35.287,-95.582
08258,Stroud,Creek County,35.769,-96.650
02882,Fairview,Major County,36.269,-98.480
05177,Mangum,Greer County,34.872,-99.504
08982,Walters,Cotton County,34.360,-98.308
04258,Jay,Delaware County,36.421,-94.797
08468,Texanna,McIntosh County,35.347,-95.437
06930,Prague,Lincoln County,35.495,-96.695
09282,Wilburton,Latimer County,34.919,-95.309
06233,Oakhurst,Creek County,36.081,-96.062
01858,Commerce,Ottawa County,36.933,-94.873
04445,Kiefer,Creek County,35.945,-96.065
06059,Newkirk,Kay County,36.882,-97.053
00234,Antlers,Pushmataha County,34.231,-95.620
06746,Pink,Pottawatomie County,35.261,-97.120
01646,Chouteau,Mayes County,36.186,-95.343
04826,Lexington,Cleveland County,35.015,-97.336
01587,Chelsea,Rogers County,36.536,-95.432
09465,Wynnewood,Garvin County,34.643,-97.164
06553,Pawnee,Pawnee County,36.338,-96.804
08740,Union City,Canadian County,35.392,-97.941
03471,Granite,Greer County,34.962,-99.381
03979,Hollis,Harmon County,34.688,-99.912
04676,Langston,Logan County,35.945,-97.255
04014,Hooker,Texas County,36.860,-101.213
04343,Justice,Rogers County,36.293,-95.567
03755,Haskell,Muskogee County,35.820,-95.674
01772,Coalgate,Coal County,34.538,-96.219
05364,McCord,Osage County,36.679,-97.037
06189,Norwood,Cherokee County,35.845,-95.151
09002,Warner,Muskogee County,35.494,-95.306
01924,Copeland,Delaware County,36.656,-94.828
05586,Minco,Grady County,35.313,-97.944
01595,Cherokee,Alfalfa County,36.754,-98.357
05082,Luther,Oklahoma County,35.662,-97.196
04708,Latta,Pontotoc County,34.747,-96.706
01388,Carnegie,Caddo County,35.104,-98.604
04474,Kingston,Marshall County,33.999,-96.720
09334,Wilson,Carter County,34.162,-97.426
03822,Helena,Alfalfa County,36.546,-98.270
08247,Stratford,Garvin County,34.797,-96.959
01853,Comanche,Stephens County,34.369,-97.964
04940,Locust Grove,Mayes County,36.200,-95.168
09187,Westville,Adair County,35.993,-94.568
02337,Dickson,Carter County,34.187,-96.984
02044,Crescent,Logan County,35.953,-97.595
05743,Morris,Okmulgee County,35.608,-95.860
06482,Panama,Le Flore County,35.167,-94.672
07940,Snyder,Kiowa County,34.659,-98.952
07781,Shattuck,Ellis County,36.276,-99.881
00585,Beaver,Beaver County,36.816,-100.520
03017,Fletcher,Comanche County,34.823,-98.244
03462,Grandview,Cherokee County,35.965,-94.999
01522,Central High,Stephens County,34.623,-98.090
03290,Geronimo,Comanche County,34.481,-98.383
05701,Mooreland,Woodward County,36.439,-99.205
00918,Boise City,Cimarron County,36.729,-102.513
08493,Thomas,Custer County,35.744,-98.748
08037,Sperry,Osage County,36.298,-95.996
02869,Fairfax,Osage County,36.574,-96.704
02873,Fairland,Ottawa County,36.751,-94.847
01066,Briggs,Cherokee County,35.927,-94.875
09470,Yale,Payne County,36.114,-96.699
05340,Maysville,Garvin County,34.865,-97.374
01502,Salina,Mayes County,36.293,-95.153
03407,Goodwell,Texas County,36.595,-101.637
04435,Keys,Cherokee County,35.798,-94.968
06206,Okeene,Blaine County,36.116,-98.317
01801,Colbert,Bryan County,33.853,-96.502
01153,Brushy,Sequoyah County,35.557,-94.725
03065,Forest Park,Oklahoma County,35.504,-97.446
01270,Caddo,Bryan County,34.127,-96.263
04378,Kellyville,Creek County,35.944,-96.214
05434,Meeker,Lincoln County,35.503,-96.903
01188,Buffalo,Harper County,36.836,-99.630
04413,Kenwood,Delaware County,36.301,-94.998
01018,Bray,Stephens County,34.638,-97.818
05770,Mounds,Creek County,35.876,-96.066
03416,Gore,Sequoyah County,35.529,-95.117
02330,Dibble,McClain County,35.033,-97.630
03460,Grandfield,Tillman County,34.228,-98.685
08549,Tipton,Tillman County,34.503,-99.141
06855,Pond Creek,Grant County,36.669,-97.801
01601,Cherry Tree,Adair County,35.741,-94.643
05424,Medford,Grant County,36.807,-97.734
07261,Ringling,Jefferson County,34.178,-97.593
06275,Oilton,Creek County,36.085,-96.584
09277,Wickliffe,Mayes County,36.312,-95.107
05319,Maud,Pottawatomie County,35.133,-96.778
06234,Oakland,Marshall County,34.100,-96.794
07020,Quinton,Pittsburg County,35.123,-95.371
08328,Sunray,Stephens County,34.413,-97.965
08448,Temple,Cotton County,34.272,-98.236
08472,Texhoma,Texas County,36.505,-101.783
02211,Davenport,Lincoln County,35.705,-96.765
00125,Allen,Hughes County,34.878,-96.413
07739,Sentinel,Washita County,35.158,-99.175
02318,Dewar,Okmulgee County,35.458,-95.941
01618,Cheyenne,Roger Mills County,35.614,-99.671
01805,Colcord,Delaware County,36.264,-94.693
05191,Mannsville,Johnston County,34.186,-96.881
05015,Lost City,Cherokee County,35.988,-95.136
05825,Mountain View,Kiowa County,35.098,-98.746
05744,Morrison,Noble County,36.297,-97.008
00029,Adair,Mayes County,36.437,-95.271
00051,Afton,Ottawa County,36.694,-94.963
07316,Rock Island,Le Flore County,35.182,-94.474
00831,Blair,Jackson County,34.780,-99.335
01414,Cartwright,Bryan County,33.853,-96.562
04352,Kansas,Delaware County,36.205,-94.798
02752,Empire City,Stephens County,34.420,-98.027
06681,Pickett,Pontotoc County,34.782,-96.775
03229,Garber,Garfield County,36.437,-97.586
03633,Haileyville,Pittsburg County,34.855,-95.582
08721,Tyrone,Texas County,36.954,-101.065
08066,Springer,Carter County,34.315,-97.143
09014,Washington,McClain County,35.059,-97.484
09092,Wellston,Lincoln County,35.694,-97.063
07268,Ryan,Jefferson County,34.020,-97.958
01034,Brent,Sequoyah County,35.368,-94.794
01381,Carlisle,Sequoyah County,35.501,-95.026
08187,Sterling,Comanche County,34.750,-98.172
08791,Valley Brook,Oklahoma County,35.402,-97.481
06651,Pettit,Cherokee County,35.765,-94.966
01761,Cole,McClain County,35.102,-97.573
09050,Wayne,McClain County,34.918,-97.314
02870,Fairfield,Adair County,35.847,-94.612
04053,Howe,Le Flore County,34.951,-94.637
09079,Welch,Craig County,36.874,-95.096
07356,Roff,Pontotoc County,34.628,-96.841
07650,Savanna,Pittsburg County,34.829,-95.844
04858,Limestone,Rogers County,36.316,-95.749
09453,Wright City,McCurtain County,34.060,-95.003
04675,Langley,Craig County,36.480,-95.054
04485,Kiowa,Pittsburg County,34.721,-95.899
00954,Boswell,Choctaw County,34.027,-95.869
06492,Paoli,Garvin County,34.827,-97.259
06887,Porter,Wagoner County,35.871,-95.522
08837,Velma,Stephens County,34.460,-97.674
01709,Clayton,Pushmataha County,34.590,-95.353
01390,Carney,Lincoln County,35.808,-97.013
09340,Winchester,Okmulgee County,35.786,-95.992
07059,Ramona,Washington County,36.530,-95.924
07758,Shady Grove,McIntosh County,35.493,-95.416
06278,Okay,Wagoner County,35.851,-95.318
07124,Red Oak,Latimer County,34.951,-95.080
03351,Glencoe,Payne County,36.229,-96.926
04426,Ketchum,Craig County,36.518,-95.037
00294,Arnett,Ellis County,36.135,-99.775
04081,Hulbert,Cherokee County,35.933,-95.141
09459,Wyandotte,Ottawa County,36.793,-94.725
00104,Alex,Grady County,34.915,-97.779
07758,Shady Grove,Cherokee County,35.944,-95.095
07875,Simms,Muskogee County,35.384,-95.199
06317,Olustee,Jackson County,34.549,-99.422
02003,Covington,Garfield County,36.308,-97.586
04297,Johnson,Pottawatomie County,35.406,-96.842
01300,Calumet,Canadian County,35.601,-98.119
01353,Canton,Blaine County,36.054,-98.588
00767,Billings,Noble County,36.529,-97.444
08255,Stringtown,Atoka County,34.467,-96.053
09184,Westport,Pawnee County,36.219,-96.325
02448,Drummond,Garfield County,36.300,-98.036
08690,Turpin,Beaver County,36.867,-100.877
04415,Keota,Haskell County,35.256,-94.922
03202,Gage,Ellis County,36.316,-99.758
00712,Bernice,Delaware County,36.616,-94.918
00180,Amber,Grady County,35.160,-97.879
06448,Paden,Okfuskee County,35.508,-96.568
05047,Lowrey,Cherokee County,36.098,-94.922
01495,Cedar Valley,Logan County,35.864,-97.562
04766,Leedey,Dewey County,35.870,-99.347
02302,Depew,Creek County,35.803,-96.506
02419,Dover,Kingfisher County,35.981,-97.911
08223,Stonewall,Pontotoc County,34.653,-96.526
01579,Chattanooga,Comanche County,34.424,-98.654
02531,Eagletown,McCurtain County,34.034,-94.574
07262,Ringwood,Major County,36.379,-98.245
08662,Tryon,Lincoln County,35.870,-96.964
01486,Cedar Lake,Canadian County,35.427,-98.189
09241,Whitefield,Haskell County,35.253,-95.237
00322,Asher,Pottawatomie County,34.990,-96.924
01384,Carmen,Alfalfa County,36.579,-98.462
07589,Sand Hill,Muskogee County,35.634,-95.201
02147,Custer City,Custer County,35.665,-98.883
07269,Ripley,Payne County,36.018,-96.906
00464,Barber,Cherokee County,35.757,-94.868
02012,Coyle,Logan County,35.957,-97.234
01055,Bridge Creek,Grady County,35.235,-97.737
07654,Sawyer,Choctaw County,34.014,-95.372
08843,Vera,Washington County,36.449,-95.881
04970,Long,Sequoyah County,35.498,-94.585
08627,Tribbey,Pottawatomie County,35.115,-97.053
02505,Dustin,Hughes County,35.271,-96.031
04359,Katie,Garvin County,34.580,-97.352
00616,Bell,Adair County,35.718,-94.576
08709,Twin Oaks,Delaware County,36.205,-94.851
04906,Little Rock,Mayes County,36.222,-95.083
01310,Cameron,Le Flore County,35.134,-94.535
08677,Tupelo,Coal County,34.605,-96.424
04743,Leach,Delaware County,36.205,-94.922
01304,Calvin,Hughes County,34.968,-96.249
02911,Fargo,Ellis County,36.376,-99.624
00059,Agra,Lincoln County,35.895,-96.872
02666,Eldorado,Jackson County,34.472,-99.648
05824,Mountain Park,Kiowa County,34.697,-98.950
02838,Evening Shade,Sequoyah County,35.625,-94.929
04668,Lane,Atoka County,34.299,-95.988
03555,Gregory,Rogers County,36.171,-95.572
03427,Gowen,Latimer County,34.881,-95.477
02092,Crowder,Pittsburg County,35.124,-95.670
05543,Mill Creek,Johnston County,34.404,-96.826
02047,Crescent Springs,Logan County,35.896,-97.603
04657,Lamont,Grant County,36.691,-97.556
06149,North Miami,Ottawa County,36.917,-94.880
03475,Grant,Choctaw County,33.943,-95.514
01812,Coleman,Johnston County,34.271,-96.419
07065,Randlett,Cotton County,34.177,-98.464
00686,Bennington,Bryan County,34.005,-96.038
04273,Jennings,Pawnee County,36.181,-96.570
06083,Nicut,Sequoyah County,35.584,-94.559
03779,Haworth,McCurtain County,33.846,-94.653
08420,Terral,Jefferson County,33.897,-97.936
01340,Caney,Cherokee County,35.830,-94.840
09035,Watts,Adair County,36.109,-94.570
06969,Proctor,Adair County,35.966,-94.777
04777,Lehigh,Coal County,34.469,-96.216
07054,Ralston,Pawnee County,36.504,-96.732
00997,Braggs,Muskogee County,35.663,-95.198
04435,Keyes,Cimarron County,36.810,-102.255
01551,Chance,Adair County,36.060,-94.655
02271,Delaware,Nowata County,36.779,-95.639
04797,Leonard,Tulsa County,35.920,-95.799
06230,Oaks,Cherokee County,36.170,-94.853
07592,Sand Point,Bryan County,33.965,-96.563
05535,Milburn,Johnston County,34.241,-96.549
07377,Roosevelt,Kiowa County,34.849,-99.022
07126,Red Rock,Noble County,36.459,-97.179
03225,Gans,Sequoyah County,35.389,-94.692
02214,Davidson,Tillman County,34.241,-99.076
00441,Ballou,Mayes County,36.146,-95.190
03098,Foster,Garvin County,34.616,-97.489
02070,Cromwell,Seminole County,35.340,-96.457
03305,Gideon,Cherokee County,36.010,-95.033
04538,Kremlin,Garfield County,36.547,-97.831
03126,Francis,Pontotoc County,34.874,-96.596
01480,Cedar Crest,Mayes County,36.113,-95.229
05406,Mead,Bryan County,34.000,-96.509
07387,Rose,Mayes County,36.219,-95.030
02712,Elm Grove,Adair County,35.796,-94.568
08376,Sycamore,Delaware County,36.405,-94.713
02356,Disney,Mayes County,36.481,-95.015
04831,Liberty,Sequoyah County,35.477,-94.543
00097,Alderson,Pittsburg County,34.900,-95.692
05269,Marshall,Logan County,36.154,-97.626
05563,Millerton,McCurtain County,33.986,-95.014
04758,Lebanon,Marshall County,33.982,-96.907
07345,Rocky Ford,Cherokee County,36.156,-94.911
09230,White Oak,Craig County,36.620,-95.264
01248,Butler,Custer County,35.637,-99.186
05183,Manitou,Tillman County,34.508,-98.983
01340,Caney,Atoka County,34.232,-96.214
04284,Jet,Alfalfa County,36.666,-98.181
03681,Hanson,Sequoyah County,35.435,-94.699
01026,Breckenridge,Garfield County,36.457,-97.725
08194,Stuart,Hughes County,34.901,-96.099
01260,Byars,McClain County,34.874,-97.050
02414,Dougherty,Murray County,34.400,-97.056
02664,Eldon,Cherokee County,35.928,-94.840
00189,Ames,Major County,36.246,-98.185
04159,Ingalls,Payne County,36.102,-96.881
05897,Nash,Grant County,36.666,-98.050
08458,Teresita,Cherokee County,36.110,-94.993
06827,Pocasset,Grady County,35.194,-97.953
01305,Camargo,Dewey County,36.017,-99.289
01410,Carter,Beckham County,35.219,-99.506
04981,Longdale,Blaine County,36.133,-98.551
02451,Dry Creek,Cherokee County,35.737,-94.873
07833,Short,Sequoyah County,35.571,-94.491
06378,Osage,Osage County,36.293,-96.416
03249,Garvin,McCurtain County,33.954,-94.942
02996,Fitzhugh,Pontotoc County,34.666,-96.775
06764,Pittsburg,Pittsburg County,34.713,-95.850
01609,Chester,Major County,36.216,-98.921
03151,Freedom,Woods County,36.769,-99.113
02169,Dale,Pottawatomie County,35.390,-97.045
08394,Taft,Muskogee County,35.762,-95.546
02337,Dixon,Seminole County,35.160,-96.522
02615,Edgewater Park,Comanche County,34.826,-98.378
00260,Arcadia,Oklahoma County,35.667,-97.327
01437,Castle,Okfuskee County,35.475,-96.382
06955,Preston,Okmulgee County,35.711,-95.992
08226,Stoney Point,Sequoyah County,35.596,-94.663
09011,Warwick,Lincoln County,35.686,-97.004
02818,Etowah,Cleveland County,35.127,-97.169
09251,Whitesboro,Le Flore County,34.693,-94.885
01248,Butler,Delaware County,36.539,-94.741
05278,Martha,Jackson County,34.725,-99.387
00983,Boynton,Muskogee County,35.649,-95.656
09418,Woodlawn Park,Oklahoma County,35.511,-97.650
00875,Blue,Bryan County,33.996,-96.230
03548,Greenville,Love County,34.007,-97.126
08023,Spaulding,Hughes County,35.014,-96.440
04831,Liberty,Okmulgee County,35.853,-95.986
03793,Haywood,Pittsburg County,34.887,-95.948
09520,Zena,Delaware County,36.496,-94.854
00030,Adams,Texas County,36.756,-101.077
05658,Monroe,Le Flore County,34.993,-94.517
04152,Indianola,Pittsburg County,35.163,-95.775
01332,Canadian,Pittsburg County,35.177,-95.655
01652,Christie,Adair County,35.958,-94.690
03839,Hennepin,Garvin County,34.509,-97.347
04089,Hunter,Garfield County,36.564,-97.661
05245,Marietta,Adair County,35.843,-94.658
00571,Bearden,Okfuskee County,35.348,-96.389
00603,Bee,Johnston County,34.122,-96.572
02293,Dennis,Delaware County,36.539,-94.884
06363,Orlando,Logan County,36.148,-97.375
03499,Grayson,Okmulgee County,35.503,-95.873
02876,Fairmont,Garfield County,36.356,-97.706
06619,Peoria,Ottawa County,36.915,-94.670
01225,Burlington,Alfalfa County,36.900,-98.423
04384,Kemp,Bryan County,33.770,-96.354
07772,Sharon,Woodward County,36.276,-99.336
05855,Murphy,Mayes County,36.147,-95.245
01468,Cayuga,Delaware County,36.634,-94.680
08113,St. Louis,Pottawatomie County,35.074,-96.853
06665,Phillips,Coal County,34.506,-96.220
02777,Enterprise,Haskell County,35.230,-95.380
06115,Norge,Grady County,34.988,-97.997
08708,Twin Lakes,Logan County,35.868,-97.665
01209,Burbank,Osage County,36.695,-96.732
08026,Sparks,Lincoln County,35.608,-96.821
04649,Lamar,Hughes County,35.100,-96.127
00082,Albany,Bryan County,33.881,-96.163
00292,Armstrong,Bryan County,34.051,-96.345
04208,Isabella,Major County,36.236,-98.340
02936,Faxon,Comanche County,34.457,-98.579
09315,Willow,Greer County,35.051,-99.510
03535,Greenfield,Blaine County,35.729,-98.378
01840,Colony,Washita County,35.349,-98.677
01953,Cornish,Jefferson County,34.159,-97.597
05346,Mazie,Mayes County,36.108,-95.363
01990,Council Hill,Muskogee County,35.556,-95.651
05352,McBride,Marshall County,33.935,-96.633
06306,Olive,Creek County,36.028,-96.480
03644,Hallett,Pawnee County,36.234,-96.568
08368,Sweetwater,Beckham County,35.415,-99.920
03757,Hastings,Jefferson County,34.227,-98.110
08299,Summit,Muskogee County,35.666,-95.423
00840,Blanco,Pittsburg County,34.751,-95.774
01059,Bridgeport,Caddo County,35.546,-98.385
03097,Foss,Washita County,35.454,-99.170
04937,Loco,Stephens County,34.329,-97.681
01150,Brush Creek,Delaware County,36.417,-94.786
03670,Hanna,McIntosh County,35.205,-95.890
06615,Pensacola,Mayes County,36.455,-95.131
03954,Hitchcock,Blaine County,35.969,-98.348
03424,Gould,Harmon County,34.671,-99.771
08989,Wann,Nowata County,36.915,-95.804
02946,Felt,Cimarron County,36.568,-102.794
04034,Horntown,Hughes County,35.087,-96.248
08938,Wainwright,Muskogee County,35.613,-95.564
02413,Dotyville,Ottawa County,36.859,-94.909
03120,Fox,Carter County,34.364,-97.492
04391,Kendrick,Lincoln County,35.785,-96.778
04638,Lakeside Village,Comanche County,34.798,-98.385
05172,Manchester,Grant County,36.994,-98.038
07132,Redbird,Wagoner County,35.886,-95.589
04449,Kildare,Kay County,36.810,-97.049
01197,Bug Tussle,Pittsburg County,35.031,-95.690
03966,Hoffman,Okmulgee County,35.489,-95.843
06487,Panola,Latimer County,34.929,-95.213
00357,Atwood,Hughes County,34.956,-96.339
03874,Hickory,Murray County,34.557,-96.860
01462,Cave Spring,Adair County,35.728,-94.758
04063,Hoyt,Haskell County,35.272,-95.302
06862,Pontotoc,Johnston County,34.489,-96.625
00993,Bradley,Grady County,34.878,-97.708
05839,Mulberry,Adair County,35.869,-94.699
02860,Fair Oaks,Rogers County,36.159,-95.691
07930,Smithville,McCurtain County,34.467,-94.644
02250,Deer Creek,Grant County,36.806,-97.519
04795,Leon,Love County,33.879,-97.429
03932,Hillsdale,Garfield County,36.563,-97.991
01115,Brooksville,Pottawatomie County,35.198,-96.968
02819,Etta,Cherokee County,35.825,-94.885
03806,Headrick,Jackson County,34.628,-99.138
06243,Oakwood,Dewey County,35.932,-98.705
03383,Golden,McCurtain County,34.034,-94.896
00794,Bison,Garfield County,36.196,-97.890
05050,Loyal,Kingfisher County,35.971,-98.121
00815,Blackburn,Pawnee County,36.373,-96.596
06494,Paradise Hill,Sequoyah County,35.626,-95.067
07041,Reagan,Johnston County,34.349,-96.722
08244,Strang,Mayes County,36.411,-95.131
04851,Lima,Seminole County,35.174,-96.600
05057,Lucien,Noble County,36.275,-97.455
07396,Rosedale,McClain County,34.918,-97.184
02718,Elmer,Jackson County,34.481,-99.351
03836,Hendrix,Bryan County,33.774,-96.406
05870,Mutual,Woodward County,36.231,-99.168
03259,Gate,Beaver County,36.853,-100.055
05833,Moyers,Pushmataha County,34.326,-95.654
00089,Albion,Pushmataha County,34.663,-95.100
09063,Webb City,Osage County,36.807,-96.709
08371,Swink,Choctaw County,34.018,-95.202
07679,Scipio,Pittsburg County,35.055,-95.957
08773,Utica,Bryan County,33.901,-96.221
02415,Douglas,Garfield County,36.261,-97.669
07416,Rosston,Harper County,36.813,-99.934
09483,Yeager,Hughes County,35.158,-96.339
02533,Earl,Johnston County,34.202,-96.898
00690,Bentley,Atoka County,34.215,-96.079
02445,Dripping Springs,Delaware County,36.174,-94.672
04002,Homestead,Blaine County,36.150,-98.394
02520,Eagle City,Blaine County,35.933,-98.592
00788,Byron,Alfalfa County,36.902,-98.294
02371,Dodge,Delaware County,36.574,-94.656
04433,Quay,Pawnee County,36.160,-96.711
09198,Wheatland,Oklahoma County,35.398,-97.652
09526,Zion,Adair County,35.783,-94.635
00423,Baker,Texas County,36.869,-101.018
01720,Clearview,Okfuskee County,35.397,-96.186
03980,Hollister,Tillman County,34.342,-98.871
08302,Sumner,Noble County,36.319,-97.121
05635,Moffett,Sequoyah County,35.390,-94.447
00327,Ashland,Pittsburg County,34.768,-96.070
02937,Fay,Dewey County,35.813,-98.658
08257,Strong City,Roger Mills County,35.670,-99.600
05139,May,Harper County,36.617,-99.747
06742,Piney,Adair County,35.885,-94.542
06995,Putnam,Dewey County,35.856,-98.968
07018,Quinlan,Woodward County,36.454,-99.045
07764,Shamrock,Creek County,35.910,-96.584
07751,Seward,Logan County,35.798,-97.488
04152,Indianola,Delaware County,36.444,-94.675
05124,Macomb,Pottawatomie County,35.147,-97.009
03171,Friendship,Jackson County,34.696,-99.229
04022,Hopeton,Woods County,36.688,-98.666
02503,Durham,Roger Mills County,35.842,-99.925
04048,Hough,Texas County,36.871,-101.577
08800,Valley Park,Rogers County,36.293,-95.737
01157,Bryant,Okmulgee County,35.391,-96.065
03046,Foraker,Osage County,36.872,-96.566
05033,Loveland,Tillman County,34.305,-98.772
05469,Meridian,Logan County,35.842,-97.247
06214,Oak Grove,Pawnee County,36.205,-96.338
04263,Jefferson,Grant County,36.721,-97.791
07733,Selman,Harper County,36.802,-99.491
04433,Quay,Pawnee County,36.161,-96.708
04247,Jamestown,Rogers County,36.570,-95.629
04652,Lambert,Alfalfa County,36.683,-98.423
05034,Lovell,Logan County,36.057,-97.635
04519,Knowles,Beaver County,36.873,-100.193
04409,Kenton,Cimarron County,36.903,-102.963
01920,Cooperton,Kiowa County,34.868,-98.867
00038,Adel,Pushmataha County,34.579,-95.594
00050,Etna,Garfield County,36.371,-97.747
00084,Albert,Caddo County,35.233,-98.411
00094,Alden,Caddo County,34.975,-98.585
00108,Alfalfa,Caddo County,35.219,-98.607
00137,Allison,Bryan County,33.896,-96.372
00142,Alma,Stephens County,34.419,-97.612
00294,Arnett,Harmon County,34.747,-99.965
00352,Atlee,Jefferson County,34.093,-97.632
00376,Eva,Texas County,36.798,-101.907
00394,Aylesworth,Marshall County,34.028,-96.627
00430,Bald Hill,Okmulgee County,35.740,-95.837
00487,Baron,Adair County,35.900,-94.600
00646,Bellemont,Pottawatomie County,35.463,-96.771
00702,Berlin,Roger Mills County,35.451,-99.625
00727,Bethel,Comanche County,34.594,-98.159
00727,Bethel,McCurtain County,34.360,-94.837
00844,Blanton,Garfield County,36.427,-97.926
00853,Blocker,Pittsburg County,35.061,-95.568
00907,Bowden,Creek County,36.063,-96.087
00942,Boone,Caddo County,34.899,-98.462
01092,Brock,Carter County,34.116,-97.239
01121,Brown,Bryan County,34.089,-96.480
01140,Broxton,Caddo County,34.986,-98.409
01198,Bugtussle,Pittsburg County,35.031,-95.690
01250,Butner,Seminole County,35.261,-96.459
01271,Cade,Bryan County,34.099,-95.990
01279,Cairo,Coal County,35.574,-96.132
01288,Calhoun,Le Flore County,35.104,-94.746
01367,Capron,Woods County,36.897,-98.578
01394,Carpenter,Custer County,35.530,-99.372
01518,Centerview,Pottawatomie County,35.434,-96.665
01524,Centralia,Craig County,36.797,-95.353
01528,Ceres,Noble County,36.477,-97.282
01585,Cheek,Carter County,34.078,-97.282
01697,Clarksville,Wagoner County,35.826,-95.514
01774,Coalton,Okmulgee County,35.498,-95.939
01782,Cobb,Bryan County,34.085,-96.408
01868,Concho,Canadian County,35.616,-97.994
01941,Corinne,Pushmataha County,34.186,-95.291
01983,Cottonwood,Coal County,34.556,-96.204
01983,Cottonwood,Sequoyah County,35.368,-94.549
02031,Crawford,Roger Mills County,35.827,-99.799
02125,Cumberland,Marshall County,34.064,-96.600
02166,Daisy,Atoka County,34.536,-95.740
02207,Darwin,Pushmataha County,34.248,-95.779
02274,Delhi,Beckham County,35.175,-99.676
02305,Durwood,Carter County,34.177,-96.965
02339,Dighton,Okmulgee County,35.468,-95.893
02342,Dillard,Carter County,34.187,-97.405
02444,Driftwood,Alfalfa County,36.879,-98.359
02445,Dripping Springs,Carter County,34.187,-97.038
02484,Dundee,Carter County,34.231,-97.545
02602,Eddy,Kay County,36.732,-97.459
02724,Elmwood,Beaver County,36.616,-100.523
02778,Enville,Love County,33.984,-96.986
02858,Fallon,Choctaw County,33.998,-95.417
02902,Fame,McIntosh County,35.362,-95.646
02929,Farris,Atoka County,34.263,-95.867
02972,Fillmore,Johnston County,34.274,-96.496
02979,Finley,Pushmataha County,34.328,-95.495
03014,Fleetwood,Jefferson County,33.897,-97.851
03031,Floris,Beaver County,36.870,-100.711
03041,Folsom,Johnston County,34.193,-96.421
03054,Foreman,Sequoyah County,35.335,-94.637
03061,Forest Hill,Le Flore County,34.928,-94.620
03112,Four Corners,Texas County,36.762,-101.907
03234,Garden Grove,Pottawatomie County,35.419,-96.771
03265,Gay,Choctaw County,33.953,-95.621
03299,Gibbon,Grant County,36.943,-97.982
03302,Gibson,Wagoner County,35.871,-95.352
03324,Gilmore,Le Flore County,35.052,-94.524
03337,Glenn,Carter County,34.318,-97.196
03403,Goodnight,Logan County,35.951,-97.141
03434,Grady,Jefferson County,34.020,-97.666
03567,Grimes,Roger Mills County,35.466,-99.761
03613,Gypsy,Creek County,35.712,-96.459
03656,Hamden,Choctaw County,34.142,-95.567
03706,Harmon,Ellis County,36.145,-99.560
03707,Harmony,Atoka County,34.317,-96.076
03721,Harris,McCurtain County,33.750,-94.729
03792,Hayward,Garfield County,36.278,-97.513
03867,Hewitt,Carter County,34.169,-97.405
03869,Hext,Beckham County,35.248,-99.753
03939,Hilton,Creek County,36.010,-96.047
04016,Hooper,Cotton County,34.159,-98.174
04024,Hopewell,Atoka County,34.233,-96.373
04160,Ingersoll,Alfalfa County,36.796,-98.395
04289,Jimtown,Love County,33.862,-97.369
04325,Joy,Murray County,34.594,-97.142
04335,Jumbo,Pushmataha County,34.445,-95.736
04594,Lake,Tulsa County,36.140,-96.082
04701,Last Chance,Okfuskee County,35.537,-96.264
04789,Lenora,Dewey County,36.041,-99.062
04828,Libbey,Texas County,36.937,-101.975
04894,Little,Seminole County,35.348,-96.672
04948,Logan,Beaver County,36.573,-100.217
04992,Lookout,Woods County,36.937,-99.277
05100,Lyons,Adair County,35.751,-94.711
05296,Mason,Okfuskee County,35.566,-96.352
05334,Mayfield,Beckham County,35.339,-99.877
05392,McMillan,Marshall County,34.090,-96.937
05526,Midlothian,Lincoln County,35.637,-96.922
05556,Miller,Pushmataha County,34.316,-95.745
05580,Milo,Carter County,34.333,-97.339
05628,Mocane,Beaver County,36.894,-100.373
05846,Muncy,Texas County,36.820,-101.763
05862,Muse,Le Flore County,34.672,-94.763
05928,Nelson,Choctaw County,34.127,-95.685
05932,Neodesha,Wagoner County,36.046,-95.434
06065,Newport,Carter County,34.253,-97.275
06084,Nida,Johnston County,34.143,-96.499
06214,Oak Grove,Murray County,34.615,-96.967
06273,Oil City,Carter County,34.274,-97.418
06316,Olney,Coal County,34.472,-96.361
06321,Omega,Kingfisher County,35.870,-98.198
06356,Orienta,Major County,36.360,-98.474
06385,Oscar,Jefferson County,33.984,-97.753
06406,Ottawa,Ottawa County,36.857,-94.788
06421,Overbrook,Love County,34.067,-97.141
06452,Page,Le Flore County,34.711,-94.550
06508,Parkland,Lincoln County,35.840,-96.842
06556,Payne,McClain County,34.906,-97.530
06577,Pearson,Pottawatomie County,35.073,-96.918
06626,Pernell,Garvin County,34.561,-97.510
06634,Pershing,Osage County,36.593,-96.275
06678,Pickens,McCurtain County,34.396,-95.012
06686,Pierce,McIntosh County,35.435,-95.716
06726,Pine Ridge,Caddo County,35.019,-98.468
06987,Pumpkin Center,Cherokee County,35.713,-95.127
06987,Pumpkin Center,Comanche County,34.594,-98.212
06987,Pumpkin Center,Okmulgee County,35.682,-95.784
06991,Purdy,Garvin County,34.716,-97.588
07070,Rankin,Roger Mills County,35.624,-99.924
07138,Redland,Sequoyah County,35.305,-94.624
07148,Reed,Greer County,34.901,-99.696
07301,Roberta,Bryan County,33.926,-96.302
07349,Rocky Point,Wagoner County,36.029,-95.328
07361,Roll,Roger Mills County,35.779,-99.711
07373,Romulus,Pottawatomie County,35.116,-96.923
07417,Rossville,Lincoln County,35.594,-96.999
07479,Russett,Johnston County,34.190,-96.805
07500,Sacred Heart,Pottawatomie County,35.001,-96.809
07588,Sand Creek,Grant County,36.840,-98.020
07625,Santa Fe,Stephens County,34.420,-97.692
07687,Scott,Caddo County,35.377,-98.236
07720,Sedan,Kiowa County,34.972,-98.761
07813,Sherwood,McCurtain County,34.331,-94.778
07843,Sickles,Caddo County,35.363,-98.448
07943,Snow,Pushmataha County,34.396,-95.413
08011,Southard,Blaine County,36.056,-98.475
08036,Spencerville,Choctaw County,34.142,-95.358
08051,Spring Creek,Caddo County,35.262,-98.183
08134,Stafford,Custer County,35.537,-99.122
08147,Stanley,Pushmataha County,34.540,-95.470
08268,Sturgis,Cimarron County,36.894,-102.070
08295,Summerfield,Le Flore County,34.899,-94.866
08329,Sunrise,Okfuskee County,35.521,-96.123
08329,Sunrise,Okmulgee County,35.456,-95.918
08429,Taylor,Beckham County,35.248,-99.382
08429,Taylor,Cotton County,34.174,-98.331
08437,Ti,Pittsburg County,34.709,-95.661
08644,Trousdale,Pottawatomie County,35.041,-97.043
08652,Troy,Johnston County,34.327,-96.782
08723,Yuba,Bryan County,33.809,-96.204
08856,Vernon,McIntosh County,35.216,-95.926
08922,Wade,Bryan County,33.889,-96.076
08970,Wallville,Garvin County,34.768,-97.504
09034,Watson,McCurtain County,34.437,-94.560
09104,Wesley,Atoka County,34.588,-95.898
09311,Willis,Marshall County,33.886,-96.829
09334,Wilson,Okmulgee County,35.508,-96.035
09340,Winchester,Woods County,36.957,-98.797
09373,Wirt,Carter County,34.231,-97.532
09386,Wolf,Seminole County,35.087,-96.659