phoneme,name,county,latitude,longitude
05899,Nashville,Davidson County,36.169,-86.785
05446,Memphis,Shelby County,35.150,-90.049
04523,Knoxville,Knox County,35.961,-83.921
01579,Chattanooga,Hamilton County,35.046,-85.310
01697,Clarksville,Montgomery County,36.530,-87.359
05854,Murfreesboro,Rutherford County,35.846,-86.390
03133,Franklin,Williamson County,35.925,-86.869
04298,Johnson City,Carter County,36.342,-82.381
01937,Cordova,Shelby County,35.156,-89.776
04232,Jackson,Madison County,35.615,-88.814
03835,Hendersonville,Sumner County,36.305,-86.620
00498,Bartlett,Shelby County,35.205,-89.874
07936,Smyrna,Rutherford County,35.969,-86.529
08056,Spring Hill,Maury County,35.747,-86.917
01827,Collierville,Shelby County,35.042,-89.665
01732,Cleveland,Bradley County,35.160,-84.877
03216,Gallatin,Sumner County,36.388,-86.447
01036,Brentwood,Williamson County,36.033,-86.783
01835,Columbia,Maury County,35.615,-87.035
03288,Germantown,Shelby County,35.087,-89.810
04758,Lebanon,Wilson County,36.208,-86.291
01149,Brunswick,Shelby County,35.267,-89.769
05294,Maryville,Blount County,35.756,-83.970
06226,Oak Ridge,Anderson County,35.966,-84.291
05746,Morristown,Hamblen County,36.204,-83.300
01078,Bristol,Sullivan County,36.595,-82.189
02925,Farragut,Knox County,35.876,-84.180
07792,Shelbyville,Bedford County,35.483,-86.460
08067,Springfield,Robertson County,36.509,-86.885
02337,Dickson,Dickson County,36.077,-87.388
07755,Seymour,Blount County,35.883,-83.762
00285,Arlington,Shelby County,35.296,-89.661
00342,Athens,McMinn County,35.443,-84.593
05393,McMinnville,Warren County,35.683,-85.770
04630,Lakeland,Shelby County,35.231,-89.740
06918,Powell,Knox County,36.032,-84.028
09226,White House,Robertson County,36.465,-86.666
06892,Portland,Robertson County,36.597,-86.527
05172,Manchester,Coffee County,35.482,-86.089
04822,Lewisburg,Marshall County,35.449,-86.789
02086,Crossville,Cumberland County,35.949,-85.027
03745,Hartsville,Trousdale County,36.393,-86.157
07111,Red Bank,Hamilton County,35.112,-85.294
04732,Lawrenceburg,Lawrence County,35.242,-87.335
05507,Middle Valley,Hamilton County,35.196,-85.185
08740,Union City,Obion County,36.424,-89.057
05279,Martin,Weakley County,36.343,-88.850
05570,Millington,Shelby County,35.341,-89.897
03650,Halls Crossroads,Knox County,36.080,-83.942
06499,Paris,Henry County,36.302,-88.327
00353,Atoka,Tipton County,35.441,-89.778
01741,Clinton,Anderson County,36.103,-84.132
03648,Halls,Knox County,36.082,-83.933
02882,Fairview,Williamson County,35.982,-87.121
01135,Brownsville,Haywood County,35.594,-89.262
09340,Winchester,Franklin County,35.186,-86.112
06234,Oakland,Fayette County,35.229,-89.515
00868,Bloomingdale,Sullivan County,36.585,-82.489
02003,Covington,Tipton County,35.564,-89.646
03724,Harrison,Hamilton County,35.114,-85.138
04264,Jefferson City,Jefferson County,36.122,-83.492
06985,Pulaski,Giles County,35.200,-87.031
05533,Milan,Gibson County,35.920,-88.759
04826,Lexington,Henderson County,35.651,-88.393
04084,Humboldt,Gibson County,35.827,-88.904
07269,Ripley,Lauderdale County,35.745,-89.530
04552,La Follette,Campbell County,36.383,-84.120
07650,Savannah,Hardin County,35.225,-88.249
02226,Dayton,Rhea County,35.494,-85.012
01660,Church Hill,Hawkins County,36.522,-82.713
03513,Green Hill,Wilson County,36.223,-86.549
02939,Fayetteville,Lincoln County,35.152,-86.571
03531,Greenbrier,Robertson County,36.428,-86.805
06065,Newport,Cocke County,35.967,-83.188
05094,Lynchburg,Moore County,35.289,-86.359
05848,Munford,Tipton County,35.449,-89.815
08368,Sweetwater,McMinn County,35.603,-84.471
03834,Henderson,Chester County,35.439,-88.641
05562,Millersville,Robertson County,36.397,-86.711
05024,Loudon,Loudon County,35.733,-84.334
04474,Kingston,Roane County,35.881,-84.509
02795,Erwin,Unicoi County,36.145,-82.417
03719,Harriman,Morgan County,35.930,-84.563
04584,Lafayette,Macon County,36.521,-86.026
07342,Rockwood,Roane County,35.866,-84.685
05779,Mount Carmel,Hawkins County,36.545,-82.661
05117,McKenzie,Carroll County,36.137,-88.507
02489,Dunlap,Sequatchie County,35.371,-85.391
05428,Medina,Gibson County,35.803,-88.775
00924,Bolivar,Hardeman County,35.256,-88.988
07930,Smithville,DeKalb County,35.961,-85.814
05136,Madisonville,Monroe County,35.520,-84.364
06808,Pleasant View,Cheatham County,36.394,-87.037
08029,Sparta,White County,35.926,-85.464
05801,Mount Pleasant,Maury County,35.534,-87.207
03062,Forest Hills,Davidson County,36.068,-86.844
06218,Oak Hill,Davidson County,36.088,-86.783
07358,Rogersville,Hawkins County,36.407,-83.005
01921,Coopertown,Robertson County,36.438,-86.967
04094,Huntingdon,Carroll County,36.001,-88.428
05030,Louisville,Blount County,35.822,-84.048
01649,Christiana,Rutherford County,35.710,-86.399
09046,Waverly,Humphreys County,36.084,-87.795
08624,Trenton,Gibson County,35.981,-88.941
06214,Oak Grove,Washington County,36.412,-82.425
04920,Livingston,Overton County,36.383,-85.323
08083,Spurgeon,Sullivan County,36.444,-82.461
06327,Oneida,Scott County,36.498,-84.513
01309,Camden,Benton County,36.059,-88.098
02818,Etowah,McMinn County,35.323,-84.525
04256,Jasper,Marion County,35.074,-85.626
01519,Centerville,Hickman County,35.779,-87.467
01389,Karns,Knox County,35.982,-84.114
07969,Somerville,Fayette County,35.244,-89.350
06049,Newbern,Dyer County,36.113,-89.262
02439,Dresden,Weakley County,36.291,-88.708
01771,Coalfield,Morgan County,36.029,-84.421
01839,Colonial Heights,Sullivan County,36.485,-82.503
01069,Brighton,Tipton County,35.484,-89.725
05674,Monterey,Putnam County,36.148,-85.268
00640,Belle Meade,Davidson County,36.096,-86.857
09179,Westmoreland,Sumner County,36.562,-86.248
09400,Woodbury,Cannon County,35.828,-86.072
09257,Whiteville,Hardeman County,35.326,-89.150
01738,Clifton,Wayne County,35.387,-87.995
02547,East Cleveland,Bradley County,35.161,-84.858
09232,White Pine,Hamblen County,36.101,-83.286
08976,Walnut Hill,Sullivan County,36.570,-82.257
05528,Midway,Washington County,36.294,-82.419
07464,Rural Hill,Wilson County,36.117,-86.479
00657,Bells,Crockett County,35.711,-89.088
05757,Mosheim,Greene County,36.190,-82.958
05815,Mountain City,Johnson County,36.475,-81.805
05295,Mascot,Knox County,36.061,-83.746
06500,Park City,Lincoln County,35.082,-86.571
09013,Washburn,Grainger County,36.290,-83.591
08436,Tazewell,Claiborne County,36.454,-83.569
09051,Waynesboro,Wayne County,35.320,-87.762
04231,Jacksboro,Campbell County,36.330,-84.184
00078,Alamo,Crockett County,35.785,-89.117
02515,Dyer,Gibson County,36.067,-88.994
01413,Carthage,Smith County,36.252,-85.952
04024,Hopewell,Bradley County,35.235,-84.888
00034,Adamsville,Hardin County,35.238,-88.378
07988,South Fulton,Obion County,36.501,-88.875
01417,Caryville,Campbell County,36.299,-84.223
02264,Del Rio,Cocke County,35.920,-83.026
07244,Ridgetop,Davidson County,36.404,-86.768
00830,Blaine,Grainger County,36.154,-83.704
06778,Plainview,Union County,36.181,-83.793
06524,Parsons,Decatur County,35.650,-88.127
03648,Halls,Lauderdale County,35.876,-89.396
03535,Greenfield,Weakley County,36.153,-88.801
06586,Pegram,Cheatham County,36.101,-87.051
04089,Hunter,Carter County,36.372,-82.159
04993,Lookout Mountain,Hamilton County,34.994,-85.349
08946,Walden,Hamilton County,35.165,-85.301
08050,Spring City,Rhea County,35.692,-84.861
04247,Jamestown,Fentress County,36.428,-84.932
01520,Central,Carter County,36.326,-82.290
08518,Three Way,Madison County,35.776,-88.859
06694,Pikeville,Bledsoe County,35.606,-85.189
02082,Cross Plains,Robertson County,36.549,-86.696
00897,Bluff City,Sullivan County,36.474,-82.261
08225,Stoney Creek,Carter County,36.377,-82.155
02005,Cowan,Franklin County,35.165,-86.011
05005,Loretto,Lawrence County,35.078,-87.440
01559,Chapel Hill,Marshall County,35.626,-86.693
02419,Dover,Stewart County,36.488,-87.838
07242,Ridgely,Lake County,36.263,-89.488
05377,McEwen,Humphreys County,36.108,-87.633
06038,New Union,Coffee County,35.533,-86.081
01230,Burns,Dickson County,36.053,-87.313
00530,Baxter,Putnam County,36.154,-85.644
01571,Charlotte,Dickson County,36.177,-87.340
02239,Decatur,Meigs County,35.515,-84.790
02106,Crump,Hardin County,35.222,-88.318
02877,Fairmount,Hamilton County,35.181,-85.324
06124,Norris,Anderson County,36.196,-84.068
04452,Kimball,Marion County,35.048,-85.672
09029,Watertown,Wilson County,36.100,-86.132
08035,Spencer,Van Buren County,35.747,-85.467
00692,Benton,Polk County,35.174,-84.654
02765,Englewood,McMinn County,35.425,-84.487
01142,Bruceton,Carroll County,36.038,-88.244
03667,Hampshire,Maury County,35.597,-87.293
03500,Graysville,Rhea County,35.447,-85.084
06311,Olivet,Hardin County,35.214,-88.200
08652,Troy,Obion County,36.339,-89.164
03336,Gleason,Weakley County,36.214,-88.613
08753,Unionville,Bedford County,35.622,-86.593
01502,Celina,Clay County,36.550,-85.505
03414,Gordonsville,Smith County,36.173,-85.930
06009,New Market,Jefferson County,36.104,-83.553
05296,Mason,Tipton County,35.412,-89.533
07488,Rutledge,Grainger County,36.281,-83.515
04098,Huntsville,Scott County,36.410,-84.490
00266,Ardmore,Giles County,35.004,-86.851
02790,Erin,Houston County,36.318,-87.695
04965,Lone Oak,Sequatchie County,35.201,-85.364
04409,Kenton,Gibson County,36.202,-89.018
09291,Wildwood,Blount County,35.804,-83.871
03496,Gray,Washington County,36.420,-82.477
07484,Rutherford,Gibson County,36.128,-88.986
03528,Greenback,Loudon County,35.661,-84.172
00161,Altamont,Grundy County,35.430,-85.723
04645,Lakewood Park,Coffee County,35.649,-86.135
07417,Rossville,Fayette County,35.048,-89.543
02973,Fincastle,Campbell County,36.410,-84.048
05083,Luttrell,Union County,36.200,-83.742
04872,Linden,Perry County,35.617,-87.839
00992,Bradford,Gibson County,36.076,-88.810
00106,Alexandria,DeKalb County,36.078,-86.033
05998,New Hope,Marion County,35.005,-85.658
07772,Sharon,Weakley County,36.233,-88.825
00357,Atwood,Carroll County,35.973,-88.678
09347,Winfield,Scott County,36.556,-84.452
01831,Collinwood,Wayne County,35.174,-87.738
08444,Telford,Washington County,36.249,-82.545
03205,Gainesboro,Jackson County,36.356,-85.659
03172,Friendsville,Blount County,35.760,-84.136
09010,Wartburg,Morgan County,36.105,-84.597
03840,Henning,Lauderdale County,35.673,-89.573
02532,Eagleville,Rutherford County,35.739,-86.652
08298,Summertown,Lawrence County,35.435,-87.313
07478,Russellville,Hamblen County,36.259,-83.195
07329,Rockford,Blount County,35.828,-83.941
03736,Hartford,Cocke County,35.817,-83.143
05704,Mooresburg,Hawkins County,36.346,-83.228
08975,Walnut Grove,Sumner County,36.484,-86.613
01968,Cosby,Cocke County,35.817,-83.247
08109,St. Joseph,Lawrence County,35.036,-87.507
01773,Coalmont,Grundy County,35.338,-85.704
02240,Decaturville,Decatur County,35.584,-88.119
06093,Niota,McMinn County,35.513,-84.545
01610,Chesterfield,Henderson County,35.635,-88.267
02268,Delano,Polk County,35.265,-84.553
02979,Finley,Dyer County,36.036,-89.480
05194,Mansfield,Henry County,36.177,-88.286
02587,Eastview,McNairy County,35.076,-88.545
02268,Delano,McMinn County,35.256,-84.562
05744,Morrison,Warren County,35.603,-85.920
02015,Crab Orchard,Cumberland County,35.909,-84.878
07208,Riceville,McMinn County,35.385,-84.693
01567,Charleston,Bradley County,35.287,-84.758
05518,Middleton,Hardeman County,35.065,-88.891
03260,Gates,Lauderdale County,35.838,-89.406
00030,Adams,Robertson County,36.582,-87.066
06662,Philadelphia,Loudon County,35.680,-84.404
03171,Friendship,Crockett County,35.909,-89.245
05109,McDonald,Bradley County,35.113,-84.983
08607,Townsend,Blount County,35.675,-83.756
05753,Moscow,Fayette County,35.062,-89.404
06472,Palmer,Grundy County,35.351,-85.568
02696,Elkton,Giles County,35.052,-86.889
06795,Pleasant Hill,Cumberland County,35.976,-85.194
01288,Calhoun,McMinn County,35.296,-84.748
02816,Ethridge,Lawrence County,35.324,-87.304
08633,Trimble,Dyer County,36.202,-89.188
06642,Petersburg,Lincoln County,35.317,-86.641
05084,Lutts,Wayne County,35.151,-87.938
00260,Arcadia,Sullivan County,36.583,-82.445
03685,Happy Valley,Blount County,35.609,-83.957
06095,Nixon,Hardin County,35.115,-88.257
02431,Doyle,White County,35.853,-85.512
00154,Alpine,Overton County,36.395,-85.217
00207,Andersonville,Anderson County,36.199,-84.037
00758,Big Sandy,Benton County,36.235,-88.085
03201,Gadsden,Crockett County,35.776,-88.990
02465,Ducktown,Polk County,35.036,-84.383
06751,Pinson,Madison County,35.490,-88.721
00417,Baileyton,Greene County,36.334,-82.837
03842,Henry,Henry County,36.204,-88.420
02740,Embreeville,Washington County,36.181,-82.459
07555,Saltillo,Hardin County,35.378,-88.209
07639,Sardis,Henderson County,35.442,-88.294
08151,Stanton,Haywood County,35.462,-89.402
08975,Walnut Grove,Hardin County,35.040,-88.051
09457,Wrigley,Hickman County,35.901,-87.348
01693,Clarksburg,Carroll County,35.872,-88.393
05337,Mayland,Cumberland County,36.047,-85.200
06588,Pelham,Grundy County,35.310,-85.881
01222,Burlison,Tipton County,35.557,-89.779
04660,Lancaster,Smith County,36.128,-85.869
03302,Gibson,Gibson County,35.875,-88.847
09021,Watauga,Carter County,36.368,-82.292
00838,Blanche,Lincoln County,35.043,-86.754
01248,Butler,Carter County,36.357,-82.036
09312,Williston,Fayette County,35.158,-89.368
00971,Bowman,Cumberland County,36.061,-85.028
03918,Hilham,Overton County,36.414,-85.442
09414,Woodland Mills,Obion County,36.488,-89.115
03447,Grand Junction,Fayette County,35.050,-89.189
04831,Liberty,DeKalb County,36.007,-85.968
01051,Briceville,Anderson County,36.178,-84.185
07057,Ramer,McNairy County,35.070,-88.622
00732,Bethpage,Sumner County,36.482,-86.312
04788,Lenox,Dyer County,36.089,-89.498
05975,New Deal,Sumner County,36.517,-86.564
01517,Centertown,Warren County,35.725,-85.921
01484,Cedar Hill,Robertson County,36.551,-86.999
04884,Lynnville,Giles County,35.377,-87.006
01248,Butler,Johnson County,36.353,-82.032
00756,Big Rock,Stewart County,36.581,-87.760
03242,Garland,Tipton County,35.588,-89.753
02977,Finger,McNairy County,35.358,-88.599
05554,Milledgeville,Chester County,35.378,-88.366
09253,Whiteside,Marion County,34.987,-85.498
03931,Hillsboro,Coffee County,35.413,-85.970
00991,Braden,Fayette County,35.380,-89.568
08394,Taft,Lincoln County,35.021,-86.718
07299,Robbins,Scott County,36.353,-84.589
02870,Fairfield,Sumner County,36.620,-86.346
07292,Rives,Obion County,36.356,-89.048
09499,Yorkville,Gibson County,36.100,-89.119
01011,Bransford,Sumner County,36.504,-86.270
03873,Hickman,Smith County,36.144,-85.941
05080,Luray,Henderson County,35.591,-88.576
06229,Oakdale,Morgan County,35.986,-84.553
02671,Elgin,Scott County,36.332,-84.606
02778,Enville,Chester County,35.391,-88.430
06826,Pocahontas,Hardeman County,35.053,-88.804
07903,Slayden,Dickson County,36.295,-87.470
05624,Mitchellville,Sumner County,36.632,-86.541
04195,Iron City,Lawrence County,35.024,-87.581
05463,Mercer,Madison County,35.479,-89.042
06214,Oak Grove,Sumner County,36.571,-86.380
03428,Graball,Sumner County,36.483,-86.438
04555,La Grange,Fayette County,35.045,-89.244
07813,Sherwood,Franklin County,35.076,-85.923
07646,Saulsbury,Hardeman County,35.047,-89.088
06119,Normandy,Bedford County,35.452,-86.260
02471,Dukedom,Weakley County,36.499,-88.715
09509,Yuma,Carroll County,35.847,-88.337
03973,Holladay,Benton County,35.871,-88.146
08899,Viola,Warren County,35.538,-85.859
06365,Orme,Marion County,35.012,-85.805
08169,Statesville,Wilson County,36.019,-86.125
04230,Jacks Creek,Chester County,35.469,-88.521
04726,Lavinia,Carroll County,35.849,-88.661
01972,Cottage Grove,Henry County,36.379,-88.479
00376,Eva,Benton County,36.065,-88.004
04100,Huron,Henderson County,35.588,-88.532
00027,Acton,McNairy County,35.008,-88.459
00050,Aetna,Hickman County,35.655,-87.505
00050,Aetna,Marion County,35.012,-85.495
00051,Afton,Greene County,36.194,-82.739
00096,Alder Springs,Campbell County,36.369,-84.006
00096,Alder Springs,Union County,36.238,-83.865
00139,Alloway,Cumberland County,35.800,-84.876
00141,Allred,Overton County,36.331,-85.190
00248,Appleton,Lawrence County,35.024,-87.233
00262,Archer,Marshall County,35.328,-86.760
00291,Armona,Blount County,35.787,-84.014
00299,Arp,Lauderdale County,35.773,-89.603
00300,Arrington,Williamson County,35.868,-86.710
00307,Arthur,Claiborne County,36.548,-83.671
00320,Ashburn,Robertson County,36.621,-86.829
00327,Ashland,Wayne County,35.436,-87.668
00331,Ashwood,Maury County,35.580,-87.144
00332,Asia,Franklin County,35.244,-86.090
00333,Aspen Hill,Giles County,35.101,-87.004
00374,Austin Springs,Washington County,36.383,-82.349
00374,Austin Springs,Weakley County,36.492,-88.634
00426,Bakerton,Clay County,36.513,-85.805
00428,Bakerville,Humphreys County,35.944,-87.874
00442,Ballplay,Monroe County,35.464,-84.206
00445,Balmoral,Hamilton County,35.107,-85.347
00448,Baltimore,Cocke County,35.984,-83.059
00576,Beasley,Marshall County,35.680,-86.652
00601,Bedford,Bedford County,35.464,-86.574
00607,Beech Bottom,Macon County,36.465,-86.008
00608,Beech Creek,Wayne County,35.420,-87.981
00609,Beech Grove,Anderson County,36.234,-84.190
00609,Beech Grove,Dyer County,35.923,-89.351
00609,Beech Grove,Grainger County,36.367,-83.470
00609,Beech Grove,Knox County,36.145,-83.914
00609,Beech Grove,Trousdale County,36.419,-86.093
00610,Beech Hill,Franklin County,35.222,-86.294
00610,Beech Hill,Giles County,35.230,-86.889
00610,Beech Hill,Macon County,36.471,-86.106
00623,Belfast,Marshall County,35.421,-86.703
00630,Belk,DeKalb County,35.843,-85.699
00648,Belleville,Lincoln County,35.273,-86.554
00659,Belltown,Polk County,35.005,-84.356
00664,Belmont,Anderson County,36.246,-84.031
00664,Belmont,Coffee County,35.421,-86.113
00664,Belmont,Jefferson County,36.010,-83.317
00668,Belvidere,Franklin County,35.125,-86.192
00698,Berea,Giles County,35.258,-86.968
00698,Berea,Warren County,35.809,-85.704
00727,Bethel,Anderson County,36.172,-84.076
00730,Bethesda,Williamson County,35.761,-86.793
00731,Bethlehem,Wayne County,35.156,-87.588
00759,Big Spring,Carter County,36.317,-82.243
00759,Big Spring,Meigs County,35.393,-84.901
00779,Birchwood,Hamilton County,35.367,-84.993
00820,Blackman,Rutherford County,35.875,-86.498
00831,Blair,Roane County,35.992,-84.421
00854,Block,Campbell County,36.342,-84.255
00912,Bogota,Dyer County,36.164,-89.438
00923,Bowling,Cumberland County,35.944,-84.946
00929,Bon Air,Sumner County,36.595,-86.358
00929,Bon Air,White County,35.941,-85.362
00931,Bond,Hickman County,35.724,-87.401
00941,Boomer,Cocke County,35.828,-82.961
00942,Boone,Washington County,36.378,-82.438
00944,Booneville,Lincoln County,35.274,-86.464
00950,Boring,Sullivan County,36.457,-82.419
00952,Boston,Williamson County,35.843,-87.032
00978,Boydsville,Weakley County,36.502,-88.523
00990,Bradyville,Cannon County,35.740,-86.166
00991,Braden,Union County,36.417,-83.876
01021,Braytown,Anderson County,36.158,-84.373
01023,Brazil,Gibson County,35.917,-89.063
01059,Bridgeport,Cocke County,35.953,-83.117
01088,Broadview,Franklin County,35.186,-86.199
01150,Brush Creek,Sequatchie County,35.411,-85.385
01150,Brush Creek,Smith County,36.117,-86.028
01150,Brush Creek,Williamson County,36.007,-87.081
01161,Buchanan,Henry County,36.437,-88.208
01176,Bucksnort,Hickman County,35.892,-87.639
01179,Bucktown,Hardin County,35.270,-88.195
01187,Buena Vista,Carroll County,35.976,-88.289
01188,Buffalo,Anderson County,36.137,-84.388
01188,Buffalo,Hickman County,35.688,-87.488
01188,Buffalo,Humphreys County,35.886,-87.807
01188,Buffalo,Sullivan County,36.492,-82.306
01208,Bunker Hill,Perry County,35.730,-87.997
01261,Bybee,Cocke County,36.048,-83.179
01276,Cagle,Sequatchie County,35.475,-85.461
01278,Cainsville,Wilson County,35.985,-86.249
01279,Cairo,Crockett County,35.823,-89.166
01279,Cairo,Sumner County,36.361,-86.364
01313,Camp Creek,Greene County,36.087,-82.764
01320,Campbellsville,Giles County,35.337,-87.131
01395,Carpenter's Station,Lawrence County,35.139,-87.387
01410,Carter,Knox County,36.021,-83.714
01455,Catlettsburg,Sevier County,35.904,-83.581
01458,Caton,Sevier County,35.800,-83.451
01461,Cave Creek,Roane County,35.814,-84.388
01482,Cedar Grove,Bedford County,35.644,-86.626
01482,Cedar Grove,Carroll County,35.817,-88.596
01482,Cedar Grove,Henderson County,35.482,-88.268
01482,Cedar Grove,Humphreys County,35.946,-87.811
01482,Cedar Grove,Pickett County,36.557,-85.056
01482,Cedar Grove,Roane County,35.845,-84.463
01482,Cedar Grove,Rutherford County,35.781,-86.619
01482,Cedar Grove,Sullivan County,36.573,-82.525
01482,Cedar Grove,Van Buren County,35.736,-85.562
01482,Cedar Grove,Wilson County,36.252,-86.528
01508,Center Grove,Jackson County,36.264,-85.608
01530,Cerro Gordo,Hardin County,35.304,-88.181
01595,Cherokee,Grainger County,36.207,-83.498
01596,Cherry,Lauderdale County,35.677,-89.708
01602,Cherry Valley,Wilson County,36.098,-86.164
01614,Chestnut Grove,Perry County,35.630,-87.809
01615,Chestnut Hill,Jefferson County,35.969,-83.315
01655,Christmasville,Carroll County,36.093,-88.647
01655,Christmasville,Haywood County,35.683,-89.295
01703,Claxton,Anderson County,36.042,-84.110
01703,Claxton,McMinn County,35.304,-84.644
01788,Cochran,Marshall County,35.423,-86.802
01806,Cold Spring,Bledsoe County,35.660,-85.146
01858,Commerce,Wilson County,36.140,-86.103
01860,Como,Henry County,36.293,-88.512
01864,Conasauga,McMinn County,35.330,-84.477
01864,Conasauga,Polk County,35.004,-84.729
01869,Concord,Knox County,35.869,-84.142
01942,Corinth,Knox County,36.065,-83.885
01942,Corinth,Sumner County,36.578,-86.426
01957,Corona,Tipton County,35.445,-90.082
02026,Crandull,Johnson County,36.547,-81.896
02031,Crawford,Overton County,36.269,-85.161
02079,Cross Anchor,Greene County,36.258,-82.818
02084,Crossroads,Hardin County,35.300,-88.124
02084,Crossroads,Wayne County,35.063,-87.728
02121,Culleoka,Maury County,35.479,-86.983
02131,Cunningham,Montgomery County,36.393,-87.387
02131,Cunningham,Obion County,36.233,-89.424
02224,Daylight,Warren County,35.746,-85.858
02252,Deer Lodge,Morgan County,36.201,-84.759
02291,Denmark,Madison County,35.533,-89.004
02341,Dill,Bledsoe County,35.556,-85.358
02354,Disco,Blount County,35.786,-84.158
02361,Dixie,Obion County,36.429,-89.206
02362,Dixon Springs,Smith County,36.359,-86.052
02376,Doe Valley,Johnson County,36.446,-81.903
02468,Duff,Campbell County,36.447,-84.067
02479,Dunbar,Decatur County,35.459,-88.144
02496,Duplex,Williamson County,35.747,-86.837
02504,Durhamville,Lauderdale County,35.667,-89.493
02516,Eads,Shelby County,35.202,-89.651
02517,Eagan,Campbell County,36.552,-83.977
02517,Egan,Wilson County,36.222,-86.346
02590,Eaton,Gibson County,35.969,-89.132
02698,Ellendale,Shelby County,35.231,-89.826
02724,Elmwood,Smith County,36.226,-85.885
02727,Elora,Lincoln County,35.014,-86.359
02768,Enigma,Smith County,36.231,-85.794
02870,Fairfield,Bedford County,35.567,-86.285
02870,Fairfield,Blount County,35.763,-83.868
02882,Fairview,Wayne County,35.044,-87.676
02890,Falcon,McNairy County,35.145,-88.601
02921,Farmington,Marshall County,35.501,-86.711
02987,Fish Springs,Carter County,36.317,-82.058
02989,Fisherville,Shelby County,35.159,-89.664
03000,Five Points,Giles County,35.182,-86.934
03000,Five Points,Lawrence County,35.046,-87.311
03000,Five Points,Madison County,35.518,-88.666
03000,Five Points,Rhea County,35.445,-85.017
03006,Flat Creek,Bedford County,35.391,-86.408
03007,Flat Gap,Wayne County,36.062,-83.478
03013,Flatwoods,Perry County,35.477,-87.828
03027,Florence,Rutherford County,35.919,-86.468
03039,Fly,Maury County,35.789,-87.159
03062,Forrest Hills,Wayne County,35.301,-87.768
03101,Fosterville,Rutherford County,35.655,-86.403
03177,Frog Jump,Crockett County,35.817,-89.335
03177,Frog Jump,Gibson County,35.916,-89.008
03188,Fruitvale,Crockett County,35.747,-89.031
03195,Fulton,Lauderdale County,35.612,-89.882
03240,Gardner,Weakley County,36.358,-88.898
03256,Gassaway,Cannon County,35.940,-85.996
03279,Georgetown,Bradley County,35.286,-84.945
03404,Goodrich,Hickman County,35.845,-87.479
03405,Goodsprings,McMinn County,35.333,-84.560
03428,Graball,Gibson County,35.873,-88.745
03428,Graball,Marshall County,35.309,-86.809
03462,Grandview,Greene County,36.263,-82.721
03462,Grandview,Hardin County,35.382,-88.118
03462,Grandview,Knox County,35.909,-83.859
03462,Grandview,Putnam County,36.211,-85.479
03462,Grandview,Rhea County,35.744,-84.840
03481,Granville,Jackson County,36.271,-85.795
03546,Greenvale,Wilson County,36.000,-86.198
03566,Griffith Creek,Marion County,35.284,-85.550
03616,Habersham,Campbell County,36.498,-84.074
03632,Haley,Bedford County,35.488,-86.311
03655,Hamburg,Hardin County,35.095,-88.304
03669,Hampton,Carter County,36.284,-82.173
03776,Hawkinsville,Dyer County,35.908,-89.284
03844,Henryville,Lawrence County,35.392,-87.394
03876,Hickory Corners,Chester County,35.343,-88.703
03884,Hixson,Hamilton County,35.049,-85.333
03932,Hillsdale,Macon County,36.446,-86.058
03948,Hinkle,Hardin County,35.408,-88.300
04024,Hopewell,Carroll County,35.901,-88.633
04024,Hopewell,Claiborne County,36.565,-83.455
04024,Hopewell,Decatur County,35.654,-88.064
04024,Hopewell,Gibson County,36.081,-89.078
04024,Hopewell,Maury County,35.503,-87.063
04024,Hopewell,Tipton County,35.492,-89.840
04035,Horse Creek,Greene County,36.163,-82.663
04050,Houston,Wayne County,35.241,-87.918
04099,Hurley,Hardin County,35.138,-88.366
04113,Iconium,Cannon County,35.776,-86.022
04120,Idlewild,Gibson County,36.028,-88.810
04130,Independence,Henderson County,35.728,-88.586
04240,Jalapa,Monroe County,35.344,-84.362
04307,Joyner,Morgan County,36.066,-84.456
04319,Joppa,Grainger County,36.238,-83.616
04338,Juno,Henderson County,35.698,-88.521
04380,Kelso,Lincoln County,35.126,-86.469
04387,Kempville,Smith County,36.347,-85.863
04422,Kerrville,Shelby County,35.383,-89.858
04489,Kirkland,Lincoln County,35.062,-86.629
04489,Kirkland,Williamson County,35.807,-86.663
04501,Kittrell,Rutherford County,35.824,-86.245
04526,Kodak,Sevier County,35.974,-83.627
04578,Laconia,Fayette County,35.282,-89.252
04649,Lamar,Washington County,36.216,-82.470
04661,Lancing,Morgan County,36.121,-84.654
04702,Latham,Weakley County,36.423,-88.714
04714,Laurel,Sevier County,35.777,-83.406
04716,Laurel Fork,Carter County,36.206,-82.002
04743,Leach,Carroll County,35.933,-88.487
04753,Leatherwood,Wayne County,35.394,-87.848
04758,Lebanon,Hardin County,35.370,-88.294
04833,Liberty Grove,Lawrence County,35.041,-87.383
04834,Liberty Hill,Cocke County,36.078,-83.174
04834,Liberty Hill,Fayette County,35.302,-89.281
04834,Liberty Hill,Giles County,35.331,-87.191
04834,Liberty Hill,Grainger County,36.318,-83.614
04834,Liberty Hill,Greene County,36.306,-82.690
04834,Liberty Hill,McMinn County,35.382,-84.438
04834,Liberty Hill,Rhea County,35.599,-85.035
04834,Liberty Hill,Williamson County,35.981,-87.183
04834,Liberty Hill,Wilson County,36.043,-86.063
04837,Lick Skillet,Decatur County,35.491,-88.206
04858,Limestone,Greene County,36.228,-82.631
04964,Lone Mountain,Claiborne County,36.391,-83.585
05046,Lowland,Hamblen County,36.158,-83.208
05081,Lusk,Bledsoe County,35.501,-85.299
05112,Macedonia,White County,36.036,-85.531
05125,Macon,Fayette County,35.153,-89.490
05129,Maddox,Hardin County,35.161,-88.219
05260,Marlow,Anderson County,36.063,-84.243
05278,Martha,Wilson County,36.230,-86.427
05303,Masseyville,Chester County,35.294,-88.706
05389,McKinnon,Houston County,36.316,-87.907
05398,McNairy,McNairy County,35.312,-88.627
05424,Medford,Anderson County,36.181,-84.144
05503,Middle Fork,Henderson County,35.536,-88.487
05523,Midland,Rutherford County,35.670,-86.481
05528,Midway,Bedford County,35.429,-86.323
05528,Midway,Cannon County,35.658,-86.065
05528,Midway,Clay County,36.554,-85.609
05528,Midway,Cocke County,35.870,-83.031
05528,Midway,Crockett County,35.714,-88.999
05528,Midway,Cumberland County,35.830,-85.179
05528,Midway,DeKalb County,35.954,-85.755
05528,Midway,Dyer County,36.006,-89.689
05528,Midway,Franklin County,35.209,-85.883
05528,Midway,Greene County,36.177,-82.997
05528,Midway,Hawkins County,36.563,-82.873
05528,Midway,Henry County,36.284,-88.466
05528,Midway,Johnson County,36.414,-81.768
05528,Midway,Knox County,35.981,-83.694
05528,Midway,Morgan County,36.279,-84.657
05528,Midway,Obion County,36.386,-88.963
05528,Midway,Pickett County,36.500,-85.178
05528,Midway,Roane County,35.776,-84.552
05528,Midway,Warren County,35.801,-85.703
05529,Mifflin,Chester County,35.553,-88.580
05564,Millertown,Knox County,36.041,-83.844
05575,Milltown,Marshall County,35.584,-86.787
05583,Milton,Rutherford County,35.930,-86.182
05593,Mineral Springs,Marion County,35.090,-85.534
05593,Mineral Springs,Overton County,36.162,-85.225
05636,Mohawk,Greene County,36.200,-83.053
05658,Monroe,Overton County,36.437,-85.243
05678,Montezuma,Chester County,35.394,-88.694
05679,Montgomery,Scott County,36.326,-84.371
05706,Mooresville,Marshall County,35.440,-86.914
05734,Morley,Campbell County,36.551,-84.048
05759,Moss,Clay County,36.589,-85.617
05783,Mount Gilead,Henderson County,35.766,-88.540
05839,Mulberry,Lincoln County,35.211,-86.460
05881,Nameless,Jackson County,36.254,-85.711
05909,Nauvoo,Dyer County,36.094,-89.414
05991,New Harmony,Bledsoe County,35.546,-85.133
06011,New Middleton,Smith County,36.175,-86.006
06027,New River,Scott County,36.383,-84.549
06052,Newcomb,Campbell County,36.554,-84.166
06063,Newmansville,Greene County,36.279,-82.759
06096,Noah,Coffee County,35.573,-86.191
06214,Oak Grove,Hardin County,35.274,-88.230
06231,Oakfield,Madison County,35.720,-88.770
06240,Oakridge,Montgomery County,36.394,-87.458
06255,Ocoee,Polk County,35.124,-84.718
06265,Ogden,Rhea County,35.509,-85.101
06288,Old Glory,Blount County,35.776,-84.026
06293,Old Washington,Rhea County,35.534,-84.907
06297,Oldham,Sevier County,35.776,-83.482
06311,Olivet,Giles County,35.294,-87.027
06414,Ottway,Greene County,36.267,-82.867
06420,Overall,Rutherford County,35.810,-86.475
06441,Ozone,Cumberland County,35.882,-84.809
06475,Palmyra,Montgomery County,36.438,-87.486
06511,Parksville,Polk County,35.099,-84.651
06633,Perryville,Decatur County,35.621,-88.042
06635,Persia,Hawkins County,36.340,-83.003
06753,Pioneer,Campbell County,36.417,-84.314
06794,Pleasant Grove,Maury County,35.487,-86.986
06826,Pocahontas,Coffee County,35.637,-86.045
06882,Port Royal,Montgomery County,36.554,-87.142
06900,Post Oak,Benton County,36.072,-88.137
06900,Post Oak,Putnam County,36.217,-85.480
06916,Powder Springs,Grainger County,36.254,-83.670
06973,Prospect,Bradley County,35.177,-84.918
06973,Prospect,Giles County,35.029,-87.003
06980,Protemus,Obion County,36.403,-89.236
06983,Pruden,Claiborne County,36.586,-83.901
06991,Purdy,McNairy County,35.227,-88.531
07041,Reagan,Henderson County,35.522,-88.343
07041,Reagan,McMinn County,35.551,-84.514
07066,Randolph,Tipton County,35.516,-89.889
07104,Reagantown,Sevier County,35.841,-83.511
07128,Red Sulphur Springs,Hardin County,35.007,-88.237
07166,Reliance,Polk County,35.187,-84.499
07204,Rome,Smith County,36.262,-86.072
07210,Rich Creek,Marshall County,35.567,-86.700
07222,Richland,Grainger County,36.138,-83.665
07232,Riddleton,Houston County,36.321,-86.018
07316,Rock Island,Warren County,35.792,-85.613
07338,Rockvale,Rutherford County,35.757,-86.531
07370,Romeo,Greene County,36.291,-82.936
07456,Rugby,Morgan County,36.361,-84.700
07514,Saint Clair,Hawkins County,36.331,-83.087
07536,Salem,Rutherford County,35.809,-86.477
07612,Sandy Springs,Robertson County,36.448,-87.011
07625,Santa Fe,Maury County,35.735,-87.128
07700,Screamer,Maury County,35.444,-87.160
07758,Shady Grove,Coffee County,35.619,-85.985
07758,Shady Grove,Crockett County,35.818,-89.201
07758,Shady Grove,Franklin County,35.304,-85.989
07758,Shady Grove,Hamilton County,35.250,-85.101
07758,Shady Grove,Hardin County,35.396,-88.249
07758,Shady Grove,Hickman County,35.724,-87.279
07758,Shady Grove,Jackson County,36.251,-85.680
07758,Shady Grove,Jefferson County,35.978,-83.484
07758,Shady Grove,Knox County,35.822,-84.179
07758,Shady Grove,Lincoln County,35.104,-86.335
07758,Shady Grove,Montgomery County,36.464,-87.185
07758,Shady Grove,Morgan County,36.104,-84.675
07758,Shady Grove,Putnam County,36.190,-85.322
07758,Shady Grove,Sevier County,35.784,-83.462
07758,Shady Grove,Trousdale County,36.368,-86.138
07758,Shady Grove,White County,35.908,-85.577
07819,Shiloh,Hardin County,35.115,-88.362
07862,Silver Creek,Marshall County,35.502,-86.875
07913,Smartt,Warren County,35.640,-85.837
07964,Solway,Knox County,35.979,-84.182
08017,Southside,Hardin County,35.046,-88.352
08017,Southside,Montgomery County,36.371,-87.296
08034,Speedwell,Claiborne County,36.459,-83.872
08051,Spring Creek,Henry County,36.205,-88.213
08051,Spring Creek,Lawrence County,35.213,-87.447
08051,Spring Creek,Madison County,35.767,-88.677
08051,Spring Creek,McMinn County,35.418,-84.725
08051,Spring Creek,Perry County,35.654,-87.990
08051,Spring Creek,Warren County,35.564,-85.619
08073,Springville,Henry County,36.249,-88.153
08170,Static,Pickett County,36.622,-85.085
08194,Stewart,Houston County,36.321,-87.841
08272,Suck Creek,Marion County,35.181,-85.427
08292,Sulphur Springs,Washington County,36.348,-82.542
08301,Summitville,Coffee County,35.559,-85.993
08344,Sutherland,Johnson County,36.604,-81.810
08369,Swift,Hardin County,35.344,-88.141
08398,Talbott,Jefferson County,36.153,-83.415
08401,Tallassee,Blount County,35.547,-84.060
08433,Taylorsville,Wilson County,36.276,-86.200
08452,Ten Mile,Meigs County,35.666,-84.664
08541,Timothy,Overton County,36.442,-85.345
08549,Tipton,Tipton County,35.414,-89.820
08586,Topsy,Wayne County,35.426,-87.703
08640,Triune,Williamson County,35.854,-86.659
08685,Turnersville,Robertson County,36.488,-87.040
08795,Valley Forge,Carter County,36.306,-82.193
08808,Van Buren,Hardeman County,35.131,-89.075
08858,Verona,Marshall County,35.531,-86.770
08859,Versailles,Rutherford County,35.729,-86.541
08891,Vine,Wilson County,36.031,-86.358
08921,Waco,Giles County,35.376,-87.032
08958,Walkertown,Hardin County,35.185,-88.243
09005,Warrensburg,Greene County,36.127,-83.094
09031,Waterville,Bradley County,35.108,-84.864
09055,Wheel,Bedford County,35.489,-86.630
09184,Westport,Carroll County,35.896,-88.317
09230,White Oak,Campbell County,36.535,-84.034
09252,Whitesburg,Hamblen County,36.272,-83.140
09260,Whitfield,Hickman County,35.783,-87.619
09270,Witt,Hamblen County,36.150,-83.283
09289,Wilder,Fentress County,36.266,-85.091
09305,Williamsport,Maury County,35.687,-87.219
09354,Wynn,Campbell County,36.470,-84.052
09360,Winona,Putnam County,36.146,-85.457
09360,Winona,Scott County,36.377,-84.450
09417,Woodlawn,Montgomery County,36.542,-87.515
09433,Woodville,Chester County,35.261,-88.755
09438,Wooldridge,Campbell County,36.577,-84.184
09476,Yankeetown,White County,35.988,-85.423
09522,Zenith,Fentress County,36.428,-84.737