phoneme,name,county,latitude,longitude
06982,Provo,Utah County,40.234,-111.659
08101,St. George,Washington County,37.104,-113.584
07605,Sandy,Salt Lake County,40.592,-111.884
06265,Ogden,Weber County,41.223,-111.974
04738,Layton,Davis County,41.060,-111.971
04776,Lehi,Utah County,40.392,-111.851
05553,Millcreek,Salt Lake County,40.687,-111.875
08433,Taylorsville,Salt Lake County,40.668,-111.939
03719,Herriman,Salt Lake County,40.514,-112.033
04948,Logan,Cache County,41.735,-111.834
02437,Draper,Salt Lake County / Utah County,40.495,-111.861
05856,Murray,Salt Lake County,40.667,-111.888
00958,Bountiful,Davis County,40.889,-111.881
07288,Riverton,Salt Lake County,40.522,-111.939
07636,Saratoga Springs,Utah County,40.349,-111.905
07441,Roy,Weber County,41.162,-112.026
06794,Pleasant Grove,Utah County,40.364,-111.739
01478,Cedar City,Iron County,37.677,-113.062
08073,Springville,Utah County,40.165,-111.611
05527,Midvale,Salt Lake County,40.611,-111.900
08385,Syracuse,Davis County,41.089,-112.065
01718,Clearfield,Davis County,41.111,-112.026
03973,Holladay,Salt Lake County,40.669,-111.825
09014,Washington,Washington County,37.131,-113.508
02921,Farmington,Davis County,40.980,-111.887
01741,Clinton,Davis County,41.140,-112.050
06558,Payson,Utah County,40.044,-111.732
04101,Hurricane,Washington County,37.175,-113.290
09129,West Haven,Weber County,41.203,-112.051
03899,Highland,Utah County,40.450,-111.770
00900,Bluffdale,Salt Lake County / Utah County,40.475,-111.940
03813,Heber,Wasatch County,40.507,-111.413
01519,Centerville,Davis County,40.918,-111.872
07924,Smithfield,Cache County,41.838,-111.833
08894,Vineyard,Utah County,40.297,-111.747
03479,Grantsville,Tooele County,40.600,-112.464
05220,Mapleton,Utah County,40.130,-111.579
04872,Lindon,Utah County,40.343,-111.721
09150,West Point,Davis County,41.118,-112.084
06808,Pleasant View,Weber County,41.318,-111.992
00154,Alpine,Utah County,40.453,-111.778
08854,Vernal,Uintah County,40.456,-109.529
03953,Hyrum,Cache County,41.634,-111.852
01485,Cedar Hills,Utah County,40.414,-111.759
07536,Salem,Utah County,40.053,-111.674
07284,Riverdale,Weber County,41.177,-112.004
04016,Hooper,Weber County,41.164,-112.122
06981,Providence,Cache County,41.706,-111.817
06500,Park City,Summit County / Wasatch County,40.652,-111.502
06958,Price,Carbon County,39.599,-110.811
07219,Richfield,Sevier County,38.772,-112.084
06774,Plain City,Weber County,41.298,-112.086
02771,Enoch,Iron County,37.773,-113.024
07622,Santa Clara,Washington County,37.133,-113.654
03730,Harrisville,Weber County,41.281,-111.988
07377,Roosevelt,Duchesne County,40.299,-109.989
05528,Midway,Wasatch County,40.512,-111.474
07941,Snyderville,Summit County,40.694,-111.544
06628,Perry,Box Elder County,41.465,-112.032
02781,Ephraim,Sanpete County,39.360,-111.586
09218,White City,Salt Lake County,40.566,-111.864
08330,Sunset,Davis County,41.138,-112.028
04111,Hyde Park,Cache County,41.799,-111.819
05725,Morgan,Morgan County,41.036,-111.677
09093,Wellsville,Cache County,41.639,-111.934
05801,Mount Pleasant,Sanpete County,39.547,-111.455
02285,Delta,Millard County,39.352,-112.577
00585,Beaver,Beaver County,38.277,-112.641
03602,Gunnison,Sanpete County,39.155,-111.818
00842,Blanding,San Juan County,37.624,-109.478
07225,Richmond,Cache County,41.923,-111.814
02972,Fillmore,Millard County,38.969,-112.324
03242,Garland,Box Elder County,41.741,-112.162
05658,Monroe,Sevier County,38.630,-112.121
01502,Salina,Sevier County,38.958,-111.860
05576,Millville,Cache County,41.682,-111.823
05892,Naples,Uintah County,40.427,-109.499
01306,Kamas,Summit County,40.643,-111.281
02777,Enterprise,Washington County,37.574,-113.719
09387,Wolf Creek,Weber County,41.333,-111.827
09296,Willard,Box Elder County,41.409,-112.036
00688,Benson,Cache County,41.787,-111.930
04823,Lewiston,Cache County,41.976,-111.856
04095,Huntington,Emery County,39.327,-110.965
05643,Mona,Juab County,39.816,-111.855
05682,Monticello,San Juan County,37.871,-109.343
04011,Honeyville,Box Elder County,41.639,-112.079
03126,Francis,Summit County,40.611,-111.281
05741,Moroni,Sanpete County,39.525,-111.590
09087,Wellington,Carbon County,39.542,-110.735
03274,Genola,Utah County,39.996,-111.843
06237,Oakley,Summit County,40.715,-111.301
09413,Woodland Hills,Utah County,40.015,-111.649
01775,Coalville,Summit County,40.918,-111.399
05540,Milford,Beaver County,38.397,-113.011
02930,Ferron,Emery County,39.094,-111.133
07287,Riverside,Box Elder County,41.789,-112.149
09143,West Mountain,Utah County,40.061,-111.788
04831,Liberty,Weber County,41.334,-111.864
01514,Centerfield,Sanpete County,39.125,-111.819
05451,Mendon,Cache County,41.710,-111.978
02882,Fairview,Sanpete County,39.626,-111.440
03105,Fountain Green,Sanpete County,39.630,-111.635
06345,Orangeville,Emery County,39.227,-111.053
05201,Mantua,Box Elder County,41.496,-111.944
02735,Elwood,Box Elder County,41.690,-112.141
00439,Ballard,Uintah County,40.289,-109.943
09097,Wendover,Tooele County,40.737,-114.038
04622,Lake Shore,Utah County,40.122,-111.730
08476,Thatcher,Box Elder County,41.694,-112.294
08054,Spring Glen,Carbon County,39.659,-110.853
00681,Benjamin,Utah County,40.098,-111.731
00371,Aurora,Sevier County,38.922,-111.934
06493,Paradise,Cache County,41.569,-111.838
03419,Goshen,Utah County,39.953,-111.901
08050,Spring City,Sanpete County,39.482,-111.496
07350,Rocky Ridge,Juab County,39.925,-111.827
02186,Daniel,Wasatch County,40.471,-111.415
01520,Central,Washington County,37.417,-113.624
00245,Apple Valley,Washington County,37.090,-113.124
05595,Minersville,Beaver County,38.214,-112.924
04767,Leeds,Washington County,37.239,-113.359
04811,Levan,Juab County,39.559,-111.862
03524,Green River,Emery County,38.995,-110.162
01941,Corinne,Box Elder County,41.551,-112.110
02604,Eden,Weber County,41.300,-111.812
02777,Enterprise,Morgan County,41.100,-111.736
06068,Newton,Cache County,41.863,-111.991
07103,Redmond,Sevier County,39.006,-111.862
01696,Clarkston,Cache County,41.920,-112.050
03471,Granite,Salt Lake County,40.576,-111.791
06313,Oljato-Monument Valley,San Juan County,37.031,-110.251
02827,Eureka,Juab County,39.954,-112.120
03233,Garden City,Rich County,41.937,-111.412
08213,Stockton,Tooele County,40.453,-112.361
03942,Hinckley,Millard County,39.325,-112.671
06210,Oak City,Millard County,39.375,-112.335
04098,Huntsville,Weber County,41.261,-111.770
05334,Mayfield,Sanpete County,39.114,-111.711
02964,Fielding,Box Elder County,41.815,-112.116
08065,Springdale,Washington County,37.189,-112.999
01669,Circleville,Piute County,38.172,-112.270
05248,Marion,Summit County,40.677,-111.281
04926,Loa,Wayne County,38.403,-111.643
08624,Trenton,Cache County,41.918,-111.942
01732,Cleveland,Emery County,39.349,-110.852
07066,Randolph,Rich County,41.666,-111.182
06475,Palmyra,Utah County,40.140,-111.699
08057,Spring Lake,Utah County,40.001,-111.746
03367,Glenwood,Sevier County,38.763,-111.990
01113,Brookside,Washington County,37.360,-113.661
01998,Cove,Cache County,41.964,-111.806
03971,Holden,Millard County,39.099,-112.271
01567,Charleston,Wasatch County,40.466,-111.470
02320,Deweyville,Box Elder County,41.710,-112.090
05933,Neola,Duchesne County,40.433,-110.030
06824,Plymouth,Box Elder County,41.875,-112.144
02721,Elmo,Emery County,39.390,-110.815
00386,Avon,Cache County,41.533,-111.813
07679,Scipio,Millard County,39.245,-112.104
06729,Pine Valley,Washington County,37.391,-113.514
08952,Wales,Sanpete County,39.487,-111.635
02657,Elberta,Utah County,39.956,-111.957
00744,Bicknell,Wayne County,38.341,-111.544
05408,Meadow,Millard County,38.886,-112.410
05181,Manila,Daggett County,40.988,-109.723
04640,Laketown,Rich County,41.825,-111.322
02746,Emery,Emery County,38.923,-111.249
03352,Glendale,Kane County,37.318,-112.597
08969,Wallsburg,Wasatch County,40.388,-111.422
08842,Veyo,Washington County,37.338,-113.693
04321,Joseph,Sevier County,38.626,-112.217
06885,Portage,Box Elder County,41.975,-112.207
08187,Sterling,Sanpete County,39.194,-111.692
08856,Vernon,Tooele County,40.092,-112.434
01953,Cornish,Cache County,41.975,-111.953
09411,Woodland,Summit County,40.581,-111.227
04748,Leamington,Millard County,39.535,-112.284
02938,Fayette,Sanpete County,39.225,-111.857
06051,Newcastle,Iron County,37.667,-113.549
00896,Bluff,San Juan County,37.284,-109.552
05991,New Harmony,Washington County,37.479,-113.310
08595,Torrey,Wayne County,38.299,-111.419
08299,Summit,Iron County,37.801,-112.936
00161,Altamont,Duchesne County,40.359,-110.286
04057,Howell,Box Elder County,41.796,-112.444
00955,Boulder,Garfield County,37.923,-111.432
07340,Rockville,Washington County,37.161,-113.038
04336,Junction,Piute County,38.237,-112.220
00158,Alta,Salt Lake County,40.589,-111.638
05093,Lyman,Wayne County,38.397,-111.590
01609,Chester,Sanpete County,39.476,-111.563
04180,Interlaken,Wasatch County,40.542,-111.473
09426,Woodruff,Rich County,41.522,-111.162
03231,Garden,Rich County,41.874,-111.417
01702,Clawson,Emery County,39.133,-111.097
07949,Snowville,Box Elder County,41.965,-112.710
03676,Hanksville,Wayne County,38.373,-110.714
02870,Fairfield,Utah County,40.262,-112.093
08344,Sutherland,Millard County,39.389,-112.634
04474,Kingston,Piute County,38.208,-112.188
03759,Hatch,Garfield County,37.650,-112.434
04130,Independence,Wasatch County,40.303,-111.257
00165,Alton,Kane County,37.438,-112.483
08439,Teasdale,Wayne County,38.286,-111.477
01269,Cache,Cache County,41.829,-112.006
03159,Fremont,Wayne County,38.457,-111.620
04392,Kenilworth,Carbon County,39.688,-110.806
02599,Echo,Summit County,40.978,-111.443
06336,Ophir,Tooele County,40.369,-112.259
07065,Randlett,Uintah County,40.233,-109.808
08315,Sundance,Utah County,40.393,-111.582
01712,Clear Creek,Carbon County,39.646,-111.152
06245,Oasis,Millard County,39.294,-112.628
07682,Scofield,Carbon County,39.724,-111.161
05699,Moore,Emery County,38.969,-111.159
00034,Adamsville,Beaver County,38.258,-112.794
00373,Austin,Sevier County,38.672,-112.122
00390,Axtell,Sanpete County,39.055,-111.822
00588,Beaver Dam,Box Elder County,41.809,-112.059
00725,Beryl,Iron County,37.896,-113.661
00783,Birdseye,Utah County,39.924,-111.550
00811,Black Rock,Millard County,38.708,-112.958
00930,Bonanza,Uintah County,40.021,-109.177
00949,Border,Millard County,39.351,-112.579
01069,Brighton,Salt Lake County,40.604,-111.582
01209,Burbank,Millard County,38.779,-114.043
01296,Callao,Juab County,39.898,-113.709
01507,Center Creek,Wasatch County,40.478,-111.357
01829,Collinston,Box Elder County,41.775,-112.095
02101,Croydon,Morgan County,41.069,-111.514
02580,Eastland,San Juan County,37.804,-109.134
02799,EskDale,Millard County,39.107,-113.953
02934,Faust,Tooele County,40.184,-112.392
03151,Freedom,Sanpete County,39.542,-111.649
03186,Fruitland,Duchesne County,40.213,-110.840
03223,Gandy,Millard County,39.450,-113.983
03247,Garrison,Millard County,38.934,-114.033
03548,Greenville,Beaver County,38.254,-112.713
03551,Greenwich,Piute County,38.431,-111.923
03583,Grover,Wayne County,38.228,-111.350
03601,Gunlock,Washington County,37.286,-113.763
03670,Hanna,Duchesne County,40.404,-110.765
04152,Indianola,Sanpete County,39.803,-111.489
04731,Lawrence,Emery County,39.296,-110.929
04881,Lynn,Box Elder County,41.873,-113.745
05076,Lund,Iron County,38.008,-113.432
05535,Milburn,Sanpete County,39.704,-111.425
05572,Mills,Juab County,39.483,-112.028
05631,Modena,Iron County,37.799,-113.924
05819,Mountain Home,Duchesne County,40.399,-110.389
06416,Ouray,Uintah County,40.089,-109.677
06613,Penrose,Box Elder County,41.651,-112.302
06643,Peterson,Morgan County,41.118,-111.768
06714,Pine Canyon,Tooele County,40.563,-112.257
06752,Pinto,Washington County,37.538,-113.517
06890,Porterville,Morgan County,40.981,-111.678
07405,Rosette,Box Elder County,41.819,-113.413
08251,Strawberry,Duchesne County,40.155,-110.576
08404,Talmage,Duchesne County,40.340,-110.427
08419,Terra,Tooele County,40.321,-112.627
08429,Taylor,Weber County,41.227,-112.084
08498,Thompsonville,Piute County,38.417,-112.217
08646,Trout Creek,Juab County,39.802,-113.827
08768,Upton,Summit County,40.964,-111.236
08839,Venice,Sevier County,38.800,-112.006
09003,Warren,Weber County,41.284,-112.122
09425,Woodrow,Millard County,39.433,-112.633