phoneme,name,county,latitude,longitude
3258,Milwaukee,Milwaukee County,43.063,-87.967
4093,Racine,Racine County,42.726,-87.783
0149,Appleton,Calumet County,44.279,-88.388
1472,Eau Claire,Chippewa County,44.820,-91.495
3715,Oshkosh,Winnebago County,44.025,-88.543
2475,Janesville,Rock County,42.683,-89.019
2645,La Crosse,La Crosse County,43.801,-91.240
3469,New Berlin,Waukesha County,42.976,-88.108
5247,Wausau,Marathon County,44.959,-89.630
2051,Greenfield,Milwaukee County,42.961,-88.013
1804,Franklin,Milwaukee County,42.889,-88.038
3609,Oak Creek,Milwaukee County,42.886,-87.863
4835,Sun Prairie,Dane County,43.184,-89.214
1721,Fitchburg,Dane County,42.961,-89.470
3386,Mount Pleasant,Racine County,42.697,-87.856
0720,Caledonia,Racine County,42.808,-87.924
5240,Watertown,Dodge County,43.189,-88.729
2367,Howard,Brown County,44.569,-88.072
3073,Marshfield,Marathon County,44.663,-90.172
1211,Cudahy,Milwaukee County,42.960,-87.861
4234,River Falls,Pierce County,44.861,-92.624
0359,Bellevue,Brown County,44.444,-87.920
2170,Hartford,Dodge County,43.322,-88.378
5368,Whitefish Bay,Milwaukee County,43.113,-87.900
2050,Greendale,Milwaukee County,42.941,-87.996
5377,Whitewater,Jefferson County,42.837,-88.734
0083,Allouez,Brown County,44.477,-88.016
4560,Shorewood,Milwaukee County,43.089,-87.888
2163,Harrison,Calumet County,44.192,-88.294
1943,Glendale,Milwaukee County,43.135,-87.936
4790,Stoughton,Dane County,42.917,-89.218
1769,Fort Atkinson,Jefferson County,42.929,-88.837
2060,Greenville,Outagamie County,44.300,-88.536
4197,Richfield,Washington County,43.256,-88.194
4854,Sussex,Waukesha County,43.134,-88.222
0688,Burlington,Racine County,42.675,-88.272
2848,Lisbon,Waukesha County,43.158,-88.250
2305,Hobart,Brown County,44.499,-88.150
3507,New Richmond,St. Croix County,45.123,-92.537
1540,Elkhorn,Walworth County,42.673,-88.545
4006,Portage,Columbia County,43.539,-89.463
4655,Sparta,Monroe County,43.944,-90.813
2172,Hartland,Waukesha County,43.105,-88.342
4697,St. Francis,Milwaukee County,42.968,-87.878
3193,Merrill,Lincoln County,45.181,-89.683
3132,McFarland,Dane County,43.013,-89.290
4191,Rice Lake,Barron County,45.506,-91.738
5433,Windsor,Dane County,43.218,-89.342
3969,Plymouth,Sheboygan County,43.749,-87.977
0099,Altoona,Eau Claire County,44.805,-91.443
3295,Monona,Dane County,43.062,-89.334
2377,Hudson,St. Croix County,44.983,-92.674
3407,Mukwonago,Walworth County,42.853,-88.321
4622,Somers,Kenosha County,42.640,-87.910
0187,Ashland,Ashland County,46.582,-90.872
3599,Norway,Racine County,42.797,-88.123
0372,Beloit,Rock County,42.553,-89.073
4230,Ripon,Fond du Lac County,43.842,-88.836
3407,Mukwonago,Waukesha County,42.890,-88.373
2482,Jefferson,Jefferson County,43.006,-88.807
5230,Washington,Eau Claire County,44.742,-91.401
2001,Grand Rapids,Wood County,44.379,-89.754
5130,Vernon,Waukesha County,42.904,-88.252
2592,Kimberly,Outagamie County,44.272,-88.339
1136,Cottage Grove,Dane County,43.076,-89.200
3498,New London,Outagamie County,44.396,-88.739
2464,Jackson,Washington County,43.324,-88.167
1890,Genesee,Waukesha County,42.953,-88.359
0065,Algoma,Winnebago County,44.023,-88.624
0654,Buchanan,Outagamie County,44.269,-88.237
3214,Middleton,Dane County,43.078,-89.570
1557,Elm Grove,Waukesha County,43.043,-88.079
5237,Waterford,Racine County,42.794,-88.250
2760,Lawrence,Brown County,44.399,-88.143
0618,Brookfield,Waukesha County,43.038,-88.172
2692,Lake Mills,Jefferson County,43.081,-88.912
5046,Twin Lakes,Kenosha County,42.531,-88.248
2671,Lafayette,Chippewa County,44.908,-91.295
2988,Madison,Dane County,43.041,-89.391
1816,Freedom,Outagamie County,44.386,-88.289
1485,Edgerton,Dane County,42.839,-89.070
3675,Onalaska,La Crosse County,43.935,-91.267
1633,Evansville,Rock County,42.780,-89.299
3257,Milton,Rock County,42.776,-88.944
0397,Berlin,Green Lake County,43.970,-88.950
5019,Troy,St. Croix County,44.905,-92.682
1081,Columbus,Columbia County,43.337,-89.030
1892,Geneva,Walworth County,42.630,-88.482
2382,Hull,Portage County,44.565,-89.559
5312,West Salem,La Crosse County,43.899,-91.081
0603,Bristol,Kenosha County,42.559,-88.049
3112,Mayville,Dodge County,43.494,-88.545
4455,Saratoga,Wood County,44.296,-89.803
4830,Summit,Waukesha County,43.046,-88.477
5069,Union Grove,Racine County,42.688,-88.051
1419,Dunn,Dane County,42.974,-89.313
0480,Bloomfield,Walworth County,42.549,-88.352
4538,Shelby,La Crosse County,43.769,-91.161
3639,Oconto,Oconto County,44.887,-87.865
5006,Trenton,Washington County,43.400,-88.095
1014,Clintonville,Waupaca County,44.621,-88.762
2317,Holland,La Crosse County,44.016,-91.315
5290,West Bend,Washington County,43.391,-88.233
0603,Bristol,Dane County,43.244,-89.175
0307,Bayside,Milwaukee County,43.183,-87.902
1991,Grafton,Ozaukee County,43.352,-87.946
4045,Prescott,Pierce County,44.749,-92.802
4623,Somerset,St. Croix County,45.145,-92.703
0994,Clayton,Winnebago County,44.201,-88.582
1377,Dover,Racine County,42.720,-88.121
3161,Medford,Taylor County,45.139,-90.340
3183,Menominee,Menominee County,44.991,-88.669
0249,Baldwin,St. Croix County,44.967,-92.374
4707,St. Joseph,St. Croix County,45.047,-92.691
0744,Campbell,La Crosse County,43.886,-91.295
5336,Westport,Dane County,43.167,-89.428
4201,Richmond,St. Croix County,45.071,-92.569
1192,Cross Plains,Dane County,43.114,-89.656
0329,Beaver Dam,Dodge County,43.445,-88.814
3678,Oneida,Outagamie County,44.499,-88.183
0944,Chilton,Calumet County,44.029,-88.163
3980,Polk,Washington County,43.350,-88.211
2588,Kiel,Calumet County,43.916,-88.026
4816,Sugar Creek,Walworth County,42.717,-88.606
4065,Pulaski,Brown County,44.668,-88.234
4130,Raymond,Racine County,42.801,-88.013
2723,Lancaster,Grant County,42.847,-90.711
3575,North Hudson,St. Croix County,44.993,-92.757
1607,Erin,Washington County,43.242,-88.352
3959,Pleasant Valley,Eau Claire County,44.662,-91.468
3069,Marshall,Dane County,43.168,-89.067
2356,Horicon,Dodge County,43.451,-88.631
2208,Hayward,Sawyer County,45.990,-91.406
4737,Stanley,Chippewa County,44.959,-90.944
4256,Rochester,Racine County,42.741,-88.224
2636,Koshkonong,Jefferson County,42.846,-88.919
2971,Lyons,Walworth County,42.628,-88.363
0158,Arcadia,Trempealeau County,44.253,-91.502
1683,Farmington,Waupaca County,44.375,-89.174
0862,Center,Outagamie County,44.376,-88.440
4482,Scott,Brown County,44.587,-87.895
3728,Ottawa,Waukesha County,42.976,-88.450
1683,Farmington,Washington County,43.505,-88.106
1844,Fulton,Rock County,42.808,-89.127
4760,Stephenson,Marinette County,45.242,-88.136
4522,Seymour,Outagamie County,44.515,-88.330
1434,Eagle,Waukesha County,42.893,-88.486
5427,Wilson,Sheboygan County,43.673,-87.760
0019,Addison,Washington County,43.413,-88.341
5345,Wheatland,Kenosha County,42.583,-88.247
4522,Seymour,Eau Claire County,44.830,-91.342
1555,Ellsworth,Pierce County,44.732,-92.487
4115,Randall,Kenosha County,42.543,-88.215
2875,Lodi,Columbia County,43.339,-89.535
0682,Burke,Dane County,43.136,-89.276
0613,Brodhead,Green County,42.617,-89.376
5533,Yorkville,Racine County,42.742,-88.027
1550,Ellington,Outagamie County,44.373,-88.551
5510,Wrightstown,Brown County,44.327,-88.176
4550,Sherwood,Calumet County,44.174,-88.260
0065,Algoma,Kewaunee County,44.609,-87.433
3626,Oakland,Jefferson County,42.985,-88.947
2670,Ladysmith,Rusk County,45.463,-91.104
3695,Oregon,Dane County,42.902,-89.424
2361,Hortonville,Outagamie County,44.335,-88.638
3713,Osceola,Polk County,45.342,-92.621
1439,Eagle Point,Chippewa County,45.032,-91.396
4257,Rock,Rock County,42.627,-89.083
0051,Alden,Polk County,45.253,-92.509
2821,Lima,Sheboygan County,43.669,-87.867
4678,Springfield,Dane County,43.162,-89.546
4779,Stockton,Portage County,44.511,-89.467
5193,Wales,Waukesha County,43.004,-88.377
4513,Sevastopol,Door County,44.930,-87.173
3835,Pelican,Oneida County,45.593,-89.338
0290,Bass Lake,Sawyer County,45.936,-91.451
5346,Wheaton,Chippewa County,44.908,-91.558
3751,Pacific,Columbia County,43.512,-89.405
1586,Empire,Fond du Lac County,43.752,-88.339
5212,Walworth,Walworth County,42.531,-88.600
1830,Friendship,Fond du Lac County,43.852,-88.468
0283,Barton,Washington County,43.462,-88.231
3907,Pine Lake,Oneida County,45.687,-89.400
2842,Linn,Walworth County,42.533,-88.487
4188,Rome,Adams County,44.221,-89.808
2826,Lincoln,Vilas County,45.907,-89.246
2959,Luxemburg,Kewaunee County,44.539,-87.704
1798,Fox Lake,Dodge County,43.596,-88.935
2530,Juneau,Dodge County,43.406,-88.705
5065,Union,Eau Claire County,44.843,-91.549
2127,Hammond,St. Croix County,44.997,-92.445
1271,Dayton,Waupaca County,44.281,-89.164
5510,Wrightstown,Brown County,44.331,-88.096
3935,Pittsfield,Brown County,44.599,-88.245
2999,Maine,Marathon County,45.027,-89.690
4737,Stanley,Barron County,45.430,-91.725
0612,Brockway,Jackson County,44.285,-90.840
2153,Harmony,Rock County,42.714,-88.943
0358,Belleville,Dane County,42.864,-89.540
1292,Deerfield,Dane County,43.052,-89.076
1308,Delton,Sauk County,43.565,-89.795
2650,La Grange,Walworth County,42.800,-88.602
0344,Belgium,Ozaukee County,43.500,-87.850
2124,Hamilton,La Crosse County,43.943,-91.100
1312,Denmark,Brown County,44.348,-87.827
0455,Black Wolf,Winnebago County,43.940,-88.479
0557,Bradley,Lincoln County,45.539,-89.755
0213,Auburn,Fond du Lac County,43.594,-88.220
1086,Como,Walworth County,42.612,-88.482
3611,Oak Grove,Pierce County,44.729,-92.681
5019,Troy,Walworth County,42.779,-88.445
5319,Westby,Vernon County,43.657,-90.854
0003,Abbotsford,Clark County,44.943,-90.317
1814,Fredonia,Ozaukee County,43.471,-87.951
2317,Holland,Sheboygan County,43.591,-87.854
3535,Newton,Manitowoc County,43.994,-87.726
0588,Bridge Creek,Eau Claire County,44.714,-91.049
2474,Jamestown,Grant County,42.555,-90.595
1010,Clifton,Pierce County,44.817,-92.723
2633,Kohler,Sheboygan County,43.739,-87.782
2035,Green Bay,Brown County,44.600,-87.796
2051,Greenfield,La Crosse County,43.769,-91.081
5252,Wayne,Washington County,43.514,-88.321
4185,Rhine,Sheboygan County,43.858,-87.973
1683,Farmington,La Crosse County,44.036,-91.063
2826,Lincoln,Polk County,45.338,-92.351
4529,Sharon,Portage County,44.627,-89.412
0850,Cedar Grove,Sheboygan County,43.570,-87.823
2244,Herman,Sheboygan County,43.855,-87.863
0905,Chase,Oconto County,44.718,-88.157
2671,Lafayette,Walworth County,42.714,-88.481
0139,Anson,Chippewa County,44.981,-91.287
1090,Concord,Jefferson County,43.069,-88.599
3056,Marion,Waushara County,44.025,-89.175
1414,Dunkirk,Dane County,42.881,-89.210
4676,Springdale,Dane County,42.976,-89.652
5311,West Point,Columbia County,43.325,-89.654
1169,Crescent,Oneida County,45.602,-89.483
4251,Roberts,St. Croix County,44.984,-92.556
2638,Kossuth,Manitowoc County,44.191,-87.735
0646,Brunswick,Eau Claire County,44.721,-91.587
4360,Rutland,Dane County,42.879,-89.350
3144,McMillan,Marathon County,44.742,-90.163
5230,Washington,Shawano County,44.785,-88.397
5132,Verona,Dane County,42.968,-89.587
1049,Colby,Clark County,44.911,-90.316
2650,La Grange,Monroe County,44.038,-90.478
1683,Farmington,Polk County,45.260,-92.685
4472,Schleswig,Manitowoc County,43.941,-87.974
0746,Campbellsport,Fond du Lac County,43.598,-88.279
4201,Richmond,Walworth County,42.715,-88.749
0739,Cameron,Barron County,45.409,-91.744
0354,Belle Plaine,Shawano County,44.715,-88.666
5065,Union,Rock County,42.824,-89.302
3713,Osceola,Fond du Lac County,43.681,-88.217
2048,Greenbush,Sheboygan County,43.777,-88.101
2013,Grant,Portage County,44.329,-89.658
2609,Kinnickinnic,St. Croix County,44.909,-92.552
0049,Albion,Dane County,42.879,-89.070
4201,Richmond,Shawano County,44.808,-88.679
0621,Brooklyn,Green Lake County,43.858,-88.963
4658,Spencer,Marathon County,44.758,-90.297
0128,Angelica,Shawano County,44.725,-88.305
0666,Buena Vista,Richland County,43.238,-90.246
3277,Mitchell,Sheboygan County,43.670,-88.105
1670,Fall River,Columbia County,43.384,-89.045
3719,Osseo,Trempealeau County,44.572,-91.227
4117,Randolph,Columbia County,43.539,-89.003
4271,Rockland,Brown County,44.376,-88.060
0186,Ashford,Fond du Lac County,43.587,-88.371
0014,Adams,Adams County,43.956,-89.818
0700,Butler,Waukesha County,43.106,-88.070
1629,Eureka,Polk County,45.518,-92.609
1870,Garfield,Polk County,45.348,-92.488
5219,Warren,St. Croix County,45.000,-92.568
5156,Vinland,Winnebago County,44.121,-88.554
4482,Scott,Sheboygan County,43.591,-88.105
2374,Hubbard,Dodge County,43.413,-88.579
3497,New Lisbon,Juneau County,43.879,-90.165
2078,Grover,Marinette County,45.056,-87.860
5006,Trenton,Pierce County,44.604,-92.565
1847,Gale,Trempealeau County,44.104,-91.295
1902,Germantown,Juneau County,43.912,-90.029
5500,Worcester,Price County,45.604,-90.292
0720,Caledonia,Waupaca County,44.294,-88.787
4336,Roxbury,Dane County,43.249,-89.675
3771,Palmyra,Jefferson County,42.878,-88.586
2848,Lisbon,Juneau County,43.856,-90.132
1282,Decatur,Green County,42.644,-89.428
2595,King,Waupaca County,44.337,-89.142
1470,Eaton,Brown County,44.437,-87.821
5050,Two Rivers,Manitowoc County,44.193,-87.577
1440,Eagle River,Vilas County,45.917,-89.244
5143,Vienna,Dane County,43.248,-89.429
1258,Darien,Walworth County,42.623,-88.722
1853,Galesville,Trempealeau County,44.082,-91.349
0737,Cambridge,Dane County,43.007,-89.021
5369,Whitehall,Trempealeau County,44.367,-91.317
5230,Washington,Vilas County,45.942,-89.136
4350,Rushford,Winnebago County,44.019,-88.814
0481,Blooming Grove,Dane County,43.033,-89.316
0833,Cato,Manitowoc County,44.143,-87.861
2772,Lebanon,Waupaca County,44.459,-88.787
4926,Texas,Marathon County,45.072,-89.557
1641,Excelsior,Sauk County,43.520,-89.879
2826,Lincoln,Wood County,44.641,-90.255
3353,Morrison,Brown County,44.299,-87.989
1007,Cleveland,Manitowoc County,43.915,-87.747
5380,Whiting,Portage County,44.494,-89.559
2772,Lebanon,Dodge County,43.233,-88.594
4197,Richfield,Wood County,44.548,-90.132
4354,Russell,Bayfield County,46.947,-90.847
3521,Newark,Rock County,42.542,-89.228
2834,Lind,Waupaca County,44.285,-89.044
4797,Stratford,Marathon County,44.801,-90.079
2792,Leon,Waushara County,44.115,-89.079
2394,Hurley,Iron County,46.450,-90.187
2317,Holland,Brown County,44.274,-88.099
3965,Plover,Portage County,44.434,-89.584
4005,Port Washington,Ozaukee County,43.427,-87.880
0442,Byron,Fond du Lac County,43.652,-88.451
0218,Augusta,Eau Claire County,44.680,-91.120
4053,Princeton,Green Lake County,43.826,-89.114
3951,Platteville,Grant County,42.704,-90.515
2722,Lanark,Portage County,44.382,-89.278
2836,Lyndon,Sheboygan County,43.678,-87.974
4339,Royalton,Waupaca County,44.413,-88.863
0621,Brooklyn,Dane County,42.850,-89.376
3876,Phillips,Price County,45.697,-90.400
2851,Little Falls,Monroe County,44.098,-90.877
2836,Lyndon,Juneau County,43.669,-89.872
0720,Caledonia,Columbia County,43.471,-89.548
0423,Big Bend,Waukesha County,42.881,-88.207
4958,Tilden,Chippewa County,45.007,-91.438
1007,Cleveland,Marathon County,44.823,-90.019
1419,Dunn,Dunn County,44.744,-91.911
2410,Independence,Trempealeau County,44.357,-91.420
4771,Stiles,Oconto County,44.861,-88.048
1121,Cornell,Chippewa County,45.167,-91.149
4548,Sherman,Sheboygan County,43.588,-87.982
1482,Edgar,Marathon County,44.927,-89.963
5377,Whitewater,Walworth County,42.776,-88.733
0450,Black Brook,Polk County,45.254,-92.332
1523,Eldorado,Fond du Lac County,43.825,-88.622
3160,Medary,La Crosse County,43.855,-91.209
3307,Montello,Marquette County,43.791,-89.320
1669,Fall Creek,Eau Claire County,44.764,-91.277
0597,Brighton,Kenosha County,42.629,-88.100
0667,Buffalo,Marquette County,43.686,-89.328
0729,Calumet,Fond du Lac County,43.911,-88.291
1012,Clinton,Vernon County,43.686,-90.741
1106,Cooperstown,Manitowoc County,44.313,-87.774
4047,Preston,Adams County,44.019,-89.790
4673,Spring Valley,Pierce County,44.852,-92.243
4482,Scott,Lincoln County,45.157,-89.728
5494,Woodville,St. Croix County,44.953,-92.291
0114,Amherst,Portage County,44.462,-89.296
3785,Paris,Kenosha County,42.634,-88.051
0014,Adams,Jackson County,44.354,-90.830
3552,Nokomis,Oneida County,45.606,-89.732
1683,Farmington,Jefferson County,43.076,-88.672
4148,Red River,Kewaunee County,44.645,-87.676
2752,Lauderdale Lakes,Walworth County,42.772,-88.581
0572,Brazeau,Oconto County,45.116,-88.209
0799,Carson,Portage County,44.549,-89.737
3316,Montpelier,Kewaunee County,44.459,-87.707
0394,Bergen,Vernon County,43.663,-91.201
0451,Black Creek,Outagamie County,44.477,-88.451
5085,Utica,Winnebago County,43.937,-88.704
1569,Elroy,Juneau County,43.741,-90.272
3163,Medina,Dane County,43.156,-89.064
4420,Sanborn,Ashland County,46.433,-90.909
0271,Barneveld,Iowa County,43.016,-89.895
1910,Gibson,Manitowoc County,44.282,-87.707
4684,Springville,Vernon County,43.584,-90.940
2383,Humboldt,Brown County,44.502,-87.826
3056,Marion,Shawano County,44.677,-88.902
4029,Powers Lake,Kenosha County,42.554,-88.295
1585,Emmet,Dodge County,43.238,-88.712
1821,Fremont,Clark County,44.646,-90.368
0466,Blair,Trempealeau County,44.294,-91.235
4684,Springville,Adams County,43.778,-89.788
5324,Westford,Dodge County,43.498,-88.941
4722,St. Peter,Fond du Lac County,43.836,-88.341
1921,Gillett,Oconto County,44.890,-88.307
2821,Lima,Rock County,42.799,-88.841
4685,Springwater,Waushara County,44.200,-89.197
2741,Larrabee,Waupaca County,44.636,-88.806
3296,Monroe,Green County,42.643,-89.662
2482,Jefferson,Vernon County,43.583,-90.975
1473,Eau Galle,St. Croix County,44.899,-92.308
1642,Exeter,Green County,42.791,-89.583
0275,Barre,La Crosse County,43.842,-91.083
1804,Franklin,Manitowoc County,44.195,-87.868
2813,Liberty,Manitowoc County,44.018,-87.863
1909,Gibraltar,Door County,45.166,-87.269
4936,Theresa,Dodge County,43.517,-88.451
3969,Plymouth,Rock County,42.620,-89.184
1869,Gardner,Door County,44.850,-87.580
3792,Parkland,Douglas County,46.648,-91.998
0442,Byron,Monroe County,44.027,-90.374
1061,Colfax,Dunn County,44.988,-91.708
0953,Christiana,Dane County,42.972,-89.091
5006,Trenton,Dodge County,43.571,-88.839
3711,Osborn,Outagamie County,44.452,-88.342
1636,Evergreen,Washburn County,45.851,-91.975
5462,Wolf River,Winnebago County,44.187,-88.828
0049,Albion,Jackson County,44.288,-90.968
4161,Reedsville,Manitowoc County,44.154,-87.957
0044,Albany,Green County,42.727,-89.421
2678,Lake,Marinette County,45.201,-87.887
2805,Lewiston,Columbia County,43.581,-89.636
3314,Monticello,Green County,42.746,-89.595
0221,Aurora,Florence County,45.786,-88.101
3626,Oakland,Douglas County,46.495,-91.990
4160,Reid,Marathon County,44.810,-89.419
2212,Hazel Green,Grant County,42.534,-90.436
3913,Pine Valley,Clark County,44.556,-90.623
4087,Quincy,Adams County,43.889,-89.915
2482,Jefferson,Green County,42.553,-89.538
0536,Bovina,Outagamie County,44.458,-88.552
1238,Dakota,Waushara County,44.032,-89.317
0275,Berry,Dane County,43.157,-89.659
2464,Jackson,Adams County,43.781,-89.652
4199,Richland,Richland County,43.336,-90.368
4567,Sigel,Chippewa County,44.903,-91.172
1464,Easton,Marathon County,44.991,-89.423
0666,Buena Vista,Portage County,44.371,-89.459
2826,Lincoln,Eau Claire County,44.736,-91.262
1096,Conover,Vilas County,46.055,-89.258
3522,Newburg,Ozaukee County,43.432,-88.048
0649,Brussels,Door County,44.736,-87.621
1949,Glenmore,Brown County,44.386,-87.927
3318,Montrose,Dane County,42.883,-89.577
2826,Lincoln,Forest County,45.550,-88.863
1464,Easton,Adams County,43.838,-89.807
2244,Herman,Dodge County,43.407,-88.470
3611,Oak Grove,Dodge County,43.386,-88.746
4173,Rio,Columbia County,43.448,-89.240
1811,Frederic,Polk County,45.659,-92.467
0327,Beaver,Marinette County,45.138,-88.018
1804,Franklin,Vernon County,43.481,-90.892
3073,Marshfield,Fond du Lac County,43.843,-88.232
0621,Brooklyn,Green County,42.808,-89.432
2062,Greenwood,Clark County,44.770,-90.599
2797,LeRoy,Dodge County,43.573,-88.561
2678,Lake,Price County,45.920,-90.563
2852,Little River,Oconto County,44.967,-87.895
4327,Round Lake,Sawyer County,46.046,-91.115
4010,Portland,Dodge County,43.199,-88.975
3227,Milford,Jefferson County,43.101,-88.847
0961,Cicero,Outagamie County,44.544,-88.446
3384,Mount Morris,Waushara County,44.114,-89.191
1019,Cloverland,Vilas County,45.943,-89.365
0397,Berlin,Green Lake County,43.936,-88.937
1500,Edson,Chippewa County,44.930,-91.035
0853,Cedar Lake,Barron County,45.594,-91.598
1651,Fairfield,Sauk County,43.535,-89.646
0985,Clarno,Green County,42.546,-89.655
0480,Bloomfield,Waushara County,44.205,-88.944
3075,Martell,Pierce County,44.830,-92.398
2846,Linwood,Portage County,44.488,-89.665
0197,Athens,Marathon County,45.033,-90.074
2682,Lake Camelot,Adams County,44.213,-89.763
3438,Nashville,Forest County,45.523,-89.025
1474,Eau Pleine,Portage County,44.655,-89.750
4833,Sumpter,Sauk County,43.367,-89.784
0096,Alto,Fond du Lac County,43.677,-88.795
1270,Day,Marathon County,44.722,-90.012
1898,Georgetown,Polk County,45.514,-92.335
0862,Center,Rock County,42.709,-89.180
2202,Hawthorne,Douglas County,46.503,-91.861
0994,Clayton,Crawford County,43.360,-90.746
5038,Turtle Lake,Barron County,45.391,-92.150
4830,Summit,Douglas County,46.426,-92.175
1438,Eagle Lake,Racine County,42.707,-88.128
2710,Laketown,Polk County,45.592,-92.600
0085,Alma,Jackson County,44.441,-90.855
0718,Calamus,Dodge County,43.414,-88.946
4511,Seneca,Wood County,44.400,-89.956
1304,Delmar,Chippewa County,44.994,-90.997
1515,Elba,Dodge County,43.327,-88.951
4567,Sigel,Wood County,44.469,-89.902
0779,Carlton,Kewaunee County,44.377,-87.587
3891,Pigeon,Trempealeau County,44.397,-91.222
5230,Washington,Sauk County,43.423,-90.133
0426,Big Flats,Adams County,44.112,-89.808
0221,Aurora,Waushara County,44.035,-88.958
1924,Gilman,Pierce County,44.809,-92.308
5065,Union,Door County,44.719,-87.703
0556,Bradford,Rock County,42.622,-88.828
0668,Buffalo City,Buffalo County,44.231,-91.864
3871,Phelps,Vilas County,46.064,-89.088
4678,Springfield,St. Croix County,44.995,-92.207
4878,Sylvester,Green County,42.640,-89.543
4738,Stanton,St. Croix County,45.173,-92.467
4271,Rockland,Manitowoc County,44.112,-87.987
4258,Rock Creek,Dunn County,44.727,-91.721
2944,Ludington,Eau Claire County,44.829,-91.127
3043,Marathon,Marathon County,44.894,-89.778
0953,Christiana,Vernon County,43.681,-90.846
4397,Sampson,Chippewa County,45.240,-91.434
2099,Hale,Trempealeau County,44.466,-91.263
2936,Lowville,Columbia County,43.383,-89.327
4150,Red Springs,Shawano County,44.895,-88.807
4008,Porter,Rock County,42.810,-89.177
1724,Flambeau,Rusk County,45.519,-91.126
2595,King,Lincoln County,45.505,-89.618
3263,Mineral Point,Iowa County,42.871,-90.146
5529,York,Green County,42.814,-89.779
2013,Grant,Shawano County,44.727,-88.930
0994,Clayton,Polk County,45.341,-92.229
2120,Hamburg,Vernon County,43.685,-91.083
3564,Norrie,Marathon County,44.886,-89.254
1754,Forest,Fond du Lac County,43.753,-88.209
4473,Schley,Lincoln County,45.249,-89.508
3611,Oak Grove,Barron County,45.590,-91.712
3112,Mayville,Clark County,44.992,-90.388
1330,Dewey,Portage County,44.642,-89.577
1804,Franklin,Kewaunee County,44.372,-87.708
1533,Elk,Price County,45.675,-90.515
5429,Wilton,Monroe County,43.857,-90.492
0390,Benton,Lafayette County,42.570,-90.381
2464,Jackson,Burnett County,45.938,-92.234
0397,Berlin,Marathon County,45.076,-89.786
0691,Burns,La Crosse County,43.945,-90.976
1389,Dresser,Polk County,45.356,-92.634
2826,Lincoln,Kewaunee County,44.618,-87.642
3250,Milltown,Polk County,45.526,-92.509
4047,Preston,Trempealeau County,44.294,-91.249
0589,Bridgeport,Crawford County,43.009,-91.058
2703,Lakeland,Barron County,45.581,-91.969
3747,Oxford,Marquette County,43.770,-89.539
3038,Maple Grove,Shawano County,44.628,-88.301
0720,Caledonia,Trempealeau County,44.018,-91.359
2434,Iola,Waupaca County,44.552,-89.172
0819,Cassel,Marathon County,44.896,-89.893
3943,Plainfield,Waushara County,44.214,-89.492
1259,Darlington,Lafayette County,42.653,-90.114
4548,Sherman,Dunn County,44.983,-91.953
4422,Sand Lake,Sawyer County,45.817,-91.470
4668,Spring Grove,Green County,42.549,-89.425
5364,White River,Ashland County,46.536,-90.851
1049,Colby,Clark County,44.895,-90.380
2120,Hamburg,Marathon County,45.091,-89.885
0632,Browning,Taylor County,45.154,-90.220
3098,Matteson,Waupaca County,44.638,-88.669
5467,Wood River,Burnett County,45.782,-92.593
2051,Greenfield,Sauk County,43.461,-89.649
1012,Clinton,Rock County,42.536,-88.847
0997,Clear Lake,Polk County,45.249,-92.215
1585,Emmet,Marathon County,44.811,-89.894
5003,Trego,Washburn County,45.918,-91.837
3601,Norwood,Langlade County,45.078,-89.039
1007,Cleveland,Chippewa County,45.153,-91.275
2299,Hingham,Sheboygan County,43.639,-87.914
3837,Pella,Shawano County,44.729,-88.790
0932,Chester,Dodge County,43.583,-88.701
2153,Harmony,Vernon County,43.576,-91.096
1481,Eden,Fond du Lac County,43.694,-88.361
2304,Hixon,Clark County,44.994,-90.620
5436,Winfield,Sauk County,43.601,-90.023
4511,Seneca,Crawford County,43.265,-90.958
0086,Almena,Barron County,45.435,-92.103
4635,South Lancaster,Grant County,42.811,-90.724
0564,Brandon,Fond du Lac County,43.735,-88.781
1012,Clinton,Barron County,45.420,-91.973
3038,Maple Grove,Barron County,45.337,-91.849
4482,Scott,Columbia County,43.598,-89.174
4529,Sharon,Walworth County,42.537,-88.718
5128,Vermont,Dane County,43.072,-89.786
2273,Highland,Iowa County,43.047,-90.380
5238,Waterloo,Jefferson County,43.151,-88.931
3903,Pine Grove,Portage County,44.291,-89.539
2725,Land o' Lakes,Vilas County,46.161,-89.219
3538,Niagara,Marinette County,45.722,-87.936
2792,Leon,Monroe County,43.877,-90.830
2054,Greenleaf,Brown County,44.313,-88.096
2999,Maine,Outagamie County,44.548,-88.560
1048,Colburn,Chippewa County,45.040,-91.045
5451,Wiota,Lafayette County,42.637,-89.953
2013,Grant,Clark County,44.544,-90.504
2332,Holton,Marathon County,44.996,-90.248
2995,Magnolia,Rock County,42.716,-89.289
3039,Maple Plain,Barron County,45.607,-92.083
3038,Maple Grove,Manitowoc County,44.189,-87.924
3393,Mountain,Oconto County,45.163,-88.429
4946,Thorp,Clark County,44.996,-90.871
4780,Stoddard,Vernon County,43.662,-91.218
0170,Arlington,Columbia County,43.338,-89.380
1579,Emerald,St. Croix County,45.084,-92.309
3013,Manchester,Green Lake County,43.691,-89.048
5063,Underhill,Oconto County,44.875,-88.384
2713,Lakewood,Oconto County,45.339,-88.434
5477,Woodland,Sauk County,43.600,-90.253
4832,Sumner,Trempealeau County,44.558,-91.217
2482,Jefferson,Monroe County,43.770,-90.753
1370,Dorchester,Clark County,45.001,-90.331
4832,Sumner,Jefferson County,42.885,-88.983
5230,Washington,Green County,42.727,-89.661
3363,Mosel,Sheboygan County,43.806,-87.740
5266,Webster,Vernon County,43.597,-90.740
2679,Lake Arrowhead,Adams County,44.204,-89.845
2886,Lone Rock,Richland County,43.183,-90.198
4686,Spruce,Oconto County,44.953,-88.165
5241,Waterville,Pepin County,44.635,-92.047
1123,Corning,Lincoln County,45.276,-89.952
2172,Hartland,Pierce County,44.641,-92.441
2842,Lynn,Clark County,44.583,-90.410
4245,Riverview,Oconto County,45.244,-88.446
4548,Sherman,Clark County,44.728,-90.375
5494,Woodville,Calumet County,44.183,-88.205
2163,Harrison,Lincoln County,45.477,-89.507
5529,York,Clark County,44.638,-90.491
0269,Barnes,Bayfield County,46.307,-91.485
5457,Wittenberg,Shawano County,44.799,-89.161
2813,Liberty,Outagamie County,44.416,-88.653
3626,Oakland,Burnett County,45.938,-92.369
0442,Biron,Wood County,44.424,-89.780
4678,Springfield,Marquette County,43.947,-89.533
3013,Manchester,Jackson County,44.206,-90.779
4018,Potosi,Grant County,42.701,-90.716
4870,Swiss,Burnett County,46.025,-92.283
0689,Burnett,Dodge County,43.498,-88.701
0327,Beaver,Clark County,44.810,-90.500
2172,Hartland,Shawano County,44.721,-88.421
3939,Pittsville,Wood County,44.439,-90.125
1216,Cumberland,Barron County,45.508,-91.967
1470,Eaton,Manitowoc County,44.025,-87.976
5065,Union,Vernon County,43.595,-90.494
2775,Leeds,Columbia County,43.311,-89.324
1565,Elmwood,Pierce County,44.781,-92.146
0327,Beaver,Polk County,45.425,-92.214
5421,Willow Springs,Lafayette County,42.756,-90.132
1385,Drammen,Eau Claire County,44.646,-91.594
5323,Westfield,Marquette County,43.859,-89.531
3317,Montreal,Iron County,46.428,-90.246
2367,Howard,Chippewa County,44.951,-91.538
4832,Sumner,Barron County,45.386,-91.653
1473,Eau Galle,Dunn County,44.692,-92.012
0371,Belmont,Lafayette County,42.788,-90.363
1375,Douglas,Marquette County,43.685,-89.549
4257,Rock,Wood County,44.549,-90.249
0166,Argyle,Lafayette County,42.701,-89.867
1788,Fountain City,Buffalo County,44.132,-91.719
2255,Hewitt,Wood County,44.645,-90.100
2658,La Prairie,Rock County,42.629,-88.944
2826,Lincoln,Monroe County,44.114,-90.502
0214,Auburndale,Wood County,44.642,-90.023
2291,Hillsboro,Vernon County,43.689,-90.369
0213,Auburn,Chippewa County,45.152,-91.613
5019,Troy,Sauk County,43.246,-89.922
0996,Clear Creek,Eau Claire County,44.640,-91.347
2937,Loyal,Clark County,44.722,-90.507
2388,Hunter,Sawyer County,45.919,-91.178
0180,Arthur,Chippewa County,45.060,-91.156
0338,Beecher,Marinette County,45.588,-87.995
4271,Rockland,La Crosse County,43.908,-90.917
2826,Lincoln,Trempealeau County,44.370,-91.366
0303,Bayfield,Bayfield County,46.880,-90.954
2821,Lima,Grant County,42.816,-90.489
5462,Wolf River,Langlade County,45.235,-88.727
1750,Footville,Rock County,42.671,-89.209
3887,Pierce,Kewaunee County,44.536,-87.490
0736,Cambria,Columbia County,43.542,-89.107
0821,Cassville,Grant County,42.714,-90.991
5065,Union,Waupaca County,44.549,-88.915
1474,Eau Pleine,Marathon County,44.815,-90.133
2062,Greenwood,Vernon County,43.564,-90.418
3073,Marshfield,Wood County,44.617,-90.092
0076,Allenton,Washington County,43.421,-88.341
0641,Bruce,Rusk County,45.457,-91.273
2508,Johnstown,Rock County,42.700,-88.806
2382,Hull,Marathon County,44.895,-90.248
1977,Gordon,Douglas County,46.295,-91.825
4738,Stanton,Dunn County,44.989,-92.079
0899,Charlestown,Calumet County,44.013,-88.071
1870,Garfield,Jackson County,44.558,-91.116
1893,Genoa,Vernon County,43.546,-91.173
2789,Lena,Oconto County,44.991,-88.056
3727,Otsego,Columbia County,43.402,-89.166
0713,Cadiz,Green County,42.552,-89.775
1952,Glenwood,St. Croix County,45.080,-92.207
5465,Wood,Wood County,44.473,-90.141
2161,Harris,Marquette County,43.856,-89.431
3621,Oakdale,Monroe County,43.923,-90.372
0667,Buffalo,Buffalo County,44.082,-91.595
2139,Hansen,Wood County,44.475,-90.019
1207,Crystal Lake,Barron County,45.510,-92.098
2345,Honey Creek,Sauk County,43.339,-89.921
2836,Linden,Iowa County,42.915,-90.263
5075,Unity,Clark County,44.822,-90.367
0484,Bloomington,Grant County,42.885,-90.923
1420,Dupont,Waupaca County,44.635,-88.927
0317,Bear Creek,Waupaca County,44.547,-88.794
1069,Coloma,Waushara County,44.026,-89.534
0023,Adrian,Monroe County,43.945,-90.595
2013,Grant,Rusk County,45.416,-91.133
3854,Perry,Dane County,42.901,-89.779
2244,Herman,Shawano County,44.804,-88.789
4313,Rosendale,Fond du Lac County,43.853,-88.706
2466,Jacksonport,Door County,44.979,-87.186
0394,Bergen,Marathon County,44.735,-89.762
1463,Eastman,Crawford County,43.185,-90.956
4673,Spring Valley,Rock County,42.624,-89.310
4762,Sterling,Polk County,45.609,-92.765
4121,Rantoul,Calumet County,44.110,-88.099
1057,Coleman,Marinette County,45.065,-88.034
3645,Ogema,Price County,45.426,-90.385
1051,Cold Spring,Jefferson County,42.891,-88.774
0441,Birnamwood,Marathon County,44.932,-89.210
0813,Cascade,Sheboygan County,43.658,-88.007
5180,Wagner,Marinette County,45.302,-87.736
0044,Albany,Pepin County,44.630,-91.710
1818,Freeman,Crawford County,43.370,-91.083
4265,Rockbridge,Richland County,43.448,-90.364
5080,Upham,Langlade County,45.328,-89.170
1271,Dayton,Richland County,43.336,-90.488
1470,Eaton,Clark County,44.739,-90.610
4708,St. Lawrence,Waupaca County,44.469,-89.050
0085,Alma,Buffalo County,44.320,-91.915
1422,Durand,Pepin County,44.632,-91.931
5501,Worden,Clark County,44.904,-90.871
0999,Clearfield,Juneau County,43.938,-90.132
0172,Armenia,Juneau County,44.179,-90.011
2122,Hammel,Taylor County,45.152,-90.506
3493,New Hope,Portage County,44.551,-89.282
5230,Washington,Door County,45.395,-86.931
1240,Dale,Outagamie County,44.273,-88.678
3433,Naples,Buffalo County,44.545,-91.581
2589,Kildare,Juneau County,43.734,-89.910
5266,Webster,Burnett County,45.877,-92.367
4354,Russell,Lincoln County,45.360,-89.505
5317,Westboro,Taylor County,45.335,-90.464
2230,Helvetia,Waupaca County,44.544,-89.032
2940,Lucas,Dunn County,44.894,-92.071
0049,Albion,Trempealeau County,44.553,-91.479
2899,Longwood,Clark County,44.887,-90.598
5529,York,Dane County,43.247,-89.061
4678,Springfield,Jackson County,44.287,-91.096
1010,Clifton,Monroe County,43.879,-90.357
2821,Lima,Pepin County,44.634,-91.873
5333,Weston,Clark County,44.643,-90.607
1511,El Paso,Pierce County,44.770,-92.344
3491,New Haven,Adams County,43.689,-89.650
1821,Fremont,Waupaca County,44.260,-88.865
4010,Portland,Monroe County,43.769,-90.858
3965,Plover,Marathon County,44.978,-89.303
1250,Daniels,Burnett County,45.772,-92.466
3623,Oakfield,Fond du Lac County,43.676,-88.589
0441,Birnamwood,Shawano County,44.913,-89.156
2708,Lakeside,Douglas County,46.677,-91.841
2820,Lily Lake,Kenosha County,42.566,-88.210
4052,Primrose,Dane County,42.901,-89.662
1288,Deer Creek,Taylor County,45.084,-90.248
2051,Greenfield,Monroe County,44.046,-90.599
4683,Springvale,Fond du Lac County,43.760,-88.701
1292,Deerfield,Waushara County,44.114,-89.417
4304,Rose,Waushara County,44.200,-89.298
5158,Viola,Richland County,43.508,-90.674
3491,New Haven,Dunn County,45.166,-92.095
4849,Superior,Douglas County,46.721,-92.104
0318,Bear Lake,Barron County,45.590,-91.850
3232,Milladore,Wood County,44.649,-89.916
1804,Franklin,Sauk County,43.306,-90.039
4775,Stockbridge,Calumet County,44.072,-88.299
2445,Iron River,Bayfield County,46.564,-91.408
5275,Wellington,Monroe County,43.769,-90.492
4830,Summit,Juneau County,43.689,-90.133
2189,Hatley,Marathon County,44.887,-89.339
3069,Marshall,Rusk County,45.336,-90.988
5333,Weston,Marathon County,44.929,-89.529
3785,Paris,Grant County,42.647,-90.617
5219,Warren,Waushara County,44.026,-89.063
3040,Maple Valley,Oconto County,44.995,-88.299
2447,Ironton,Sauk County,43.522,-90.144
2468,Jacobs,Ashland County,46.167,-90.518
1830,Friendship,Adams County,43.971,-89.817
3037,Maple,Douglas County,46.590,-91.721
2459,Ithaca,Richland County,43.341,-90.282
4214,Ridgeway,Iowa County,43.002,-89.990
0317,Bear Creek,Sauk County,43.304,-90.153
4188,Rome,Jefferson County,42.980,-88.631
4540,Sheldon,Monroe County,43.774,-90.622
4822,Sullivan,Jefferson County,43.013,-88.588
5038,Turtle Lake,Barron County,45.331,-92.104
5374,Whitestown,Vernon County,43.689,-90.628
3056,Marion,Grant County,43.075,-90.724
2862,Livingston,Grant County,42.900,-90.434
5431,Winchester,Winnebago County,44.199,-88.665
2255,Hewitt,Marathon County,45.075,-89.419
2895,Long Lake,Washburn County,45.691,-91.717
3995,Poplar,Douglas County,46.584,-91.799
4259,Rock Falls,Lincoln County,45.314,-89.743
1803,Frankfort,Marathon County,44.906,-90.134
2119,Halsey,Marathon County,45.082,-90.027
0255,Bancroft,Portage County,44.310,-89.514
0870,Centerville,Manitowoc County,43.941,-87.755
2062,Greenwood,Taylor County,45.245,-90.200
5333,Weston,Dunn County,44.813,-92.072
1288,Deer Creek,Outagamie County,44.546,-88.672
5218,Warner,Clark County,44.811,-90.617
3699,Orion,Richland County,43.203,-90.428
0814,Casco,Kewaunee County,44.558,-87.618
0087,Almond,Portage County,44.295,-89.424
3386,Mount Pleasant,Green County,42.726,-89.543
1754,Forest,Vernon County,43.689,-90.490
5488,Woodruff,Oneida County,45.896,-89.699
0371,Belmont,Portage County,44.286,-89.297
5085,Utica,Crawford County,43.367,-90.907
3221,Mifflin,Iowa County,42.871,-90.354
4046,Presque Isle,Vilas County,46.247,-89.729
0256,Bangor,La Crosse County,43.854,-90.970
0597,Brighton,Marathon County,44.808,-90.249
0398,Bern,Marathon County,45.101,-90.122
0643,Brule,Douglas County,46.582,-91.612
0438,Birchwood,Washburn County,45.717,-91.600
1544,Ellenboro,Grant County,42.783,-90.614
3533,Newport,Columbia County,43.606,-89.708
0550,Boyd,Chippewa County,44.952,-91.035
1974,Goodman,Marinette County,45.636,-88.325
0637,Brownsville,Dodge County,43.616,-88.491
1609,Irving,Jackson County,44.190,-90.901
2520,Jordan,Green County,42.640,-89.769
5065,Union,Pierce County,44.644,-92.205
3598,Norwalk,Monroe County,43.831,-90.622
1787,Fountain,Juneau County,43.856,-90.251
4670,Spring Lake,Pierce County,44.812,-92.197
0383,Bennett,Douglas County,46.449,-91.854
0639,Brownville,Chippewa County,45.031,-90.934
3362,Moscow,Iowa County,42.833,-89.855
4422,Sand Lake,Burnett County,45.864,-92.228
4482,Scott,Burnett County,45.932,-92.086
4553,Shields,Marquette County,43.854,-89.294
1754,Forest,St. Croix County,45.137,-92.260
5345,Wheatland,Vernon County,43.456,-91.185
4198,Richford,Waushara County,44.024,-89.435
5323,Westfield,Sauk County,43.426,-90.007
2021,Gratiot,Lafayette County,42.563,-90.034
1486,Edgewater,Sawyer County,45.742,-91.475
2128,Hampden,Columbia County,43.332,-89.177
3587,Northfield,Jackson County,44.459,-91.100
3459,Neosho,Dodge County,43.310,-88.518
0231,Avon,Rock County,42.539,-89.293
3969,Plymouth,Juneau County,43.778,-90.251
1943,Glendale,Monroe County,43.782,-90.346
3454,Nelson,Buffalo County,44.441,-91.974
1242,Dallas,Barron County,45.251,-91.857
3959,Pleasant Valley,St. Croix County,44.906,-92.466
0290,Bass Lake,Washburn County,45.940,-91.597
2132,Hancock,Waushara County,44.097,-89.538
3465,New Auburn,Barron County,45.199,-91.566
4758,Stella,Oneida County,45.694,-89.241
4044,Prentice,Price County,45.546,-90.287
4762,Sterling,Vernon County,43.482,-91.040
0202,Atlanta,Rusk County,45.511,-91.337
2647,La Follette,Burnett County,45.769,-92.244
5229,Washburn,Bayfield County,46.669,-91.099
0230,Avoca,Iowa County,43.182,-90.325
5238,Waterloo,Grant County,42.727,-90.829
5277,Wells,Monroe County,43.856,-90.731
1330,Dewey,Burnett County,45.774,-92.083
4352,Rusk,Rusk County,45.336,-91.487
1536,Elk Grove,Lafayette County,42.672,-90.391
2813,Liberty,Grant County,42.901,-90.606
3185,Mentor,Clark County,44.555,-90.868
3257,Milton,Buffalo County,44.178,-91.759
4874,Sylvan,Richland County,43.423,-90.628
2547,Kieler,Grant County,42.581,-90.603
3069,Marshall,Richland County,43.423,-90.489
3689,Orange,Juneau County,43.938,-90.250
4683,Springvale,Columbia County,43.503,-89.189
0014,Adams,Green County,42.727,-89.779
3535,Newton,Marquette County,43.948,-89.420
3171,Melrose,Jackson County,44.131,-90.998
0479,Bloom,Richland County,43.510,-90.491
1330,Dewey,Rusk County,45.504,-90.978
2591,Kimball,Iron County,46.482,-90.306
0739,Cameron,Wood County,44.616,-90.167
3370,Moundville,Marquette County,43.679,-89.456
2163,Harrison,Grant County,42.726,-90.603
3682,Ontario,Monroe County,43.722,-90.593
2066,Gresham,Shawano County,44.853,-88.788
1646,Fairbanks,Shawano County,44.718,-89.045
1007,Cleveland,Jackson County,44.549,-90.965
4205,Richwood,Richland County,43.246,-90.614
4482,Scott,Crawford County,43.249,-90.725
2366,How,Oconto County,44.978,-88.429
0843,Cecil,Shawano County,44.810,-88.452
3066,Marquette,Green Lake County,43.758,-89.165
3733,Oulu,Bayfield County,46.633,-91.532
3194,Merrimac,Sauk County,43.373,-89.623
3788,Park Ridge,Portage County,44.519,-89.546
5401,Willard,Rusk County,45.329,-91.126
1303,Dellwood,Adams County,43.984,-89.939
1623,Ettrick,Trempealeau County,44.168,-91.269
3382,Mount Ida,Grant County,42.972,-90.761
5230,Washington,La Crosse County,43.769,-90.971
4574,Silver Cliff,Marinette County,45.456,-88.321
1377,Dover,Buffalo County,44.473,-91.577
1737,Florence,Florence County,45.922,-88.252
5134,Vesper,Wood County,44.482,-89.964
2043,Green Valley,Marathon County,44.728,-89.898
5324,Westford,Richland County,43.511,-90.243
0308,Bayview,Bayfield County,46.738,-90.902
5427,Wilson,Dunn County,45.155,-91.839
5075,Unity,Trempealeau County,44.551,-91.345
1975,Goodrich,Taylor County,45.149,-90.086
0692,Burnside,Trempealeau County,44.386,-91.470
3054,Marietta,Crawford County,43.153,-90.784
1566,Elmwood Park,Racine County,42.692,-87.822
4553,Shields,Dodge County,43.234,-88.816
0437,Birch Creek,Chippewa County,45.248,-91.218
2508,Johnstown,Polk County,45.507,-92.227
4707,St. Joseph,La Crosse County,43.786,-91.042
2397,Hutchins,Shawano County,44.983,-89.034
5192,Waldwick,Iowa County,42.826,-90.040
3729,Otter Creek,Dunn County,45.088,-91.847
4511,Seneca,Shawano County,44.821,-88.950
1434,Eagle,Richland County,43.245,-90.490
1382,Doyle,Barron County,45.509,-91.601
1724,Flambeau,Price County,45.786,-90.568
0020,Adell,Sheboygan County,43.619,-87.952
1147,Courtland,Columbia County,43.500,-89.060
4340,Ruby,Chippewa County,45.177,-90.988
5415,Willow,Richland County,43.417,-90.258
3358,Morse,Ashland County,46.222,-90.628
4694,St. Cloud,Fond du Lac County,43.823,-88.167
4213,Ridgeville,Monroe County,43.886,-90.562
1942,Glencoe,Buffalo County,44.275,-91.612
2623,Knapp,Dunn County,44.955,-92.075
1766,Forestville,Door County,44.690,-87.479
0034,Ainsworth,Langlade County,45.381,-88.983
1034,Cobb,Iowa County,42.967,-90.330
2013,Grant,Monroe County,44.131,-90.601
4905,Taylor,Jackson County,44.321,-91.120
5252,Wayne,Lafayette County,42.548,-89.889
2558,Kendall,Monroe County,43.792,-90.368
4352,Rusk,Burnett County,45.855,-92.104
4382,Salem,Pierce County,44.623,-92.358
2379,Hughes,Bayfield County,46.522,-91.489
5189,Waldo,Sheboygan County,43.675,-87.949
4300,Roosevelt,Taylor County,45.079,-90.750
4316,Rosholt,Portage County,44.628,-89.309
3051,Marengo,Ashland County,46.349,-90.888
2671,Lafayette,Monroe County,44.025,-90.732
0008,Ackley,Langlade County,45.175,-89.337
0279,Barronett,Washburn County,45.678,-91.971
1207,Crystal Lake,Marquette County,43.949,-89.303
4547,Sheridan,Dunn County,45.168,-91.970
4978,Tomahawk,Lincoln County,45.416,-89.909
3187,Mercer,Iron County,46.166,-90.063
2163,Harrison,Waupaca County,44.639,-89.171
4948,Three Lakes,Oneida County,45.798,-89.163
0495,Blue River,Grant County,43.188,-90.567
0221,Aurora,Taylor County,45.174,-90.873
1636,Evergreen,Langlade County,45.164,-88.873
3590,Northport,Waupaca County,44.410,-88.794
1816,Freedom,Sauk County,43.415,-89.901
2080,Grow,Rusk County,45.423,-90.987
2801,Levis,Clark County,44.472,-90.639
3056,Marion,Juneau County,43.807,-89.946
0299,Bay City,Pierce County,44.586,-92.450
4095,Radisson,Sawyer County,45.822,-91.203
2238,Henrietta,Richland County,43.512,-90.375
2880,Lohrville,Waushara County,44.037,-89.117
4343,Rudolph,Wood County,44.496,-89.808
2551,Kelly,Bayfield County,46.458,-90.988
3729,Otter Creek,Eau Claire County,44.640,-91.226
1925,Gilmanton,Buffalo County,44.471,-91.676
0317,Bear Creek,Outagamie County,44.531,-88.726
5246,Waubeek,Pepin County,44.666,-91.973
1038,Cochrane,Buffalo County,44.227,-91.835
5427,Wilson,Eau Claire County,44.828,-91.023
3667,Oliver,Douglas County,46.657,-92.195
2529,Junction City,Portage County,44.591,-89.767
0123,Anderson,Burnett County,45.670,-92.776
2558,Kendall,Lafayette County,42.760,-90.233
3139,McKinley,Taylor County,45.341,-90.858
0777,Cary,Wood County,44.460,-90.250
0376,Belvidere,Buffalo County,44.272,-91.831
0423,Big Bend,Rusk County,45.341,-91.341
2697,Lake Sherwood,Adams County,44.206,-89.788
3567,North Bend,Jackson County,44.091,-91.117
0815,Casey,Washburn County,45.950,-91.962
2013,Grant,Dunn County,45.070,-91.716
3296,Monroe,Adams County,44.101,-89.948
4522,Seymour,Lafayette County,42.654,-90.250
1353,Dodge,Trempealeau County,44.125,-91.513
4511,Seneca,Green Lake County,43.949,-89.069
5360,White Lake,Langlade County,45.157,-88.765
0790,Caroline,Shawano County,44.721,-88.891
1866,Garden Valley,Jackson County,44.466,-90.984
2340,Homestead,Florence County,45.744,-88.287
2661,La Valle,Sauk County,43.582,-90.128
3630,Oasis,Waushara County,44.201,-89.424
5438,Wingville,Grant County,42.987,-90.486
5075,Unity,Clark County,44.851,-90.313
5431,Winchester,Vilas County,46.222,-89.898
1010,Clifton,Grant County,42.899,-90.488
4354,Russell,Sheboygan County,43.859,-88.103
1924,Gilman,Taylor County,45.167,-90.808
3352,Morris,Shawano County,44.812,-89.042
2586,Keystone,Bayfield County,46.524,-91.189
1694,Fayette,Lafayette County,42.754,-90.035
0029,Agenda,Ashland County,46.079,-90.380
2283,Hill,Price County,45.413,-90.237
5513,Wyalusing,Grant County,42.944,-91.141
2826,Lincoln,Burnett County,45.866,-92.473
2145,Harding,Lincoln County,45.297,-89.851
5518,Wyoming,Iowa County,43.126,-90.112
5230,Washington,Rusk County,45.335,-91.237
0842,Cazenovia,Richland County,43.525,-90.204
1504,Egg Harbor,Door County,45.046,-87.297
4065,Pulaski,Iowa County,43.158,-90.355
0347,Bell,Bayfield County,46.775,-91.119
4746,Stark,Vernon County,43.594,-90.614
3099,Mattoon,Shawano County,45.004,-89.042
0239,Bagley,Grant County,42.906,-91.101
5065,Union,Burnett County,45.943,-92.480
1576,Embarrass,Waupaca County,44.666,-88.707
3274,Mission,Jackson County,44.345,-90.763
3281,Modena,Buffalo County,44.458,-91.797
4712,St. Marie,Green Lake County,43.895,-89.084
1333,Dexter,Wood County,44.394,-90.146
4024,Pound,Marinette County,45.094,-88.034
3151,Mead,Clark County,44.809,-90.731
4918,Tennyson,Grant County,42.690,-90.685
1629,Eureka,Winnebago County,44.004,-88.842
2273,Highland,Douglas County,46.424,-91.635
3139,McKinley,Polk County,45.571,-92.177
1601,Ephraim,Door County,45.156,-87.168
1481,Eden,Iowa County,42.998,-90.351
1901,Germania,Shawano County,44.725,-89.163
2813,Liberty,Vernon County,43.516,-90.734
2224,Hebron,Jefferson County,42.925,-88.693
1754,Forest,Richland County,43.510,-90.625
0463,Blackwell,Forest County,45.514,-88.612
4263,Rock Springs,Sauk County,43.492,-89.919
2199,Hawkins,Rusk County,45.515,-90.720
5347,Wheeler,Dunn County,45.044,-91.909
3830,Peck,Langlade County,45.242,-89.245
1803,Frankfort,Pepin County,44.550,-92.070
2826,Lincoln,Adams County,43.944,-89.643
1804,Franklin,Jackson County,44.213,-91.124
1816,Freedom,Forest County,45.442,-88.736
1832,Friesland,Columbia County,43.589,-89.067
1021,Clyde,Iowa County,43.119,-90.211
0941,Chili,Clark County,44.627,-90.357
5427,Wilson,Lincoln County,45.525,-89.870
4177,Reserve,Sawyer County,45.881,-91.387
5518,Wyoming,Waupaca County,44.646,-89.041
2163,Harrison,Marathon County,45.068,-89.306
2639,Krakow,Shawano County,44.762,-88.251
0543,Bowler,Shawano County,44.863,-88.982
1373,Doty,Oconto County,45.206,-88.615
2629,Knox,Price County,45.546,-90.110
2721,Lamont,Lafayette County,42.705,-89.985
0621,Brooklyn,Washburn County,46.006,-91.854
2905,Lorain,Polk County,45.680,-92.220
1582,Emery,Price County,45.729,-90.149
2282,Hiles,Forest County,45.704,-88.977
2982,Maxville,Buffalo County,44.532,-92.009
4886,Taft,Taylor County,45.097,-90.874
1275,De Soto,Crawford County,43.432,-91.201
2318,Hollandale,Iowa County,42.876,-89.936
2934,Lowell,Dodge County,43.340,-88.817
2623,Knapp,Jackson County,44.258,-90.505
1220,Curran,Jackson County,44.379,-91.105
2760,Lawrence,Rusk County,45.422,-90.843
2878,Loganville,Sauk County,43.440,-90.036
0471,Blanchard,Lafayette County,42.793,-89.901
2255,Hewett,Clark County,44.553,-90.737
2791,Leola,Adams County,44.203,-89.668
3086,Mason,Bayfield County,46.459,-91.115
4548,Sherman,Iron County,46.051,-90.092
2605,Kingston,Green Lake County,43.696,-89.128
3541,Nichols,Outagamie County,44.563,-88.463
5229,Washburn,Clark County,44.457,-90.516
2691,Lake Lorraine,Walworth County,42.730,-88.740
3302,Montana,Buffalo County,44.341,-91.665
1229,Cutler,Juneau County,44.026,-90.237
3381,Mount Hope,Grant County,42.982,-90.844
2663,Lac La Belle,Jefferson County,43.146,-88.517
4611,Sobieski,Oconto County,44.721,-88.072
1204,Crystal,Washburn County,45.864,-91.732
1383,Doylestown,Columbia County,43.428,-89.150
0239,Bagley,Oconto County,45.089,-88.287
3419,Murry,Rusk County,45.601,-91.201
1598,Enterprise,Oneida County,45.497,-89.258
1307,Delta,Bayfield County,46.473,-91.270
3232,Milladore,Portage County,44.606,-89.855
2452,Isabelle,Pierce County,44.572,-92.412
1977,Gordon,Ashland County,46.178,-90.754
1016,Clover,Bayfield County,46.781,-91.215
4540,Sheldon,Rusk County,45.311,-90.956
4211,Ridgeland,Dunn County,45.204,-91.895
2826,Lincoln,Bayfield County,46.391,-90.987
4433,Sandy Hook,Grant County,42.543,-90.610
1291,Deer Park,St. Croix County,45.188,-92.385
0830,Catawba,Price County,45.473,-90.472
0764,Canton,Buffalo County,44.565,-91.822
1019,Cloverland,Douglas County,46.677,-91.679
1381,Downsville,Dunn County,44.775,-91.932
5013,Tripp,Bayfield County,46.625,-91.375
0638,Browntown,Green County,42.578,-89.794
1902,Germantown,Washington County,43.277,-88.158
4020,Potter,Calumet County,44.121,-88.099
0825,Castle Rock,Grant County,43.075,-90.488
4168,Remington,Wood County,44.295,-90.202
2188,Hatfield,Jackson County,44.415,-90.731
4678,Springfield,Walworth County,42.642,-88.412
3862,Peru,Dunn County,44.720,-91.811
1380,Downing,Dunn County,45.046,-92.132
1243,Dalton,Green Lake County,43.657,-89.207
5144,Vilas,Langlade County,45.250,-89.363
4049,Price,Langlade County,45.259,-88.977
1007,Cleveland,Taylor County,45.245,-90.757
1065,Collins,Manitowoc County,44.086,-87.983
5066,Union Center,Juneau County,43.685,-90.267
5038,Turtle Lake,Walworth County,42.732,-88.678
1048,Colburn,Adams County,44.110,-89.678
3897,Pilsen,Bayfield County,46.569,-91.176
2153,Harmony,Price County,45.581,-90.512
2078,Grover,Taylor County,45.205,-90.618
4266,Rockdale,Dane County,42.972,-89.031
4774,Stinnett,Washburn County,46.027,-91.611
5427,Wilson,St. Croix County,44.954,-92.174
0465,Blaine,Burnett County,46.128,-92.180
3859,Pershing,Taylor County,45.248,-90.868
4199,Richland,Rusk County,45.512,-90.780
4300,Roosevelt,Burnett County,45.681,-92.086
2088,Gull Lake,Washburn County,46.038,-91.750
2102,Hackett,Price County,45.605,-90.273
3387,Mount Sterling,Crawford County,43.315,-90.929
2374,Hubbard,Rusk County,45.603,-91.134
3644,Ogdensburg,Waupaca County,44.452,-89.032
1898,Georgetown,Price County,45.601,-90.622
0777,Carey,Iron County,46.289,-90.203
1386,Draper,Sawyer County,45.886,-90.831
1953,Glidden,Ashland County,46.135,-90.579
2826,Lincoln,Buffalo County,44.346,-91.748
2313,Holcombe,Chippewa County,45.224,-91.117
2116,Hallie,Chippewa County,44.877,-91.374
3455,Nelsonville,Portage County,44.495,-89.310
2823,Lime Ridge,Sauk County,43.468,-90.155
0105,Alvin,Forest County,45.985,-88.829
1703,Fern,Florence County,45.836,-88.386
2282,Hiles,Wood County,44.394,-90.277
2803,Lewis,Polk County,45.711,-92.402
5548,Zoar,Menominee County,45.015,-88.899
3251,Millville,Grant County,43.033,-90.930
3314,Monticello,Lafayette County,42.528,-90.139
4830,Summit,Langlade County,45.329,-89.379
1494,Edmund,Iowa County,42.967,-90.265
2842,Lynne,Oneida County,45.624,-90.002
4197,Richfield,Adams County,44.024,-89.645
3154,Meadowbrook,Sawyer County,45.675,-91.133
4318,Ross,Forest County,45.712,-88.725
0503,Boaz,Richland County,43.331,-90.526
4764,Steuben,Crawford County,43.181,-90.859
2138,Hanover,Rock County,42.639,-89.162
4631,South Fork,Rusk County,45.581,-90.721
5427,Wilson,Rusk County,45.583,-91.490
1785,Foster,Clark County,44.687,-90.864
2939,Lublin,Taylor County,45.077,-90.725
3911,Pine River,Waushara County,44.152,-89.077
1247,Danbury,Burnett County,46.007,-92.371
0425,Big Falls,Rusk County,45.614,-90.971
0700,Butler,Clark County,44.804,-90.873
5042,Tustin,Waushara County,44.163,-88.892
0348,Bell Center,Crawford County,43.292,-90.827
4482,Scott,Monroe County,44.121,-90.359
4980,Tony,Rusk County,45.483,-90.993
1936,Glen Flora,Rusk County,45.496,-90.894
5474,Woodford,Lafayette County,42.649,-89.863
1409,Dunbar,Marinette County,45.651,-88.172
0165,Argonne,Forest County,45.660,-88.879
1396,Drummond,Bayfield County,46.337,-91.258
3803,Parrish,Langlade County,45.420,-89.403
2699,Lake Tomahawk,Oneida County,45.814,-89.594
3840,Pence,Iron County,46.415,-90.272
4995,Townsend,Oconto County,45.328,-88.590
0279,Barronett,Barron County,45.637,-91.993
2004,Grand View,Bayfield County,46.367,-91.108
0914,Chelsea,Taylor County,45.290,-90.307
1715,Finley,Juneau County,44.213,-90.136
3832,Piehl,Oneida County,45.682,-89.112
4777,Stockholm,Pepin County,44.483,-92.262
2426,Ingram,Rusk County,45.505,-90.812
2043,Green Valley,Shawano County,44.796,-88.270
0829,Caswell,Forest County,45.666,-88.687
4469,Saxon,Iron County,46.493,-90.414
2605,Kingston,Juneau County,44.179,-90.250
2628,Knowlton,Marathon County,44.716,-89.683
0425,Big Falls,Waupaca County,44.616,-89.016
1937,Glen Haven,Grant County,42.826,-91.071
2895,Long Lake,Florence County,45.843,-88.668
0123,Anderson,Iron County,46.334,-90.464
5054,Yuba,Richland County,43.539,-90.430
5400,Wilkinson,Rusk County,45.530,-91.460
0855,Cedar Rapids,Rusk County,45.588,-90.847
0042,Alaska,Kewaunee County,44.541,-87.501
0071,Allen,Eau Claire County,44.661,-91.367
0090,Alpha,Burnett County,45.772,-92.569
0237,Badger,Portage County,44.337,-89.239
0291,Bassett,Kenosha County,42.541,-88.228
0410,Bethel,Wood County,44.541,-90.090
0465,Blaine,Portage County,44.309,-89.315
0596,Briggsville,Marquette County,43.655,-89.585
0666,Buena Vista,Grant County,42.713,-90.688
0730,Calvary,Fond du Lac County,43.847,-88.244
0810,Caryville,Dunn County,44.751,-91.674
0858,Cedarville,Marinette County,45.454,-87.983
0865,Center Valley,Outagamie County,44.402,-88.460
0870,Centerville,Trempealeau County,44.070,-91.451
0887,Champion,Brown County,44.589,-87.794
1003,Cleghorn,Eau Claire County,44.684,-91.427
1027,Colgate,Washington County,43.193,-88.207
1101,Cooksville,Rock County,42.835,-89.241
1225,Cushing,Polk County,45.571,-92.651
1228,Custer,Portage County,44.511,-89.426
1361,Donald,Taylor County,45.252,-90.897
1411,Dundas,Calumet County,44.234,-88.198
1412,Dundee,Fond du Lac County,43.655,-88.164
1445,Earl,Washburn County,45.911,-91.761
1551,Ellis,Portage County,44.575,-89.447
1560,Elmhurst,Langlade County,45.053,-89.189
1673,Falls City,Dunn County,44.797,-91.769
1677,Fargo,Vernon County,43.456,-90.957
1710,Fillmore,Washington County,43.498,-88.061
1785,Foster,Eau Claire County,44.643,-91.312
1870,Garfield,Portage County,44.562,-89.294
1901,Germania,Marquette County,43.891,-89.257
1932,Gleason,Lincoln County,45.309,-89.496
2124,Hamilton,Ozaukee County,43.284,-87.972
2136,Hannibal,Taylor County,45.252,-90.789
2153,Harmony,Marinette County,45.099,-87.820
2229,Helena,Iowa County,43.171,-90.022
2502,Johnsburg,Fond du Lac County,43.877,-88.290
2563,Kennedy,Price County,45.910,-90.657
2622,Klondike,Kenosha County,42.590,-88.119
2640,Kremlin,Marinette County,45.651,-87.845
2819,Lily,Langlade County,45.307,-88.854
2838,Lindsey,Wood County,44.556,-90.300
2883,London,Dane County,43.048,-89.013
2903,Loomis,Marinette County,45.193,-87.899
2951,Lund,Pepin County,44.540,-92.206
2983,Mackville,Outagamie County,44.344,-88.415
3006,Malone,Fond du Lac County,43.860,-88.281
3008,Malvern,Oneida County,45.608,-89.285
3060,Marxville,Dane County,43.191,-89.660
3094,Mather,Juneau County,44.143,-90.309
3107,Mayfield,Washington County,43.329,-88.197
3163,Medina,Outagamie County,44.273,-88.638
3225,Miles,Marinette County,45.229,-87.779
3390,Mount Vernon,Dane County,42.947,-89.656
3428,Namur,Door County,44.734,-87.670
3649,Oil City,Monroe County,43.751,-90.587
3680,Ono,Pierce County,44.656,-92.256
3829,Pearson,Langlade County,45.364,-89.016
3831,Peebles,Fond du Lac County,43.816,-88.376
3883,Pickett,Winnebago County,43.911,-88.730
3901,Pine Creek,Trempealeau County,44.134,-91.527
3978,Poland,Brown County,44.444,-87.826
4043,Pray,Jackson County,44.373,-90.497
4136,Readfield,Waupaca County,44.273,-88.770
4140,Red Cliff,Bayfield County,46.856,-90.788
4231,Rising Sun,Crawford County,43.418,-90.958
4267,Rockfield,Washington County,43.258,-88.126
4366,Sabin,Richland County,43.431,-90.569
4397,Sampson,Oconto County,44.765,-88.186
4550,Sherwood,Clark County,44.468,-90.356
4639,South Range,Douglas County,46.608,-91.984
4675,Springbrook,Washburn County,45.949,-91.688
4704,St. Joe,Fond du Lac County,43.854,-88.189
4716,St. Mary's,Monroe County,43.798,-90.687
4744,Star Lake,Vilas County,46.038,-89.472
5100,Valley Junction,Monroe County,44.053,-90.412
5208,Walsh,Marinette County,45.179,-87.763
5286,Werley,Grant County,43.019,-90.765
5368,Whitefish Bay,Door County,44.906,-87.217
5408,Williamstown,Dodge County,43.507,-88.563
5440,Winnebago,Winnebago County,44.076,-88.525
5460,Wolf Creek,Polk County,45.556,-92.723
5475,Woodhull,Fond du Lac County,43.778,-88.573
5522,Yankeetown,Crawford County,43.380,-90.798
5529,York,Jackson County,44.450,-91.145
5545,Zenda,Walworth County,42.512,-88.482