phoneme,name,county,latitude,longitude
0226,Aurora,DuPage County,41.763,-88.290
2671,Joliet,Kendall County,41.518,-88.149
4401,Rockford,Ogle County,42.259,-89.063
1639,Elgin,Cook County,42.039,-88.326
3979,Peoria,Peoria County,40.694,-89.589
1023,Cicero,Cook County,41.846,-87.754
0493,Bloomington,McLean County,40.484,-88.994
1744,Evanston,Cook County,42.041,-87.690
0175,Arlington Heights,Cook County,42.088,-87.981
1369,Decatur,Macon County,39.840,-88.955
3889,Palatine,Cook County,42.110,-88.034
0415,Berwyn,Cook County,41.851,-87.794
3694,Normal,McLean County,40.514,-88.991
0717,Oak Park,Cook County,41.885,-87.784
5458,Wheaton,DuPage County,41.866,-88.107
2098,Glenview,Cook County,42.070,-87.788
4069,Plainfield,Kendall County,41.630,-88.245
1672,Elmhurst,Cook County,41.897,-87.944
0688,Buffalo Grove,Cook County,42.166,-87.962
3423,Moline,Rock Island County,41.507,-90.515
0366,Belleville,St. Clair County,38.520,-89.984
0289,Bartlett,Cook County,41.961,-88.178
1290,Crystal Lake,McHenry County,42.241,-88.316
4221,Quincy,Adams County,39.936,-91.410
3917,Park Ridge,Cook County,42.011,-87.841
5460,Wheeling,Cook County,42.130,-87.921
0845,Carpentersville,Kane County,42.121,-88.258
4393,Rock Island,Rock Island County,41.509,-90.579
0697,Oswego,Kendall County,41.683,-88.339
3719,Northbrook,Cook County,42.128,-87.829
5571,Woodridge,Cook County,41.737,-88.044
4819,St. Charles,DuPage County,41.919,-88.311
3739,O'Fallon,St. Clair County,38.592,-89.911
3960,Pekin,Peoria County,40.569,-89.625
3678,Niles,Cook County,42.019,-87.803
2450,Highland Park,Lake County,42.182,-87.800
0069,Algonquin,Kane County,42.159,-88.322
0698,Burbank,Cook County,41.734,-87.779
1338,Danville,Vermilion County,40.124,-87.630
2881,Lansing,Cook County,41.565,-87.539
2556,Huntley,Kane County,42.161,-88.435
3743,Oak Forest,Cook County,41.603,-87.744
0301,Batavia,DuPage County,41.848,-88.311
5594,Woodstock,McHenry County,42.315,-88.449
0100,Alton,Madison County,38.891,-90.184
5647,Zion,Lake County,42.446,-87.833
1147,Collinsville,Madison County,38.676,-90.006
3313,Melrose Park,Cook County,41.901,-87.857
5444,Westmont,DuPage County,41.796,-87.976
1678,Elmwood Park,Cook County,41.921,-87.809
2999,Lisle,DuPage County,41.801,-88.075
1953,Freeport,Stephenson County,42.297,-89.621
3254,Maywood,Cook County,41.879,-87.843
4443,Roselle,Cook County,41.980,-88.086
5634,Yorkville,Kendall County,41.641,-88.447
0492,Bloomingdale,DuPage County,41.958,-88.081
5260,Villa Park,DuPage County,41.890,-87.989
1341,Darien,DuPage County,41.746,-87.981
0825,Carbondale,Jackson County,37.722,-89.224
3448,Montgomery,Kane County,41.721,-88.358
1452,Dolton,Cook County,41.639,-87.607
1937,Frankfort,Cook County,41.507,-87.871
1859,Harvey,Cook County,41.610,-87.647
2843,Lake Forest,Lake County,42.259,-87.841
1383,Deerfield,Cook County,42.166,-87.852
0630,Brookfield,Cook County,41.824,-87.852
2512,Homewood,Cook County,41.557,-87.666
3857,Ottawa,LaSalle County,41.346,-88.843
3239,Matteson,Cook County,41.504,-87.713
4460,Round Lake,Lake County,42.353,-88.093
4996,Sycamore,DeKalb County,41.989,-88.687
0377,Bellwood,Cook County,41.881,-87.883
1939,Franklin Park,Cook County,41.935,-87.866
4695,Shorewood,Will County,41.520,-88.202
0828,Cary,McHenry County,42.212,-88.238
2629,Jacksonville,Morgan County,39.734,-90.229
2104,Godfrey,Madison County,38.956,-90.187
2878,Lemont,Cook County,41.667,-87.984
2473,Hinsdale,Cook County,41.801,-87.928
3240,Mattoon,Coles County,39.483,-88.373
0760,Marion,Williamson County,37.731,-88.933
5433,Westchester,Cook County,41.851,-87.882
1227,Country Club Hills,Cook County,41.568,-87.720
2809,La Grange,Cook County,41.805,-87.869
0567,Bradley,Kankakee County,41.142,-87.861
5334,Warrenville,DuPage County,41.818,-88.173
3523,Mount Vernon,Jefferson County,38.317,-88.903
4689,Shiloh,St. Clair County,38.561,-89.897
2988,Lindenhurst,Lake County,42.411,-88.026
4985,Swansea,St. Clair County,38.534,-89.989
2438,Hickory Hills,Cook County,41.726,-87.825
1896,Forest Park,Cook County,41.879,-87.814
3357,Midlothian,Cook County,41.625,-87.718
1171,Lincoln,Logan County,40.148,-89.365
3722,Northlake,Cook County,41.917,-87.896
4928,Streator,LaSalle County,41.125,-88.830
2692,Justice,Cook County,41.744,-87.838
1613,Effingham,Effingham County,39.120,-88.543
4073,Plano,Kendall County,41.663,-88.537
4254,Rantoul,Champaign County,40.308,-88.156
0934,Centralia,Clinton County,38.522,-89.124
4369,River Forest,Cook County,41.898,-87.814
3201,Markham,Cook County,41.594,-87.695
0731,Troy,Madison County,38.729,-89.883
5352,Waterloo,Monroe County,38.336,-90.150
1150,Columbia,Monroe County,38.458,-90.216
1932,Fox Lake,Lake County,42.428,-88.184
2170,Summit,Cook County,41.788,-87.810
1260,Crestwood,Cook County,41.661,-87.753
0286,Barrington,Cook County,42.152,-88.129
1792,Riverdale,Cook County,41.643,-87.636
0730,Highland,Madison County,38.739,-89.671
3989,Peru,Bureau County,41.347,-89.133
3141,Mahomet,Champaign County,40.195,-88.404
2353,Harvard,McHenry County,42.422,-88.614
2621,Itasca,DuPage County,41.975,-88.007
4387,Rochelle,Lee County,41.920,-89.062
2587,Ingleside,Lake County,42.381,-88.139
4944,Sugar Grove,Kane County,41.761,-88.444
5529,Willowbrook,DuPage County,41.770,-87.936
4376,Riverside,Cook County,41.835,-87.823
3115,Lynwood,Cook County,41.526,-87.539
4603,Savoy,Champaign County,40.055,-88.252
4391,Rock Falls,Whiteside County,41.780,-89.689
2088,Glencoe,Cook County,42.135,-87.758
2099,Glenwood,Cook County,41.543,-87.602
1262,Crete,Cook County,41.441,-87.624
3040,Long Grove,Lake County,42.178,-87.998
3226,Maryville,Madison County,38.724,-89.956
2466,Hillside,Cook County,41.878,-87.903
2617,Island Lake,Lake County,42.279,-88.200
0620,Broadview,Cook County,41.864,-87.853
2982,Lincolnshire,Lake County,42.190,-87.908
3915,Park City,Lake County,42.348,-87.884
0920,Chester,Randolph County,37.914,-89.822
3193,Marengo,McHenry County,42.249,-88.608
2595,Inverness,Cook County,42.118,-88.096
4567,Sandwich,DeKalb County,41.650,-88.619
5195,University Park,Cook County,41.447,-87.713
4896,Stickney,Cook County,41.821,-87.783
1085,Clinton,De Witt County,40.154,-88.965
5228,Vandalia,Fayette County,38.961,-89.094
3509,Mount Carmel,Wabash County,38.411,-87.761
3000,Litchfield,Montgomery County,39.175,-89.654
2220,Greenville,Bond County,38.892,-89.413
2663,Johnsburg,McHenry County,42.380,-88.242
1228,Countryside,Cook County,41.783,-87.878
2861,Lakemoor,Lake County,42.339,-88.203
0292,Bartonville,Peoria County,40.650,-89.652
0858,Carterville,Williamson County,37.760,-89.077
1100,Coal City,Grundy County,41.279,-88.280
5528,Willow Springs,Cook County,41.741,-87.860
2847,Lake Holiday,LaSalle County,41.613,-88.672
2329,Spring Grove,McHenry County,42.444,-88.236
4801,Spring Valley,Bureau County,41.328,-89.200
2453,Highwood,Lake County,42.200,-87.809
0379,Belmont,DuPage County,41.793,-88.038
0403,Berkeley,Cook County,41.889,-87.903
4026,Pinckneyville,Perry County,38.080,-89.382
1740,Eureka,Woodford County,40.721,-89.273
3361,Milan,Rock Island County,41.453,-90.572
1263,Creve Coeur,Tazewell County,40.647,-89.591
3211,Marseilles,LaSalle County,41.331,-88.708
0644,Fairfield,Wayne County,38.379,-88.360
1866,Flora,Clay County,38.669,-88.486
0346,Beecher,Will County,41.341,-87.621
0735,Butterfield,DuPage County,41.836,-88.042
2168,Sherman,Sangamon County,39.894,-89.605
4382,Robbins,Cook County,41.644,-87.704
4676,Shelbyville,Shelby County,39.406,-88.790
3948,Paxton,Ford County,40.460,-88.095
1214,Cortland,DeKalb County,41.920,-88.689
0868,Caseyville,St. Clair County,38.637,-90.026
2869,Lakewood,McHenry County,42.229,-88.355
2510,Hometown,Cook County,41.734,-87.731
2916,Lawrenceville,Lawrence County,38.729,-87.682
4061,Pittsfield,Pike County,39.608,-90.805
0136,Anna,Union County,37.460,-89.247
3486,Morrison,Whiteside County,41.810,-89.965
1522,Dwight,Grundy County,41.098,-88.425
0709,Burnham,Cook County,41.639,-87.557
1637,Sparta,Randolph County,38.123,-89.702
4444,Rosemont,Cook County,41.995,-87.885
1633,Eldorado,Saline County,37.814,-88.438
4271,Red Bud,Randolph County,38.212,-89.994
1902,Forsyth,Macon County,39.933,-88.951
3777,Oglesby,LaSalle County,41.295,-89.060
1382,Deer Park,Cook County,42.166,-88.086
0056,Aledo,Mercer County,41.200,-90.749
1763,Fairbury,Livingston County,40.747,-88.515
3826,Oregon,Ogle County,42.015,-89.332
2270,Hainesville,Lake County,42.345,-88.068
4377,Riverton,Sangamon County,39.844,-89.540
5292,Wadsworth,Lake County,42.429,-87.924
0724,Le Roy,McLean County,40.352,-88.764
3599,New Baden,Clinton County,38.537,-89.707
1985,Galena,Jo Daviess County,42.417,-90.429
5275,Virden,Macoupin County,39.506,-89.771
4726,Sleepy Hollow,Kane County,42.094,-88.303
2097,Madison,Madison County,38.686,-90.102
5449,Westville,Vermilion County,40.042,-87.639
4484,Rushville,Schuyler County,40.121,-90.563
3042,Long Lake,Lake County,42.371,-88.128
0987,Cherry Valley,Boone County,42.235,-88.975
0007,Abingdon,Knox County,40.804,-90.402
4349,Ridgewood,Will County,41.536,-88.040
2790,Knoxville,Knox County,40.908,-90.285
1621,El Paso,McLean County,40.740,-89.018
2941,Lena,Stephenson County,42.379,-89.822
2283,Hamilton,Hancock County,40.396,-91.339
2334,Newton,Jasper County,38.991,-88.163
2331,Sumner,Lawrence County,38.717,-87.861
1426,Diamond,Grundy County,41.285,-88.251
1771,Fairmont,Will County,41.556,-88.059
5124,Trenton,Clinton County,38.606,-89.682
4518,Sheridan,LaSalle County,41.530,-88.680
5078,Tilton,Vermilion County,40.095,-87.648
5346,Washington Park,St. Clair County,38.635,-90.093
5259,Villa Grove,Douglas County,39.863,-88.162
2720,Kenilworth,Cook County,42.086,-87.718
0867,Casey,Clark County,39.305,-87.985
5065,Thornton,Cook County,41.568,-87.608
2330,Seneca,Grundy County,41.303,-88.615
1805,Farmington,Fulton County,40.697,-90.002
2852,Lake of the Woods,Champaign County,40.206,-88.369
5529,Willowbrook,Will County,41.458,-87.536
4684,Wayne,DuPage County,41.947,-88.253
4115,Polo,Ogle County,41.986,-89.579
3992,Petersburg,Menard County,40.012,-89.848
0184,Arthur,Douglas County,39.714,-88.470
1685,Elwood,Will County,41.404,-88.112
0098,Altamont,Effingham County,39.062,-88.748
0608,Brighton,Jersey County,39.041,-90.140
5217,Valley View,Kane County,41.966,-88.299
2786,Knollwood,Lake County,42.272,-87.896
1845,Fisher,Champaign County,40.315,-88.350
2471,Hinckley,DeKalb County,41.769,-88.641
4398,Rockdale,Will County,41.506,-88.115
4169,Prairie Grove,McHenry County,42.279,-88.261
0202,Athens,Menard County,39.961,-89.724
0050,Albion,Edwards County,38.378,-88.056
0367,Bellevue,Peoria County,40.684,-89.680
0776,Cambria,Williamson County,37.781,-89.119
3830,Orion,Henry County,41.355,-90.382
2070,Gilman,Iroquois County,40.767,-87.992
2675,Jonesboro,Union County,37.452,-89.268
2651,Jerome,Sangamon County,39.768,-89.681
4007,Phoenix,Cook County,41.611,-87.635
0754,Cairo,Alexander County,37.005,-89.176
4128,Port Byron,Rock Island County,41.606,-90.335
2773,Kirkland,DeKalb County,42.093,-88.851
2416,Heritage Lake,Tazewell County,40.547,-89.326
4187,Princeville,Peoria County,40.930,-89.758
1539,Earlville,LaSalle County,41.589,-88.922
2879,Lanark,Carroll County,42.102,-89.833
1508,Dunlap,Peoria County,40.862,-89.679
5441,Westlake Village,Winnebago County,42.306,-89.287
4320,Rome,Peoria County,40.883,-89.503
2388,Winchester,Scott County,39.630,-90.456
2840,Lake Camelot,Peoria County,40.631,-89.742
5162,Twin Grove,McLean County,40.493,-89.080
5336,Warsaw,Hancock County,40.359,-91.435
1895,Forest Lake,Lake County,42.208,-88.056
5258,Vienna,Johnson County,37.415,-88.898
4468,Roxana,Madison County,38.848,-90.076
5353,Waterman,DeKalb County,41.772,-88.774
5517,Williamsville,Sangamon County,39.954,-89.549
2826,Ladd,Bureau County,41.383,-89.219
0821,Capron,Boone County,42.400,-88.740
2156,Grandview,Sangamon County,39.816,-89.619
2753,Kincaid,Christian County,39.589,-89.415
2004,Gardner,Grundy County,41.186,-88.310
5096,Toluca,Marshall County,41.002,-89.133
1083,Clifton,Iroquois County,40.935,-87.934
4824,St. Elmo,Fayette County,39.027,-88.848
5619,Wyoming,Stark County,41.062,-89.773
0419,Bethany,Moultrie County,39.646,-88.738
3039,Long Creek,Macon County,39.812,-88.848
3891,Palestine,Crawford County,39.004,-87.613
2458,Hillcrest,Ogle County,41.951,-89.065
1014,Chrisman,Edgar County,39.804,-87.674
4455,Rossville,Vermilion County,40.379,-87.669
2341,Hartford,Madison County,38.833,-90.096
1293,Cuba,Fulton County,40.493,-90.191
5094,Toledo,Cumberland County,39.274,-88.244
5344,Waverly,Morgan County,39.592,-89.953
3130,Macon,Macon County,39.713,-88.997
3413,Mitchell,Madison County,38.762,-90.085
0215,Atwood,Douglas County,39.799,-88.463
1602,Edinburg,Christian County,39.657,-89.390
0931,Central City,Marion County,38.549,-89.127
5602,Worden,Madison County,38.931,-89.839
5333,Warrensburg,Macon County,39.933,-89.062
3375,Milledgeville,Carroll County,41.963,-89.775
3020,Lockport Heights,Will County,41.619,-88.025
4672,Shawneetown,Gallatin County,37.713,-88.187
2507,Homer,Champaign County,40.035,-87.958
4471,Royalton,Franklin County,37.877,-89.115
2211,Greenfield,Greene County,39.344,-90.213
3487,Morrisonville,Christian County,39.420,-89.456
2973,Lily Lake,Kane County,41.949,-88.478
1111,Cobden,Union County,37.531,-89.253
5340,Washburn,Marshall County,40.920,-89.292
3771,Odell,Livingston County,41.004,-88.525
3654,Newark,Kendall County,41.537,-88.583
1140,Colfax,McLean County,40.567,-88.616
1703,Energy,Williamson County,37.774,-89.026
5396,Wenona,LaSalle County,41.049,-89.052
1816,Sheldon,Iroquois County,40.769,-87.564
0206,Atkinson,Henry County,41.421,-90.015
0194,Ashton,Lee County,41.866,-89.221
4245,Ramsey,Fayette County,39.144,-89.109
4262,Raymond,Montgomery County,39.319,-89.572
2938,Leland,LaSalle County,41.613,-88.800
2281,Hamel,Madison County,38.889,-89.845
3170,Mansfield,Piatt County,40.211,-88.506
4082,Pleasant Hill,Pike County,39.443,-90.872
3772,Odin,Marion County,38.617,-89.052
5080,Timberlane,Boone County,42.335,-88.861
2059,Gifford,Champaign County,40.306,-88.021
0199,Astoria,Fulton County,40.228,-90.360
4664,Shannon,Carroll County,42.155,-89.740
4447,Roseville,Warren County,40.732,-90.665
2054,Harrison,Jackson County,37.797,-89.337
4912,Stonington,Christian County,39.640,-89.193
5273,Viola,Mercer County,41.203,-90.587
3318,Mendon,Adams County,40.088,-91.284
2302,Hanover,Jo Daviess County,42.256,-90.280
0045,Albany,Whiteside County,41.789,-90.219
1060,Clay City,Clay County,38.689,-88.354
4358,Ringwood,McHenry County,42.392,-88.297
1225,Coulterville,Randolph County,38.186,-89.606
1727,Essex,Kankakee County,41.177,-88.186
3946,Paw Paw,Lee County,41.689,-88.981
2518,Hopedale,Tazewell County,40.421,-89.415
4673,Sheffield,Bureau County,41.358,-89.737
5048,Texico,Jefferson County,38.439,-88.897
4085,Pleasant Plains,Sangamon County,39.873,-89.921
1984,Galatia,Saline County,37.841,-88.609
2041,Willow Lake,Stephenson County,42.333,-89.636
4782,Spaulding,Sangamon County,39.866,-89.540
3634,New Milford,Winnebago County,42.187,-89.068
0061,Alexis,Mercer County,41.063,-90.555
5493,Witt,Montgomery County,39.256,-89.348
0611,Brimfield,Peoria County,40.839,-89.886
3012,Livingston,Madison County,38.968,-89.764
2311,Hardin,Calhoun County,39.157,-90.618
2397,Hurst,Williamson County,37.833,-89.143
3824,Orangeville,Stephenson County,42.468,-89.644
5425,West Salem,Edwards County,38.521,-88.005
5062,Thomson,Carroll County,41.959,-90.099
5578,Woodhull,Henry County,41.179,-90.316
2411,Hennepin,Putnam County,41.254,-89.342
2219,Greenview,Menard County,40.083,-89.738
3283,McLean,McLean County,40.314,-89.170
3758,Oakland,Coles County,39.654,-88.026
4101,Pocahontas,Bond County,38.828,-89.540
3774,Ogden,Champaign County,40.114,-87.956
5077,Tilden,Randolph County,38.212,-89.683
0651,Brownstown,Fayette County,38.996,-88.953
1704,Enfield,White County,38.099,-88.338
1643,Elizabeth,Jo Daviess County,42.318,-90.222
4682,Sherrard,Mercer County,41.319,-90.506
2140,Grafton,Jersey County,38.970,-90.431
3809,Oneida,Knox County,41.072,-90.225
0236,Avon,Fulton County,40.662,-90.435
1803,Farmersville,Montgomery County,39.443,-89.652
4149,Potomac,Vermilion County,40.305,-87.801
0093,Alpha,Henry County,41.192,-90.380
5539,Windsor,Mercer County,41.202,-90.444
1165,Como,Whiteside County,41.766,-89.767
5357,Watson,Effingham County,39.025,-88.570
0566,Bradford,Stark County,41.177,-89.658
1379,Deer Creek,Tazewell County,40.630,-89.332
2776,Kirkwood,Warren County,40.866,-90.748
1838,Findlay,Shelby County,39.523,-88.754
3502,Mounds,Pulaski County,37.114,-89.198
3299,Mechanicsburg,Sangamon County,39.809,-89.397
1326,Dalzell,Bureau County,41.356,-89.173
0915,Cedarville,Stephenson County,42.376,-89.633
2107,Golconda,Pope County,37.367,-88.486
0634,Brooklyn,St. Clair County,38.659,-90.166
2109,Golden,Adams County,40.109,-91.018
1277,Crossville,White County,38.162,-88.065
2785,Noble,Richland County,38.698,-88.224
3751,Oak Run,Knox County,40.963,-90.145
5052,Thayer,Sangamon County,39.538,-89.763
1258,Creston,Ogle County,41.931,-88.965
2169,Green Valley,Tazewell County,40.408,-89.643
4838,St. Libory,St. Clair County,38.363,-89.710
3384,Millington,Kendall County,41.560,-88.604
3603,New Boston,Mercer County,41.170,-90.997
5584,Woodlawn,Jefferson County,38.330,-89.033
1772,Fairmount,Vermilion County,40.046,-87.831
3900,Palmyra,Macoupin County,39.435,-89.996
2105,Godley,Grundy County,41.244,-88.243
4861,Stanford,McLean County,40.435,-89.218
1938,Franklin,Morgan County,39.620,-90.044
0070,Alhambra,Madison County,38.888,-89.731
1350,Davis,Stephenson County,42.423,-89.414
2613,Irvington,Washington County,38.439,-89.163
5522,Willisville,Perry County,37.984,-89.590
0454,Bismarck,Vermilion County,40.264,-87.608
0809,Pittsburg,Williamson County,37.777,-88.850
4826,St. Francisville,Lawrence County,38.591,-87.647
5207,Valier,Franklin County,38.015,-89.043
2965,Union,McHenry County,42.233,-88.542
3797,Olive Branch,Alexander County,37.169,-89.352
0229,Ava,Jackson County,37.888,-89.495
1253,Crescent City,Iroquois County,40.770,-87.859
2575,Indian Creek,Lake County,42.227,-87.980
5535,Wilsonville,Macoupin County,39.071,-89.856
0707,Burlington,Kane County,42.053,-88.548
0794,Liberty,Adams County,39.879,-91.108
2689,Junction City,Marion County,38.580,-89.128
4922,Strasburg,Shelby County,39.353,-88.619
3501,Mound City,Pulaski County,37.085,-89.163
1745,Evansville,Randolph County,38.090,-89.938
0940,Chadwick,Carroll County,42.013,-89.891
2152,Grand Ridge,LaSalle County,41.237,-88.831
2290,Hammond,Piatt County,39.797,-88.592
1354,Dawson,Sangamon County,39.853,-89.463
2116,Golf,Cook County,42.059,-87.793
4690,Shipman,Macoupin County,39.118,-90.044
4823,St. David,Fulton County,40.493,-90.049
2623,Iuka,Marion County,38.616,-88.790
1316,Dahlgren,Hamilton County,38.198,-88.684
3064,Lost Nation,Ogle County,41.911,-89.367
4310,Rest Haven,Will County,41.262,-88.136
4316,Reynolds,Mercer County,41.332,-90.672
4252,Rankin,Vermilion County,40.465,-87.896
0676,Buckley,Iroquois County,40.597,-88.038
5593,Woodson,Morgan County,39.629,-90.219
5061,Thompsonville,Franklin County,37.918,-88.762
0679,Buda,Bureau County,41.326,-89.679
3744,Oak Grove,Rock Island County,41.411,-90.571
4543,San Jose,Logan County,40.305,-89.605
1357,Dayton,LaSalle County,41.385,-88.794
4354,Rinard,Wayne County,38.571,-88.465
0074,Allendale,Wabash County,38.527,-87.710
0953,Chapin,Morgan County,39.766,-90.399
1442,Dix,Jefferson County,38.442,-88.938
4851,St. Rose,Clinton County,38.684,-89.555
0549,Bowen,Hancock County,40.233,-91.063
0101,Altona,Knox County,41.115,-90.165
0774,Camargo,Douglas County,39.800,-88.164
1690,Emden,Logan County,40.299,-89.485
0170,Argyle,Boone County,42.355,-88.939
0684,Buffalo,Sangamon County,39.853,-89.409
1204,Cornell,Livingston County,40.990,-88.729
4099,Plymouth,Hancock County,40.292,-90.916
2482,Hoffman,Clinton County,38.541,-89.264
3734,Norwood,Peoria County,40.706,-89.699
0982,Cherry,Bureau County,41.427,-89.213
5110,Towanda,McLean County,40.564,-88.899
2039,Georgetown,McDonough County,40.461,-90.718
3314,Melvin,Ford County,40.568,-88.248
2465,Hillsdale,Rock Island County,41.614,-90.173
2699,Karnak,Pulaski County,37.294,-88.975
0395,Benson,Woodford County,40.851,-89.122
0677,Buckner,Franklin County,37.983,-89.016
3482,Moro,Madison County,38.925,-90.022
1096,New Haven,Gallatin County,37.898,-88.127
1598,Edgewood,Effingham County,38.921,-88.661
2547,Hull,Pike County,39.707,-91.207
4691,Shirley,McLean County,40.407,-89.063
5232,Varna,Marshall County,41.036,-89.226
0534,Bonnie,Jefferson County,38.203,-88.903
0824,Carbon Hill,Grundy County,41.297,-88.300
3305,Medora,Jersey County,39.177,-90.141
5385,Weldon,De Witt County,40.121,-88.745
2683,Joy,Mercer County,41.197,-90.880
1311,Cutler,Perry County,38.032,-89.566
2548,Humboldt,Coles County,39.604,-88.319
0352,Belgium,Vermilion County,40.061,-87.638
2645,Jeffersonville,Wayne County,38.443,-88.404
2118,Good Hope,McDonough County,40.558,-90.673
3799,Olivet,Vermilion County,39.942,-87.644
4383,Roberts,Ford County,40.613,-88.183
2679,Joppa,Massac County,37.206,-88.845
4953,Summerfield,St. Clair County,38.597,-89.752
3904,Panama,Bond County,39.029,-89.524
3608,New Canton,Pike County,39.636,-91.096
4849,St. Peter,Fayette County,38.868,-88.854
3828,Orient,Franklin County,37.918,-88.978
1856,Flat Rock,Crawford County,38.902,-87.672
2222,Greenwood,McHenry County,42.393,-88.389
2901,Latham,Logan County,39.969,-89.162
3227,Mason,Effingham County,38.953,-88.624
2549,Hume,Edgar County,39.797,-87.869
1584,Middletown,Logan County,40.100,-89.591
0901,Lee,DeKalb County,41.795,-88.942
1105,Coalton,Montgomery County,39.283,-89.301
3148,Malden,Bureau County,41.424,-89.369
1564,Easton,Mason County,40.233,-89.843
0177,Armington,Tazewell County,40.339,-89.311
0619,Broadlands,Champaign County,39.909,-87.994
4253,Ransom,LaSalle County,41.156,-88.650
1836,Fillmore,Montgomery County,39.115,-89.279
2724,Kenney,De Witt County,40.097,-89.086
0255,Baldwin,Randolph County,38.183,-89.843
1820,Fayetteville,St. Clair County,38.378,-89.795
1552,Ewing,Franklin County,38.089,-88.852
3052,Loraine,Adams County,40.154,-91.222
4658,Seymour,Champaign County,40.107,-88.427
2007,Virgil,Kane County,41.956,-88.537
4470,Royal,Champaign County,40.193,-87.973
1776,Sibley,Ford County,40.587,-88.381
4238,Raleigh,Saline County,37.827,-88.532
3580,Nebo,Pike County,39.443,-90.791
3004,Little York,Warren County,41.011,-90.746
3372,Millbrook,Kendall County,41.598,-88.553
3286,McNabb,Putnam County,41.177,-89.209
1642,Elliott,Ford County,40.465,-88.272
0622,Brocton,Edgar County,39.716,-87.933
1166,Compton,Lee County,41.694,-89.081
4072,Plainville,Adams County,39.786,-91.185
4605,Sawyerville,Macoupin County,39.078,-89.807
0911,Cedar Point,LaSalle County,41.263,-89.126
3156,Manchester,Scott County,39.542,-90.332
3625,New Holland,Logan County,40.185,-89.581
1029,Cisco,Piatt County,40.011,-88.726
1236,Crab Orchard,Williamson County,37.729,-88.804
2408,Henderson,Knox County,41.025,-90.356
0082,Allerton,Champaign County,39.916,-87.935
2347,Hartsburg,Logan County,40.251,-89.441
3182,Mapleton,Peoria County,40.566,-89.732
0372,Bellmont,Wabash County,38.384,-87.911
3259,McClure,Alexander County,37.318,-89.431
1314,Cypress,Johnson County,37.365,-89.018
1356,Woodland,Iroquois County,40.714,-87.731
3262,McCook,Cook County,41.798,-87.845
3970,Penfield,Champaign County,40.303,-87.947
0720,Bush,Williamson County,37.843,-89.131
0674,Buckingham,Kankakee County,41.047,-88.175
3756,Oakford,Menard County,40.103,-89.963
2695,Kangley,LaSalle County,41.146,-88.874
2582,Indianola,Vermilion County,39.927,-87.740
3898,Palmer,Christian County,39.458,-89.404
3419,Modoc,Randolph County,38.053,-90.037
0741,Lawrence,McHenry County,42.441,-88.641
1645,Elizabethtown,Hardin County,37.446,-88.305
5465,White City,Macoupin County,39.065,-89.763
0014,Adair,McDonough County,40.419,-90.497
4633,Seaton,Mercer County,41.102,-90.802
1303,Curran,Sangamon County,39.742,-89.772
3325,Menominee,Jo Daviess County,42.488,-90.533
4344,Ridgefield,McHenry County,42.268,-88.361
3395,Milton,Pike County,39.564,-90.650
5247,Verona,Grundy County,41.218,-88.501
2412,Henning,Vermilion County,40.305,-87.701
3453,Montrose,Cumberland County,39.166,-88.378
5388,Wellington,Iroquois County,40.539,-87.680
2043,Vermilion,Edgar County,39.581,-87.589
2892,LaPlace,Piatt County,39.800,-88.718
4283,Reddick,Kankakee County,41.098,-88.249
2658,Jewett,Cumberland County,39.208,-88.246
0052,Alden,McHenry County,42.459,-88.518
0779,Cameron,Warren County,40.889,-90.517
5427,West Union,Clark County,39.216,-87.666
3919,Parkersburg,Richland County,38.590,-88.057
4698,Shumway,Effingham County,39.185,-88.652
4732,Smithfield,Fulton County,40.473,-90.292
5513,Williamson,Madison County,38.986,-89.764
4232,Radom,Washington County,38.282,-89.192
1667,Ellsworth,McLean County,40.450,-88.717
2704,Keensburg,Wabash County,38.351,-87.869
0642,Broughton,Hamilton County,37.935,-88.462
5293,Waggoner,Montgomery County,39.378,-89.653
3418,Modesto,Macoupin County,39.478,-89.982
2716,Kempton,Ford County,40.936,-88.237
5575,Woodburn,Macoupin County,39.047,-90.012
4397,Rockbridge,Greene County,39.269,-90.204
2130,Gorham,Jackson County,37.718,-89.486
3699,Norris,Fulton County,40.626,-90.032
0174,Arlington,Bureau County,41.474,-89.249
4714,Sims,Wayne County,38.360,-88.531
0723,Butler,Montgomery County,39.199,-89.534
0667,Bryant,Fulton County,40.466,-90.092
0762,Calhoun,Richland County,38.650,-88.044
4834,St. Johns,Perry County,38.031,-89.241
2805,La Fayette,Stark County,41.108,-89.972
4736,Smithville,Peoria County,40.660,-89.800
1078,Cleveland,Henry County,41.506,-90.315
1328,Dana,LaSalle County,40.958,-88.950
1456,Donnellson,Bond County,39.031,-89.476
1184,Cooksville,McLean County,40.543,-88.716
1927,Fowler,Adams County,40.008,-91.259
3544,Muncie,Vermilion County,40.116,-87.845
0249,Baileyville,Ogle County,42.198,-89.595
4198,Pulaski,Pulaski County,37.214,-89.206
1764,Fairdale,DeKalb County,42.100,-88.933
5537,Wilton Center,Will County,41.351,-87.960
1168,Concord,Morgan County,39.817,-90.373
1634,Eldred,Greene County,39.288,-90.552
0405,Berlin,Sangamon County,39.759,-89.903
5424,West Point,Hancock County,40.255,-91.183
0080,Allenville,Moultrie County,39.556,-88.530
2312,Harding,LaSalle County,41.515,-88.849
1813,Ferris,Hancock County,40.469,-91.170
1684,Elwin,Macon County,39.852,-88.944
4817,St. Augustine,Knox County,40.718,-90.411
0664,Brussels,Calhoun County,38.949,-90.589
3682,Niota,Hancock County,40.617,-91.288
3044,Longview,Champaign County,39.887,-88.066
2077,Glasgow,Scott County,39.551,-90.480
2440,Hidalgo,Jasper County,39.156,-88.147
1712,Eola,DuPage County,41.778,-88.243
0138,Annapolis,Crawford County,39.144,-87.817
1422,Dewey,Champaign County,40.319,-88.282
0719,Burton,Adams County,39.905,-91.249
4926,Strawn,Livingston County,40.653,-88.396
5245,Vernon,Marion County,38.802,-89.087
2597,Iola,Clay County,38.834,-88.628
3196,Marietta,Fulton County,40.501,-90.393
1834,Fidelity,Jersey County,39.153,-90.165
3566,Naples,Scott County,39.757,-90.607
0749,Hamburg,Calhoun County,39.230,-90.718
4624,Scottville,Macoupin County,39.480,-90.105
5191,Unity,Alexander County,37.150,-89.273
0354,Belknap,Johnson County,37.325,-88.939
1580,Eddyville,Pope County,37.499,-88.588
5038,Tennessee,McDonough County,40.412,-90.839
5459,Wheeler,Jasper County,39.047,-88.316
5317,Walnut Hill,Marion County,38.477,-89.043
3114,Lynnville,Morgan County,39.687,-90.346
4490,Russellville,Lawrence County,38.819,-87.532
3011,Liverpool,Fulton County,40.392,-90.001
2469,Hillview,Greene County,39.451,-90.541
2769,Kinsman,Grundy County,41.190,-88.570
0288,Barstow,Rock Island County,41.518,-90.357
5532,Wilmington,Greene County,39.481,-90.487
1755,Exeter,Scott County,39.721,-90.497
5429,West York,Crawford County,39.171,-87.674
1666,Ellisville,Fulton County,40.627,-90.305
3859,Otterville,Jersey County,39.051,-90.398
4439,Rose Hill,Jasper County,39.104,-88.147
1541,East Brooklyn,Grundy County,41.173,-88.264
2727,Kent,Stephenson County,42.309,-89.902
0015,Adams,Adams County,39.865,-91.198
3601,New Bedford,Bureau County,41.513,-89.721
1419,Detroit,Pike County,39.621,-90.677
0425,Beverly,Adams County,39.793,-90.991
2666,Johnsonville,Wayne County,38.522,-88.537
5620,Yale,Jasper County,39.120,-88.025
2614,Irwin,Kankakee County,41.052,-87.984
0778,Camden,Schuyler County,40.154,-90.771
0444,Bingham,Fayette County,39.114,-89.213
2111,Golden Gate,Wayne County,38.359,-88.204
3368,Mill Creek,Union County,37.342,-89.253
5101,Topeka,Mason County,40.330,-89.931
2688,Junction,Gallatin County,37.723,-88.237
3538,Muddy,Saline County,37.765,-88.517
5186,Union Hill,Kankakee County,41.108,-88.147
4715,Simpson,Johnson County,37.467,-88.755
3907,Panola,Woodford County,40.784,-89.021
2817,La Prairie,Adams County,40.148,-91.003
4002,Phillipstown,White County,38.142,-88.022
0489,Bloomfield,Adams County,40.021,-91.307
4409,Rockwood,Randolph County,37.841,-89.701
1787,Fall Creek,Adams County,39.779,-91.302
5397,Wenonah,Montgomery County,39.327,-89.289
3121,Macedonia,Franklin County,38.054,-88.703
0396,Bentley,Hancock County,40.344,-91.112
2765,Kingston,Adams County,39.817,-91.028
1867,Florence,Pike County,39.627,-90.611
5210,Valley City,Pike County,39.707,-90.653
0024,Adrian,Hancock County,40.521,-91.167
0079,Allentown,Tazewell County,40.556,-89.397
0178,Armstrong,Vermilion County,40.306,-87.878
0277,Barnes,McLean County,40.503,-88.902
0410,Berryville,Richland County,38.599,-87.929
0469,Blackstone,Livingston County,41.084,-88.691
0509,Bluff City,Fayette County,38.964,-89.046
0614,Bristol,Kendall County,41.686,-88.428
0688,Buffalo Grove,Ogle County,41.981,-89.595
0746,Cache,Alexander County,37.100,-89.261
0794,Liberty,Saline County,37.720,-88.572
0886,Catharine,LaSalle County,41.523,-88.719
0896,Cayuga,Livingston County,40.941,-88.584
0972,Chautauqua,Jersey County,38.964,-90.386
0978,Cheneyville,Vermilion County,40.469,-87.585
1038,Clarion,Bureau County,41.505,-89.192
1047,Clarksville,Clark County,39.452,-87.798
1200,Corinth,Williamson County,37.819,-88.776
1392,Delhi,Jersey County,39.045,-90.256
1411,Denver,Hancock County,40.291,-91.107
1611,Edwards,Peoria County,40.746,-89.744
1660,Ellery,Edwards County,38.355,-88.149
1676,Elmore,Peoria County,40.957,-89.977
1923,Fountain Green,Hancock County,40.476,-90.969
1941,Franklinville,McHenry County,42.277,-88.511
2063,Gilchrist,Mercer County,41.205,-90.624
2239,Groveland,Tazewell County,40.591,-89.533
2249,Gulfport,Henderson County,40.814,-91.086
2291,Weston,McLean County,40.747,-88.622
2317,Harlem,Winnebago County,42.340,-89.018
2336,Harrisonville,Monroe County,38.278,-90.350
2437,Hickory Grove,Adams County,39.938,-91.315
2632,Jamaica,Vermilion County,39.991,-87.807
2636,Jamestown,Clinton County,38.735,-89.519
2677,Jonesville,LaSalle County,41.311,-89.071
2852,Lake of the Woods,Peoria County,40.840,-89.605
2867,Lakeview,Saline County,37.672,-88.616
3002,Little Rock,Kendall County,41.717,-88.576
3008,Lytleville,McLean County,40.342,-88.956
3080,Lowell,LaSalle County,41.251,-89.011
3187,Marblehead,Adams County,39.840,-91.369
3261,McConnell,Stephenson County,42.434,-89.731
3270,McDowell,Livingston County,40.831,-88.585
3317,Menard,Randolph County,37.910,-89.840
3333,Meriden,LaSalle County,41.571,-89.035
3336,Merrimac,Monroe County,38.371,-90.333
3344,Meyer,Adams County,40.148,-91.504
3373,Millburn,Lake County,42.426,-88.004
3432,Monroe City,Monroe County,38.256,-90.266
3497,Mossville,Peoria County,40.816,-89.568
3549,Murdock,Douglas County,39.801,-88.078
3611,New City,Sangamon County,39.669,-89.539
3622,New Hanover,Monroe County,38.387,-90.227
3669,Newtown,Vermilion County,40.167,-87.769
3732,Norway,LaSalle County,41.466,-88.664
3759,Oakley,Macon County,39.876,-88.806
3808,Oneco,Stephenson County,42.487,-89.664
3893,Palisades,DuPage County,41.714,-87.934
3903,Paloma,Adams County,40.023,-91.195
3930,Parrish,Franklin County,37.941,-88.813
4171,Prairie View,Lake County,42.199,-87.963
4206,Putnam,Putnam County,41.185,-89.396
4303,Reno,Bond County,38.975,-89.514
4327,Ritchie,Will County,41.255,-88.105
4434,Rosamond,Christian County,39.380,-89.160
4487,Russell,Lake County,42.491,-87.912
4502,Sabina,McLean County,40.347,-88.651
4523,Salisbury,Sangamon County,39.890,-89.798
5132,Triumph,LaSalle County,41.499,-89.022
5139,Truro,Knox County,40.958,-90.042
5261,Villa Ridge,Pulaski County,37.159,-89.195
5310,Walla Walla,Cumberland County,39.201,-88.192
5326,Ware,Union County,37.448,-89.394
5337,Wartburg,Monroe County,38.291,-90.196
5373,Weaver,Clark County,39.418,-87.599
5379,Webster,Hancock County,40.466,-91.001
5564,Wolf Lake,Union County,37.504,-89.438