phoneme,name,latitude,longitude
04151,Indianapolis,39.778,-86.146
02834,Evansville,37.975,-87.556
07977,South Bend,41.683,-86.250
01385,Carmel,39.978,-86.118
00869,Bloomington,39.165,-86.526
03664,Hammond,41.583,-87.500
04584,Lafayette,40.417,-86.875
03251,Gary,41.593,-87.346
05846,Muncie,40.193,-85.386
03552,Greenwood,39.614,-86.107
04529,Kokomo,40.486,-86.134
08461,Terre Haute,39.467,-87.414
00206,Anderson,40.105,-85.680
02689,Elkhart,41.682,-85.977
09169,Westfield,40.043,-86.127
01849,Columbus,39.201,-85.921
04265,Jeffersonville,38.278,-85.737
04731,Lawrence,39.839,-86.025
09133,West Lafayette,40.426,-86.908
06885,Portage,41.576,-87.176
05947,New Albany,38.286,-85.824
05475,Merrillville,41.483,-87.333
07225,Richmond,39.829,-84.890
06776,Plainfield,39.704,-86.399
03419,Goshen,41.582,-85.834
02098,Crown Point,41.417,-87.365
08806,Valparaiso,41.473,-87.061
05500,Michigan City,41.708,-86.895
09527,Zionsville,39.951,-86.262
03469,Granger,41.753,-86.111
01132,Brownsburg,39.843,-86.398
03958,Hobart,41.532,-87.255
05248,Marion,40.558,-85.659
03133,Franklin,39.481,-86.055
03535,Greenfield,39.785,-85.769
05852,Munster,41.564,-87.513
03899,Highland,41.554,-87.452
00386,Avon,39.763,-86.400
04564,La Porte,41.611,-86.723
01697,Clarksville,38.297,-85.760
07755,Seymour,38.959,-85.890
08107,St. John,41.450,-87.470
07792,Shelbyville,39.521,-85.777
04949,Logansport,40.754,-86.357
05968,New Castle,39.929,-85.370
04095,Huntington,40.883,-85.497
04758,Lebanon,40.048,-86.469
04256,Jasper,38.391,-86.931
03132,Frankfort,40.279,-86.511
08889,Vincennes,38.677,-87.529
02515,Dyer,41.494,-87.522
02032,Crawfordsville,40.041,-86.874
03565,Griffith,41.528,-87.424
09009,Warsaw,41.238,-85.853
05993,New Haven,41.071,-85.014
01486,Cedar Lake,41.365,-87.441
00609,Beech Grove,39.722,-86.090
00601,Bedford,38.861,-86.487
08033,Speedway,39.802,-86.267
00360,Auburn,41.367,-85.059
01894,Connersville,39.641,-85.141
04623,Lake Station,41.575,-87.239
05132,Madison,38.736,-85.380
03543,Greensburg,39.337,-85.484
09014,Washington,38.659,-87.173
05284,Martinsville,39.428,-86.428
09498,Yorktown,40.174,-85.494
06638,Peru,40.754,-86.069
09255,Whitestown,39.997,-86.346
05044,Lowell,41.291,-87.421
02195,Danville,39.761,-86.526
06824,Plymouth,41.344,-86.310
08918,Wabash,40.798,-85.821
00901,Bluffton,40.739,-85.172
01845,Columbia City,41.157,-85.488
03533,Greencastle,39.644,-86.865
02239,Decatur,40.831,-84.929
05706,Mooresville,39.613,-86.374
00213,Angola,41.635,-84.999
02735,Elwood,40.274,-85.837
06965,Princeton,38.355,-87.568
01023,Brazil,39.524,-87.125
01568,Charlestown,38.453,-85.670
09347,Winfield,41.405,-87.275
07695,Scottsburg,38.686,-85.770
00522,Batesville,39.298,-85.213
02489,Dunlap,41.638,-85.922
05889,Nappanee,41.446,-85.997
00945,Boonville,38.049,-87.274
03246,Garrett,41.349,-85.136
05809,Mount Vernon,37.932,-87.895
07536,Salem,38.606,-86.101
07309,Rochester,41.065,-86.216
06892,Portland,40.434,-84.978
07472,Rushville,39.609,-85.446
02125,Cumberland,39.787,-85.945
07176,Rensselaer,40.937,-87.151
03737,Hartford City,40.451,-85.370
01068,Bright,39.218,-84.856
03888,Hidden Valley,39.162,-84.843
05682,Monticello,40.745,-86.765
01664,Cicero,40.124,-86.013
09187,Westville,41.541,-86.901
08549,Tipton,40.282,-86.041
06887,Porter,41.616,-87.074
03899,Highland,38.040,-87.573
04885,Linton,39.035,-87.166
00106,Alexandria,40.263,-85.676
04732,Lawrenceburg,39.091,-84.850
06600,Pendleton,39.998,-85.747
03095,Fortville,39.932,-85.848
09340,Winchester,40.172,-84.981
01741,Clinton,39.657,-87.398
07990,South Haven,41.542,-87.137
01032,Bremen,41.446,-86.148
03534,Greendale,39.113,-84.864
04844,Ligonier,41.466,-85.587
09262,Whiting,41.680,-87.494
02619,Edinburgh,39.351,-85.962
08288,Sullivan,39.095,-87.406
00706,Berne,40.658,-84.952
00373,Austin,38.758,-85.808
05623,Mitchell,38.733,-86.474
06763,Pittsboro,39.864,-86.467
08764,Upland,40.476,-85.494
03279,Georgetown,38.295,-85.976
03814,Hebron,41.319,-87.200
01553,Chandler,38.042,-87.368
03680,Hanover,38.714,-85.474
06492,Paoli,38.556,-86.468
04521,Knox,41.296,-86.625
00371,Aurora,39.057,-84.901
05512,Middlebury,41.675,-85.706
08740,Union City,40.202,-84.809
06048,Newburgh,37.944,-87.405
06394,Ossian,40.881,-85.166
01958,Corydon,38.212,-86.122
00354,Attica,40.294,-87.249
07809,Sheridan,40.135,-86.221
08385,Syracuse,41.423,-85.750
00744,Bicknell,38.774,-87.308
01134,Brownstown,38.879,-86.042
02283,Delphi,40.588,-86.675
03079,Fort Branch,38.251,-87.581
06014,New Palestine,39.722,-85.889
01519,Centerville,39.818,-84.996
04587,Lagrange,41.642,-85.417
03851,Heritage Lake,39.728,-86.710
02003,Covington,40.142,-87.395
02877,Fairmount,40.415,-85.651
01248,Butler,41.430,-84.871
01117,Brookville,39.423,-85.013
04991,Loogootee,38.677,-86.914
06386,Osceola,41.665,-86.076
07623,Santa Claus,38.120,-86.914
01109,Brooklyn,39.539,-86.369
04159,Ingalls,39.957,-85.805
01610,Chesterfield,40.113,-85.594
07340,Rockville,39.763,-87.229
00383,Avilla,41.366,-85.239
08035,Spencer,39.287,-86.763
03544,Greentown,40.478,-85.967
03117,Fowler,40.617,-87.321
00082,Albany,40.306,-85.232
06642,Petersburg,38.492,-87.279
05519,Middletown,40.057,-85.537
00862,Bloomfield,39.027,-86.938
07271,Rising Sun,38.950,-84.854
00089,Albion,41.396,-85.424
02952,Ferdinand,38.224,-86.862
08859,Versailles,39.072,-85.252
02488,Dunkirk,40.374,-85.208
04019,Hope,39.304,-85.771
09026,Waterloo,41.432,-85.020
03025,Flora,40.547,-86.524
06364,Orleans,38.662,-86.452
08016,Southport,39.665,-86.128
08957,Walkerton,41.467,-86.483
03159,Fremont,41.731,-84.933
01753,Cloverdale,39.515,-86.794
08614,Trail Creek,41.698,-86.859
02616,Edgewood,40.103,-85.734
08940,Wakarusa,41.536,-86.021
04831,Liberty,39.636,-84.931
07335,Rockport,37.883,-87.049
05969,New Chicago,41.558,-87.274
00008,Aberdeen,41.439,-87.111
09305,Williamsport,40.288,-87.294
05966,New Carlisle,41.700,-86.509
00527,Battle Ground,40.508,-86.842
05533,Milan,39.121,-85.131
03844,Henryville,38.542,-85.768
01078,Bristol,41.721,-85.817
07296,Roanoke,40.963,-85.373
03702,Harlan,41.196,-84.920
05662,Monrovia,39.579,-86.482
08865,Vevay,38.748,-85.067
00959,Bourbon,41.296,-86.116
03629,Hagerstown,39.911,-85.162
02170,Daleville,40.121,-85.558
01114,Brookston,40.603,-86.867
06148,North Liberty,41.534,-86.427
04408,Kentland,40.770,-87.445
05540,Milford,41.410,-85.846
02590,Eaton,40.340,-85.351
06387,Osgood,39.129,-85.292
09405,Woodburn,41.125,-84.853
03659,Hamilton,41.540,-84.920
05686,Montpelier,40.554,-85.277
02169,Dale,38.169,-86.990
01343,Cannelton,37.911,-86.744
00260,Arcadia,40.176,-86.022
07417,Rossville,40.417,-86.595
04314,Jonesboro,40.480,-85.628
03548,Greenville,38.373,-85.986
06015,New Paris,41.500,-85.828
02885,Fairview Park,39.680,-87.418
09449,Worthington,39.125,-86.979
09184,Westport,39.176,-85.573
02205,Darmstadt,38.099,-87.579
01679,Clermont,39.810,-86.322
02347,Dillsboro,39.018,-85.059
02226,Dayton,40.374,-86.769
06432,Owensville,38.272,-87.688
08548,Tippecanoe,41.209,-86.115
07169,Remington,40.761,-87.151
05661,Monroeville,40.975,-84.868
06506,Parker City,40.189,-85.204
05899,Nashville,39.207,-86.251
03272,Geneva,40.592,-84.957
03220,Galveston,40.579,-86.190
05839,Mulberry,40.344,-86.665
03209,Galena,38.352,-85.942
05492,Mexico,40.822,-86.116
08583,Topeka,41.539,-85.540
04971,Long Beach,41.739,-86.857
09003,Warren,40.683,-85.427
05746,Morristown,39.673,-85.699
06437,Oxford,40.520,-87.248
01901,Converse,40.579,-85.875
02124,Culver,41.219,-86.423
06410,Otterbein,40.488,-87.088
00073,Akron,41.038,-86.028
07790,Shelburn,39.178,-87.394
04582,Ladoga,39.914,-86.801
00515,Bass Lake,41.207,-86.602
05740,Morocco,40.946,-87.453
02918,Farmersburg,39.249,-87.382
00210,Andrews,40.863,-85.602
00328,Ashley,41.521,-85.061
05730,Morgantown,39.371,-86.261
08301,Summitville,40.339,-85.644
01188,Buffalo,40.883,-86.745
03400,Goodland,40.763,-87.294
06896,Poseyville,38.170,-87.783
08124,St. Paul,39.428,-85.629
05559,Millersburg,41.528,-85.694
04053,Howe,41.721,-85.421
04247,Jamestown,39.929,-86.626
08984,Walton,40.661,-86.242
04881,Lynn,40.050,-84.940
09385,Wolcott,40.758,-87.042
01468,Cayuga,39.949,-87.460
04670,Lanesville,38.237,-85.986
05460,Mentone,41.173,-86.035
01100,Brook,40.866,-87.364
08773,Utica,38.334,-85.654
04611,Lake Holiday,39.967,-86.967
02986,Fish Lake,41.567,-86.552
01709,Clayton,39.689,-86.522
01413,Carthage,39.738,-85.572
09197,Wheatfield,41.193,-87.056
06475,Palmyra,38.408,-86.110
05678,Montezuma,39.793,-87.371
05658,Monroe,40.745,-84.937
03956,Hoagland,40.948,-84.992
01706,Clay City,39.277,-87.113
04643,Lakeville,41.524,-86.273
07865,Silver Lake,41.072,-85.892
03622,Hayden,38.983,-85.741
08441,Tecumseh,39.563,-87.422
07398,Roseland,41.716,-86.253
03420,Gosport,39.351,-86.667
04884,Lynnville,38.196,-87.297
05239,Marengo,38.369,-86.344
07824,Shirley,39.891,-85.580
01208,Bunker Hill,40.660,-86.103
08950,Waldron,39.454,-85.667
00954,Boswell,40.521,-87.378
00948,Borden,38.467,-85.946
03257,Gaston,40.314,-85.501
05679,Montgomery,38.663,-87.046
05575,Milltown,38.342,-86.275
05446,Memphis,38.483,-85.762
08808,Van Buren,40.617,-85.505
03661,Hamlet,41.548,-86.582
00347,Atlanta,40.215,-86.026
09361,Winslow,38.382,-87.213
07732,Selma,40.192,-85.269
04801,Leopold,38.104,-86.583
04872,Linden,40.188,-86.904
02204,Darlington,40.110,-86.772
03104,Fountain City,39.956,-84.917
06536,Patoka,38.407,-87.586
01817,Colfax,40.195,-86.667
03462,Grandview,37.934,-86.981
02766,English,38.334,-86.464
07246,Ridgeville,40.289,-85.029
09134,West Lebanon,40.270,-87.387
05991,New Harmony,38.130,-87.935
00419,Bainbridge,39.761,-86.812
03707,Harmony,39.537,-87.106
02460,Dublin,39.812,-85.209
08433,Taylorsville,39.296,-85.951
03761,Hatfield,37.903,-87.224
07827,Shoals,38.666,-86.791
06295,Oldenburg,39.340,-85.204
01572,Charlottesville,39.790,-85.613
05431,Medora,38.825,-86.170
00385,Avoca,38.912,-86.548
07396,Rosedale,39.623,-87.283
05581,Milroy,39.497,-85.470
05100,Lyons,38.989,-87.082
06609,Pennville,40.494,-85.148
01381,Carlisle,38.968,-87.406
03615,Holland,38.246,-87.036
01690,Clarks Hill,40.247,-86.725
01309,Camden,40.609,-86.540
04074,Hudson,41.533,-85.081
09513,Zanesville,40.915,-85.280
04549,La Crosse,41.318,-86.891
06009,New Market,39.953,-86.921
01778,Coatesville,39.688,-86.670
04464,Kingman,39.968,-87.278
07779,Sharpsville,40.379,-86.089
04771,Leesburg,41.332,-85.850
02180,Dana,39.808,-87.495
02153,Cynthiana,38.188,-87.710
04456,Kimmell,41.395,-85.548
02873,Fairland,39.586,-85.864
03127,Francisco,38.332,-87.445
04627,Lake Village,41.138,-87.449
01318,Campbellsburg,38.651,-86.261
02972,Fillmore,39.668,-86.753
07195,Reynolds,40.749,-86.872
01225,Burlington,40.480,-86.395
01539,Chalmers,40.663,-86.869
00047,Advance,39.996,-86.620
03732,Harrodsburg,39.013,-86.545
03931,Hillsboro,40.109,-87.186
06779,Plainville,38.806,-87.152
05310,Matthews,40.389,-85.499
05660,Monroe City,38.615,-87.354
06041,New Washington,38.563,-85.540
02070,Cromwell,41.401,-85.616
02301,Denver,40.866,-86.077
07791,Shelby,41.195,-87.348
04562,La Paz,41.460,-86.308
08171,Staunton,39.488,-87.189
06157,North Salem,39.860,-86.642
06031,New Salisbury,38.314,-86.095
04396,Kennard,39.904,-85.519
05583,Milton,39.788,-85.155
06631,Perrysville,40.051,-87.433
05487,Metamora,39.450,-85.139
01143,Bruceville,38.759,-87.416
09045,Waveland,39.877,-87.044
07295,Roann,40.912,-85.924
03670,Hanna,41.412,-86.780
09301,Williams Creek,39.900,-86.150
03994,Holton,39.075,-85.387
09295,Wilkinson,39.886,-85.609
08106,St. Joe,41.315,-84.901
00783,Birdseye,38.317,-86.696
06065,Newport,39.884,-87.409
00195,Amo,39.688,-86.614
02678,Elizabethtown,39.135,-85.813
04714,Laurel,39.501,-85.186
00285,Arlington,39.642,-85.576
07222,Richland,37.945,-87.168
00164,Alto,40.440,-86.166
01707,Claypool,41.129,-85.881
06362,Orland,41.731,-85.172
09198,Wheatland,38.664,-87.309
03158,Freetown,38.973,-86.129
04639,Laketon,40.974,-85.836
05181,Manilla,39.574,-85.619
01714,Clear Lake,41.738,-84.833
07967,Somerset,40.669,-85.828
00188,Americus,40.526,-86.758
08652,Troy,37.995,-86.798
04118,Idaville,40.757,-86.649
02497,Dupont,38.890,-85.514
08055,Spring Grove,39.848,-84.894
04825,Lewisville,39.807,-85.353
05701,Mooreland,39.998,-85.251
08292,Sulphur Springs,40.005,-85.443
07365,Rolling Prairie,41.671,-86.616
00066,Ainsworth,41.488,-87.259
00183,Amboy,40.601,-85.929
03745,Hartsville,39.268,-85.698
06020,New Point,39.310,-85.329
09150,West Point,40.345,-87.043
06026,New Richmond,40.196,-86.979
07372,Romney,40.249,-86.904
07478,Russellville,39.858,-86.984
03195,Fulton,40.947,-86.263
02461,Dubois,38.445,-86.804
04386,Kempton,40.288,-86.230
08750,Uniondale,40.831,-85.242
03118,Fowlerton,40.409,-85.574
05269,Marshall,39.848,-87.188
00868,Bloomingdale,39.833,-87.250
04755,Leavenworth,38.200,-86.344
05419,Mecca,39.727,-87.331
01370,Carbon,39.598,-87.119
01773,Coalmont,39.193,-87.231
08250,Straughn,39.809,-85.291
07969,Somerville,38.276,-87.378
00127,Allendale,39.392,-87.396
03276,Gentryville,38.104,-87.033
09138,West Middleton,40.439,-86.216
09349,Wingate,40.172,-87.073
05893,Napoleon,39.205,-85.331
01157,Bryant,40.533,-84.964
01249,Butlerville,39.035,-85.513
01964,Corunna,41.437,-85.147
03367,Glenwood,39.626,-85.302
08856,Vernon,38.985,-85.609
07163,Riley,39.390,-87.300
00181,Ambia,40.490,-87.517
07635,Saratoga,40.237,-84.918
08156,Star City,40.972,-86.556
03693,Hardinsburg,38.461,-86.279
08457,Tennyson,38.082,-87.118
09200,Wheeler,41.512,-87.179
01510,Center Point,39.417,-87.077
00166,Altona,41.351,-85.155
04610,Lake Hart,39.568,-86.432
06071,Newtown,40.204,-87.148
08057,Spring Lake,39.777,-85.853
09346,Wynnedale,39.831,-86.197
07327,Rockfield,40.641,-86.574
01735,Clifford,39.282,-85.869
06539,Patriot,38.839,-84.827
02676,Elizabeth,38.121,-85.974
05126,Macy,40.959,-86.127
02241,Decker,38.519,-87.523
07679,Scipio,39.079,-85.718
06831,Point Isabel,40.422,-85.824
04471,Kingsbury,41.528,-86.700
03801,Hazleton,38.489,-87.542
04910,Little York,38.703,-85.905
01163,Buck Creek,40.488,-86.761
05674,Monterey,41.157,-86.483
04317,Jonesville,39.061,-85.890
00030,Adams,39.383,-85.560
06186,Norway,40.778,-86.759
05683,Montmorenci,40.474,-87.029
08083,Spurgeon,38.252,-87.257
04240,Jalapa,40.628,-85.746
02022,Crane,38.891,-86.904
01802,Colburn,40.519,-86.714
06050,Newberry,38.925,-87.019
01272,Cadiz,39.951,-85.487
05633,Modoc,40.045,-85.126
00952,Boston,39.741,-84.852
01482,Cedar Grove,39.357,-84.938
02600,Economy,39.978,-85.088
03564,Griffin,38.204,-87.915
02026,Crandall,38.288,-86.066
08069,Springport,40.048,-85.394
05118,Mackey,38.252,-87.392
07844,Sidney,41.106,-85.744
09300,Williams,38.804,-86.647
01218,Burket,41.155,-85.969
01238,Burrows,40.677,-86.507
03513,Green Hill,40.414,-87.111
05775,Mount Auburn,39.813,-85.190
03542,Greensboro,39.875,-85.466
05540,Milford,39.350,-85.619
07686,Scotland,38.913,-86.904
09501,Young America,40.569,-86.347
09461,Wyatt,41.526,-86.169
04148,Indian Village,41.714,-86.236
05776,Mount Ayr,40.952,-87.299
02250,Deer Creek,40.614,-86.391
02250,Deer Creek,41.421,-87.258
08726,Ulen,40.063,-86.464
05773,Mount Etna,40.743,-85.562
07803,Shepardsville,39.601,-87.418
03098,Foster,40.148,-87.471
04921,Livonia,38.557,-86.277
00872,Blountsville,40.060,-85.240
07875,Sims,40.500,-85.855
00728,Bethany,39.533,-86.376
08056,Spring Hill,39.835,-86.193
07555,Saltillo,38.665,-86.289
00103,Alert,39.160,-85.678
06012,New Middletown,38.164,-86.051
01330,Canaan,38.867,-85.296
02023,Kramer,40.339,-87.287
03027,Florence,38.784,-84.924
08963,Wallace,39.986,-87.148
01175,Buckskin,38.228,-87.412
04130,Independence,40.337,-87.169
05779,Mount Carmel,39.407,-84.873
06332,Onward,40.695,-86.195
08450,Templeton,40.513,-87.207
04578,Laconia,38.032,-86.086
09258,Whitewater,39.945,-84.831
08844,Vera Cruz,40.701,-85.079
03806,Hedrick,40.302,-87.491
00078,Alamo,39.982,-87.057
04331,Judson,40.504,-86.271
01693,Clarksburg,39.433,-85.348
05273,Marshfield,40.251,-87.453
06599,Pence,40.361,-87.511
08435,Taylorville,39.462,-87.424
09183,Westphalia,38.863,-87.226
08387,Tab,40.411,-87.473
00264,Arcola,41.104,-85.294
00025,Acme,38.978,-86.059
00165,Alton,38.123,-86.418
07049,Rainsville,40.416,-87.316
03146,Fredericksburg,38.433,-86.190
07277,River Forest,40.110,-85.727
02440,Dresser,39.463,-87.424
05493,Mier,40.575,-85.826
05949,New Amsterdam,38.102,-86.275
00000,Aaron,38.883,-85.127
00008,Aberdeen,38.905,-84.987
00013,Abington,39.733,-84.963
00037,Ade,40.868,-87.445
00038,Adel,39.192,-86.796
00050,Etna,41.274,-85.574
00052,Africa,37.840,-87.073
00070,Aix,41.041,-87.151
00079,Alaska,39.470,-86.641
00089,Albion,38.744,-85.734
00098,Aldine,41.201,-86.674
00109,Alford,38.491,-87.243
00113,Algiers,38.487,-87.175
00122,Alida,41.511,-86.903
00130,Allensville,38.873,-85.020
00136,Alliance,40.033,-85.650
00154,Alpine,39.554,-85.176
00158,Alta,39.772,-87.387
00173,Alvarado,41.573,-84.837
00187,America,40.679,-85.702
00189,Ames,40.033,-86.887
00192,Amity,39.426,-86.001
00207,Andersonville,39.498,-85.289
00220,Annapolis,39.852,-87.251
00224,Anoka,40.722,-86.282
00231,Anthony,40.278,-85.436
00232,Antioch,40.228,-86.506
00232,Antioch,39.099,-87.237
00232,Antioch,40.368,-84.942
00232,Antioch,38.859,-84.884
00261,Arcana,40.539,-85.503
00266,Ardmore,41.689,-86.317
00292,Armstrong,38.109,-87.647
00298,Aroma,40.199,-85.874
00303,Art,39.403,-87.155
00307,Arthur,38.341,-87.246
00308,Artic,41.474,-84.815
00316,Ash Grove,40.548,-86.848
00323,Asherville,39.475,-87.062
00327,Ashland,39.926,-85.304
00342,Athens,41.054,-86.125
00343,Atherton,39.608,-87.362
00346,Atkinson,40.563,-87.247
00357,Atwood,41.261,-85.975
00367,Augusta,38.331,-87.191
00369,Ora,41.177,-86.555
00369,Ora,41.174,-86.553
00382,Avery,40.309,-86.441
00394,Aylesworth,40.203,-87.243
00396,Ayrshire,38.372,-87.241
00398,Azalia,39.092,-85.847
00406,Bacon,38.411,-86.433
00416,Baileys Corner,41.071,-86.998
00423,Baker,39.130,-87.311
00427,Bakertown,41.366,-85.357
00451,Bandon,38.137,-86.600
00461,Banta,39.524,-86.250
00475,Barnard,39.849,-86.701
00492,Barrett,38.201,-87.869
00523,Bath,39.508,-84.862
00539,Bayfield,41.275,-85.707
00559,Beal,38.577,-87.630
00562,Beamer,39.367,-86.938
00563,Bear Branch,38.913,-85.075
00565,Bear Lake,41.323,-85.518
00570,Beard,40.374,-86.451
00572,Beardstown,41.138,-86.603
00586,Beaver City,40.907,-87.416
00588,Beaver Dam,41.086,-86.013
00599,Beckville,40.011,-86.710
00605,Bee Ridge,39.537,-87.169
00609,Beech Grove,39.517,-86.446
00612,Beechwood,38.207,-86.424
00631,Belknap,37.983,-87.688
00632,Bell Center,40.869,-86.639
00647,Belleview,38.856,-85.378
00648,Belleville,39.677,-86.488
00652,Bellfountain,40.433,-84.864
00654,Bellmore,39.759,-87.105
00664,Belmont,39.152,-86.347
00679,Bengal,39.473,-85.923
00680,Benham,38.984,-85.250
00685,Bennettsville,38.426,-85.809
00686,Bennington,38.859,-85.141
00692,Benton,41.509,-85.761
00694,Bentonville,39.745,-85.194
00696,Benwood,39.561,-87.114
00713,Burney,39.317,-85.640
00727,Bethel,40.250,-85.534
00727,Bethel,39.987,-84.830
00728,Bethany,39.174,-86.065
00728,Bethany,39.854,-87.147
00731,Bethlehem,38.539,-85.421
00753,Big Lake,41.269,-85.498
00760,Big Springs,40.070,-86.261
00768,Billingsville,39.556,-84.910
00786,Birmingham,40.938,-86.109
00786,Birmingham,40.469,-86.849
00788,Byron,41.656,-86.625
00788,Byron,39.904,-87.106
00809,Black Oak,38.663,-87.081
00817,Blackhawk,39.309,-87.300
00830,Blaine,40.403,-85.056
00833,Blairsville,38.079,-87.762
00836,Blakesburg,39.807,-86.910
00853,Blocher,38.718,-85.657
00860,Bloomer,40.084,-85.768
00862,Bloomfield,40.512,-84.974
00862,Bloomfield,38.024,-87.096
00864,Blooming Grove,39.502,-85.065
00875,Blue,38.925,-85.005
00885,Blue Lake,41.240,-85.349
00886,Blue Lick,38.508,-85.805
00890,Blue Ridge,39.519,-85.636
00891,Blue River,38.530,-85.939
00898,Bluff Creek,39.557,-86.221
00906,Bobtown,39.019,-85.946
00924,Bolivar,40.964,-85.787
00938,Bono,38.731,-86.321
00938,Bono,39.760,-87.494
00965,Bowers,40.157,-86.725
00966,Bowerstown,40.889,-85.442
00970,Bowling Green,39.383,-87.012
00971,Bowman,38.496,-87.347
00976,Boyd,39.719,-85.551
00986,Bracken,40.987,-85.624
00992,Bradford,38.368,-86.062
01000,Bramble,38.779,-86.909
01004,Branchville,38.164,-86.580
01019,Braysville,39.288,-84.870
01019,Braysville,39.212,-86.774
01021,Braytown,38.731,-85.159
01026,Breckenridge,38.218,-86.033
01048,Briarwood,39.551,-86.507
01049,Brice,40.418,-84.896
01059,Bridgeport,38.176,-85.906
01061,Bridgeton,39.645,-87.177
01069,Brighton,41.722,-85.311
01072,Brimfield,41.454,-85.398
01079,Bristow,38.140,-86.722
01103,Brookfield,39.638,-85.943
01128,Browns Crossing,39.406,-86.506
01130,Browns Valley,39.903,-86.992
01134,Brownstown,38.381,-86.503
01135,Brownsville,39.664,-85.005
01149,Brunswick,39.197,-87.120
01149,Brunswick,41.378,-87.508
01158,Bryantsburg,38.886,-85.374
01159,Bryantsville,38.769,-86.573
01161,Buchanan,38.216,-85.899
01164,Buckeye,40.691,-85.354
01179,Bucktown,38.995,-87.260
01182,Bud,39.447,-86.176
01187,Buena Vista,39.439,-85.272
01187,Buena Vista,38.059,-85.980
01187,Buena Vista,40.121,-85.073
01188,Buffalo,39.021,-84.884
01208,Bunker Hill,39.633,-85.213
01208,Bunker Hill,39.566,-86.441
01213,Burdick,41.601,-86.973
01226,Burnett,39.543,-87.296
01232,Burnsville,39.173,-85.740
01236,Burr Oak,41.256,-86.415
01236,Burr Oak,41.323,-85.433
01277,Cale,38.796,-86.751
01279,Cairo,40.541,-86.925
01284,Calcutta,39.604,-87.069
01307,Cambria,40.366,-86.559
01322,Campbelltown,38.421,-87.240
01353,Canton,38.624,-86.035
01361,Capehart,38.746,-87.194
01372,Carbondale,40.360,-87.347
01375,Carefree,38.252,-86.351
01376,Cary,39.708,-86.823
01382,Carlos,40.026,-85.034
01396,Carpentersville,39.806,-86.806
01401,Carrollton,40.518,-86.392
01401,Carrollton,39.706,-85.821
01401,Carrollton,39.706,-85.820
01432,Kasson,38.017,-87.636
01434,Cass,39.087,-87.278
01439,Cassville,40.560,-86.123
01450,Cataract,39.428,-86.816
01456,Catlin,39.694,-87.235
01457,Cato,38.437,-87.186
01473,Cedar,41.313,-85.156
01493,Cedar Shores,41.227,-85.072
01502,Celina,38.188,-86.613
01504,Centenary,39.658,-87.473
01505,Centennial,40.011,-87.243
01506,Center,40.434,-86.061
01506,Center,40.445,-85.077
01506,Center,38.049,-87.343
01508,Center Grove,39.577,-86.197
01511,Center Square,38.836,-85.031
01512,Center Valley,39.630,-86.480
01512,Center Valley,39.514,-86.409
01516,Centerton,39.515,-86.395
01519,Centerville,37.994,-87.063
01520,Central,38.100,-86.159
01531,Ceylon,40.607,-84.953
01535,Chain-O-Lakes,41.708,-86.380
01545,Chambersburg,38.518,-86.392
01553,Chandler,38.422,-87.352
01559,Chapel Hill,38.999,-86.449
01572,Charlottesville,39.536,-84.853
01575,Chase,40.519,-87.342
01587,Chelsea,38.651,-85.525
01598,Cherry Grove,40.136,-86.904
01603,Cherryvale,39.463,-87.239
01609,Chester,39.888,-84.888
01612,Chesterville,39.068,-85.052
01616,Chestnut Ridge,38.889,-85.860
01629,Chili,40.860,-86.026
01634,China,38.826,-85.338
01651,Christiansburg,39.089,-86.156
01666,Cincinnati,39.020,-86.729
01666,Cincinnati,39.857,-87.226
01669,Circleville,39.600,-85.439
01669,Scircleville,40.288,-86.300
01678,Clare,40.098,-85.966
01689,Clarks,41.133,-86.890
01694,Clarksdale,39.200,-86.126
01697,Clarksville,40.032,-85.912
01706,Clay City,38.083,-86.952
01708,Claysville,38.623,-86.289
01712,Clear Creek,39.109,-86.540
01715,Clear Spring,38.925,-86.210
01732,Cleveland,39.790,-85.645
01738,Clifton,39.691,-84.956
01741,Clinton,39.211,-85.132
01742,Clinton Falls,39.719,-86.964
01754,Cloverland,39.501,-87.231
01761,Cole,40.480,-85.787
01762,Coal City,39.230,-87.046
01763,Coal Creek,40.036,-87.381
01782,Cobb,39.581,-87.223
01786,Coburg,41.519,-86.949
01791,Coe,38.306,-87.260
01802,Colburn,41.549,-86.268
01807,Cold Springs,39.071,-85.073
01820,College Corner,40.411,-84.977
01820,College Corner,40.694,-85.885
01828,Collins,41.197,-85.387
01834,Coloma,39.788,-87.292
01835,Columbia,39.576,-85.207
01860,Como,40.385,-85.087
01869,Concord,41.326,-84.945
01869,Concord,40.293,-86.838
01898,Conrad,41.105,-87.443
01901,Converse,40.389,-85.239
01923,Cope,39.450,-86.319
01938,Cory,39.382,-87.206
01948,Cornelius,39.300,-86.298
01951,Cornettsville,38.757,-87.110
01952,Corning,38.583,-87.017
01962,Cortland,38.973,-85.964
01972,Cottage Grove,39.596,-84.862
01973,Cottage Hill,39.517,-87.149
02005,Cowan,40.106,-85.389
02010,Coxton,38.829,-86.561
02019,Craig,39.332,-85.519
02021,Craigville,40.778,-85.091
02048,Cresco,41.236,-85.492
02053,Creston,41.338,-87.431
02057,Crete,40.043,-84.862
02064,Crocker,41.588,-87.122
02073,Crooked Lake,41.680,-85.037
02082,Cross Plains,38.944,-85.205
02083,Cross Roads,40.092,-85.500
02083,Cross Roads,39.279,-85.242
02084,Crossroads,38.102,-87.646
02109,Crystal,38.492,-86.754
02117,Cuba,41.186,-84.939
02117,Cuba,39.378,-86.798
02132,Curby,38.288,-86.377
02132,Kirby,39.137,-86.610
02139,Curryville,40.786,-85.072
02139,Curryville,39.187,-87.392
02142,Curtisville,40.318,-85.899
02150,Cutler,40.476,-86.524
02152,Cyclone,40.228,-86.433
02154,Cypress,37.914,-87.630
02158,Dabney,39.090,-85.347
02160,Daggett,39.216,-87.039
02169,Dale,40.017,-86.400
02175,Dalton,39.983,-85.182
02214,Davidson,37.968,-86.047
02224,Daylight,38.094,-87.491
02227,Dayville,37.954,-87.322
02246,Deep River,41.476,-87.223
02253,Deer Park,41.159,-87.199
02255,Deerfield,40.279,-84.976
02271,Delaware,39.148,-85.207
02282,Delong,41.138,-86.416
02287,Deming,40.115,-86.099
02288,Denham,41.152,-86.714
02291,Denmark,39.270,-87.026
02304,Derby,38.030,-86.527
02310,DeSoto,40.247,-85.294
02317,Devore,39.430,-86.753
02319,Dewey,39.509,-87.376
02322,Dexter,38.059,-86.479
02326,Diamond,39.611,-87.166
02335,Dickeyville,38.156,-87.221
02337,Dixon,40.950,-84.803
02337,Dixon,39.071,-87.033
02344,Dillman,40.610,-85.429
02353,Dinwiddie,41.289,-87.301
02361,Dixie,38.160,-86.212
02363,Dixonville,38.802,-86.284
02379,Dogwood,38.105,-86.084
02380,Dolan,39.240,-86.499
02387,Donaldson,41.361,-86.444
02388,Donaldsonville,39.529,-87.099
02391,Dongola,38.372,-87.340
02415,Douglas,38.331,-87.502
02419,Dover,40.054,-86.620
02419,Dover,39.241,-84.948
02431,Doyle,40.808,-86.074
02468,Duff,38.327,-87.026
02481,Duncan,38.288,-85.925
02484,Dundee,40.272,-85.756
02488,Dunkirk,40.756,-86.394
02502,Durbin,40.056,-85.911
02503,Durham,38.260,-87.581
02529,Eagle Village,39.961,-86.246
02531,Eagletown,40.042,-86.196
02533,Earle,38.086,-87.513
02557,East Haven,39.839,-84.931
02560,East Liberty,40.936,-84.862
02597,Eby,38.142,-87.261
02602,Eddy,41.536,-85.438
02604,Eden,39.906,-85.770
02613,Edgerton,41.077,-84.806
02633,Edwardsville,38.284,-85.909
02636,Effner,40.771,-87.526
02641,Egypt,40.859,-87.204
02675,Elliott,38.122,-87.473
02679,Elizaville,40.127,-86.376
02704,Ellis,39.064,-87.223
02704,Ellis,41.633,-84.916
02707,Elliston,39.027,-86.969
02708,Ellisville,41.018,-85.284
02717,Elmdale,40.137,-87.017
02720,Elmira,41.592,-85.204
02728,Elrod,39.055,-85.164
02747,Eminence,39.521,-86.641
02748,Emma,41.611,-85.541
02753,Emporia,40.004,-85.634
02754,Enchanted Hills,41.402,-85.667
02777,Enterprise,37.843,-87.182
02784,Epsom,38.785,-87.063
02789,Erie,38.883,-86.381
02789,Erie,40.801,-85.991
02795,Erwin,37.980,-87.919
02815,Ethel,38.404,-86.524
02825,Eugene,39.966,-87.473
02827,Eureka,38.871,-86.563
02827,Eureka,37.881,-87.215
02833,Evanston,38.039,-86.842
02843,Everton,39.563,-85.090
02846,Ewing,38.885,-86.055
02847,Ewington,39.326,-85.568
02851,Exchange,39.502,-86.322
02860,Fair Oaks,41.075,-87.257
02863,Fairbanks,39.219,-87.522
02867,Fairdale,38.326,-86.171
02869,Fairfax,39.008,-86.481
02870,Fairfield,39.507,-84.995
02882,Fairview,39.686,-85.301
02882,Fairview,40.298,-85.195
02882,Fairview,38.873,-85.081
02882,Fairview,38.738,-86.267
02901,Falmouth,39.701,-85.301
02911,Fargo,40.519,-87.279
02911,Fargo,38.400,-86.483
02916,Farmers,39.175,-86.892
02916,Farmers,39.699,-85.537
02919,Farmersville,37.980,-87.896
02921,Farmington,39.618,-85.359
02938,Fayette,39.931,-86.397
02939,Fayetteville,38.861,-86.595
02939,Fayetteville,38.451,-86.262
02956,Ferndale,39.707,-87.067
02961,Fiat,40.553,-85.150
02973,Fincastle,39.808,-86.895
02979,Finly,39.706,-85.819
02988,Fishersburg,40.072,-85.861
02988,Fishersburg,40.072,-85.859
02989,Fisherville,38.085,-87.441
03000,Five Points,41.123,-84.940
03000,Five Points,39.581,-86.317
03000,Five Points,38.747,-85.175
03000,Five Points,39.712,-84.852
03000,Five Points,40.582,-85.320
03000,Five Points,41.193,-85.491
03008,Flat Iron,40.053,-87.490
03009,Flat Rock,39.364,-85.832
03015,Fleming,38.974,-85.806
03017,Fletcher,40.912,-86.333
03019,Flint,41.650,-85.127
03025,Flora,40.734,-86.100
03028,Florida,40.160,-85.710
03046,Foraker,41.516,-85.924
03055,Foresman,40.500,-87.151
03055,Foresman,40.866,-87.295
03056,Forest,40.374,-86.333
03057,Forest City,41.195,-87.267
03058,Forest Glen,41.327,-85.764
03061,Forest Hill,39.257,-85.613
03065,Forest Park,41.550,-84.925
03103,Fountain,40.223,-87.335
03107,Fountain Park,41.563,-84.914
03110,Fountaintown,39.695,-85.783
03120,Fox,40.640,-85.695
03125,Frances,39.606,-86.169
03133,Franklin,39.974,-85.191
03148,Fredonia,38.178,-86.383
03151,Freedom,39.207,-86.869
03154,Freeman,39.195,-86.734
03156,Freeport,39.659,-85.726
03163,Frenchtown,38.315,-86.214
03171,Friendship,38.970,-85.148
03173,Friendswood,39.646,-86.333
03185,Fruitdale,39.322,-86.258
03191,Fulda,38.111,-86.836
03199,Furnace,39.014,-86.913
03201,Gadsden,40.047,-86.346
03203,Gale,39.767,-86.467
03233,Garden City,39.183,-85.933
03241,Garfield,40.083,-86.824
03253,Gasburg,39.594,-86.437
03261,Gates Corner,40.106,-85.253
03262,Gatesville,39.262,-86.146
03269,Gem,39.779,-85.897
03272,Geneva,39.392,-85.720
03279,Georgetown,41.232,-84.866
03279,Georgetown,40.741,-86.505
03279,Georgetown,40.171,-85.129
03279,Georgetown,38.648,-85.998
03281,Georgia,38.710,-86.572
03283,Gerald,38.008,-86.573
03288,Germantown,39.415,-85.626
03289,Germany,38.462,-85.543
03306,Gifford,41.071,-87.052
03312,Gilead,40.970,-86.019
03313,Guilford,39.168,-84.912
03352,Glendale,38.568,-87.077
03356,Glendora,39.128,-87.363
03389,Goldsmith,40.289,-86.149
03419,Goshen,38.671,-85.710
03437,Grafton,38.001,-87.954
03438,Graham,38.722,-87.196
03438,Graham,40.157,-87.195
03467,Grange Corner,39.940,-87.186
03467,Grange Corner,39.446,-87.258
03476,Grant City,39.866,-85.543
03478,Grantsburg,38.288,-86.469
03481,Granville,40.317,-85.319
03484,Grass Creek,40.947,-86.404
03494,Gravel Hill,40.650,-87.370
03495,Gravelton,41.436,-85.924
03500,Graysville,39.117,-87.556
03506,Greene,40.408,-85.100
03507,Green Acres,41.484,-87.297
03518,Green Meadows,40.440,-86.966
03520,Green Oak,40.996,-86.184
03531,Greenbrier,38.463,-86.556
03531,Greenbrier,38.121,-87.284
03548,Greenville,39.141,-87.302
03548,Greenville,40.654,-85.226
03552,Greenwood,39.810,-84.885
03552,Greenwood,40.844,-85.177
03582,Groveland,39.761,-86.720
03594,Guion,39.843,-87.111
03608,Guthrie,38.977,-86.509
03610,Guy,40.435,-85.976
03623,Hadley,39.731,-86.603
03641,Hall,39.550,-86.536
03655,Hamburg,38.383,-85.767
03655,Hamburg,39.381,-85.251
03659,Hamilton,40.345,-86.618
03659,Hamilton,40.123,-85.785
03659,Hamilton,41.732,-86.478
03673,Handy,40.501,-87.471
03673,Handy,39.096,-86.494
03693,Hardinsburg,39.122,-84.847
03694,Hardscrabble,40.020,-85.843
03698,Herr,39.956,-86.432
03703,Harlansburg,40.814,-85.564
03713,Harper,39.144,-85.593
03721,Harris,41.415,-86.304
03722,Harris City,39.281,-85.527
03723,Harrisburg,39.687,-85.180
03724,Harrison,39.529,-87.422
03729,Harristown,38.598,-86.024
03730,Harrisville,40.185,-84.882
03736,Hartford,38.993,-84.957
03740,Hartleyville,38.796,-86.535
03747,Hartwell,38.322,-87.180
03753,Harveysburg,39.982,-87.295
03754,Harwood,38.003,-87.574
03755,Haskell,41.484,-86.902
03757,Hastings,41.384,-85.929
03766,Hawton,39.126,-87.311
03790,Haysville,38.486,-86.915
03802,Hazelwood,39.616,-86.522
03820,Hiser,39.815,-85.078
03825,Helmer,41.531,-85.170
03829,Hemenway,38.204,-87.134
03830,Hemlock,40.420,-86.041
03834,Henderson,39.669,-85.520
03842,Henry,39.786,-85.588
03846,Hepburn,38.070,-87.801
03865,Hesston,41.753,-86.661
03871,Hibbard,41.253,-86.387
03872,Hibernia,38.502,-85.526
03872,Hibernia,40.004,-87.001
03875,Hickory Corner,39.305,-87.044
03899,Highland,39.794,-87.396
03899,Highland,38.649,-86.127
03901,Highland Center,39.322,-85.004
03918,Hillham,38.514,-86.701
03923,Hillcrest,41.516,-87.051
03931,Hillsboro,39.968,-85.332
03932,Hillsdale,38.083,-87.551
03932,Hillsdale,39.786,-87.390
03937,Hilltown,38.837,-85.662
03954,Hitchcock,38.638,-86.169
03959,Hobbs,40.284,-85.948
03990,Holmesville,41.600,-86.881
04000,Homer,39.578,-85.578
04007,Honduras,40.758,-85.033
04008,Honey Creek,40.034,-85.486
04011,Honeyville,41.582,-85.602
04017,Hoosier,39.067,-87.186
04018,Hoover,40.809,-86.201
04023,Hopeville,39.704,-84.974
04024,Hopewell,41.281,-85.021
04024,Hopewell,39.492,-86.117
04030,Horace,39.263,-85.564
04042,Hortonville,40.086,-86.161
04050,Houston,39.016,-86.191
04052,Hovey,37.892,-87.942
04054,Howard,39.916,-87.376
04060,Howesville,39.177,-87.147
04070,Hubbell,39.183,-87.012
04071,Huber,39.686,-85.139
04075,Hudsonville,38.539,-87.073
04076,Huffman,38.102,-86.777
04093,Huntersville,39.304,-85.233
04098,Huntsville,40.009,-85.730
04098,Huntsville,40.071,-85.072
04100,Huron,38.722,-86.671
04107,Hutton,39.318,-87.534
04122,Ijamsville,40.960,-85.833
04123,Illinoi,41.190,-87.526
04140,Indian Hill,41.328,-86.678
04141,Indian Hills,41.624,-85.157
04146,Indian Springs,38.796,-86.765
04148,Indian Village,41.366,-85.639
04182,Inverness,41.701,-85.094
04183,Inwood,41.318,-86.203
04185,Iona,38.549,-87.472
04193,Ireland,38.415,-86.999
04201,Ironton,38.662,-86.775
04211,Island City,39.009,-87.148
04214,Island Park,41.287,-85.800
04214,Island Park,41.541,-84.921
04223,Iva,38.503,-87.119
04232,Jackson,39.065,-85.441
04232,Jackson,40.329,-86.061
04235,Jacksonburg,39.853,-85.106
04237,Jacksonville,38.829,-85.049
04247,Jamestown,41.636,-86.023
04247,Jamestown,41.750,-85.020
04261,Jeff,40.606,-85.353
04263,Jefferson,40.279,-86.590
04269,Jenkinsville,39.533,-86.875
04275,Jericho,39.061,-87.297
04277,Jerome,40.455,-85.931
04282,Jessup,39.657,-87.257
04296,Johnsburg,38.218,-86.956
04297,Johnson,38.278,-87.746
04301,Johnsonville,40.227,-87.486
04304,Johnstown,39.167,-87.009
04316,Jonestown,39.709,-87.502
04319,Joppa,39.632,-86.432
04320,Jordan,38.689,-87.207
04320,Jordan,39.398,-86.917
04328,Judah,38.961,-86.537
04331,Judson,39.813,-87.134
04351,Kankakee,41.508,-86.539
04374,Keller,39.360,-87.324
04375,Kellerville,38.482,-86.832
04398,Kennedy,38.081,-86.922
04400,Kenneth,40.761,-86.473
04407,Kent,38.738,-85.540
04423,Kersey,41.194,-87.156
04438,Keystone,40.596,-85.259
04459,Kinder,39.544,-86.197
04461,King,38.304,-87.576
04472,Kingsland,40.830,-85.177
04474,Kingston,39.379,-85.388
04482,Kinsey,41.096,-85.705
04490,Kirkpatrick,40.206,-86.819
04491,Kirksville,39.046,-86.613
04504,Klondike,40.468,-86.962
04505,Klondyke,39.791,-87.339
04505,Klondyke,39.669,-87.437
04515,Noble,40.469,-84.826
04521,Knox,39.823,-85.542
04536,Kossuth,38.704,-86.102
04542,Kurtz,38.961,-86.203
04543,Kyle,39.138,-84.988
04574,Lacy,38.634,-86.776
04597,Lake Bruce,41.070,-86.464
04597,Lake Bruce,41.073,-86.465
04617,Lake of the Woods,41.422,-86.223
04618,Lake Park,41.711,-86.550
04626,Lake View,39.486,-85.248
04636,Lakeside,40.934,-86.738
04637,Lakeside Park,41.252,-85.849
04644,Lakewood,39.397,-87.302
04649,Lamar,38.069,-86.906
04651,Lamb,38.692,-85.188
04660,Lancaster,40.749,-85.507
04660,Lancaster,38.831,-85.519
04683,Laotto,41.290,-85.198
04683,LaOtto,41.290,-85.198
04713,Laura,41.100,-87.067
04733,Lawrenceville,39.278,-85.039
04735,Lawton,41.100,-86.525
04738,Layton,40.128,-87.333
04750,Lena,39.605,-87.107
04753,Leatherwood,39.752,-87.285
04763,Lee,40.896,-86.968
04772,Leesville,38.846,-86.284
04779,Leipsic,38.671,-86.370
04781,Leisure,40.364,-85.843
04802,Leota,38.648,-85.850
04804,Leroy,41.360,-87.272
04810,Letts,39.235,-85.565
04820,Lewis,39.260,-87.257
04820,Lewis,39.260,-87.255
04822,Lewisburg,40.747,-86.218
04823,Lewiston,41.027,-87.046
04825,Lewisville,39.471,-86.632
04826,Lexington,40.459,-86.489
04826,Lexington,38.652,-85.625
04829,Liberal,38.046,-86.943
04832,Liberty Center,40.699,-85.281
04835,Libertyville,39.603,-87.519
04842,Liggett,39.479,-87.484
04856,Limedale,39.619,-86.879
04861,Lincoln,40.616,-86.210
04862,Lincoln City,38.121,-86.999
04868,Lincolnville,40.754,-85.678
04880,Linkville,41.416,-86.287
04882,Linn Grove,40.645,-85.033
04887,Linwood,40.194,-85.682
04889,Lisbon,41.411,-85.260
04906,Little Rock,38.495,-87.679
04929,Lochiel,40.664,-87.274
04930,Locke,41.472,-86.012
04933,Lockport,40.699,-86.574
04940,Locust Grove,39.770,-84.852
04946,Lodi,39.950,-87.406
04948,Logan,39.248,-84.895
04948,Logan,38.942,-86.508
04958,Lomax,41.259,-86.872
04960,London,39.626,-85.920
04969,Lone Tree,39.126,-87.129
04979,Long Run,38.753,-85.118
04992,Lookout,39.195,-85.207
04999,Lorane,41.207,-85.559
05001,Loree,40.646,-86.058
05019,Lost River,38.607,-86.451
05023,Lotus,39.613,-84.890
05036,Lovett,38.911,-85.633
05044,Lowell,39.253,-85.946
05056,Lucerne,40.866,-86.403
05080,Luray,40.071,-85.367
05082,Luther,41.003,-85.574
05091,Lyford,39.650,-87.371
05101,Lyonsville,39.653,-85.054
05110,Mace,40.010,-86.796
05112,Macedonia,38.054,-85.960
05122,Maxville,40.172,-85.106
05122,Maxville,38.001,-86.826
05142,Magnet,38.097,-86.463
05143,Magnetic Springs,39.709,-86.473
05144,Magnolia,38.249,-86.393
05146,Mahon,40.939,-85.381
05158,Mays,39.744,-85.430
05161,Malden,41.376,-87.027
05172,Manchester,39.152,-85.012
05172,Manchester,40.098,-86.904
05178,Manhattan,39.555,-86.927
05194,Mansfield,39.676,-87.102
05196,Manson,40.240,-86.590
05203,Manville,38.788,-85.286
05218,Maple Valley,39.867,-85.587
05219,Maples,41.013,-84.969
05222,Maplewood,39.834,-86.505
05226,Marble Hill,38.593,-85.451
05236,Marco,38.936,-87.142
05245,Marietta,39.441,-85.884
05248,Marion,39.588,-85.759
05250,Marion Heights,39.495,-87.446
05279,Martin,38.124,-87.674
05283,Martinsburg,38.444,-86.026
05292,Marysville,38.586,-85.644
05292,Marysville,38.352,-87.278
05305,Matamoras,40.554,-85.263
05320,Maumee,39.021,-86.262
05324,Mauzy,39.624,-85.338
05325,Max,40.010,-86.582
05327,Maxwell,39.858,-85.770
05340,Maysville,38.648,-87.228
05366,McCoy,39.323,-85.414
05387,McKinley,38.745,-86.211
05402,McVille,39.153,-86.739
05413,Meadowbrook,40.420,-86.811
05420,Mechanicsburg,40.160,-86.481
05420,Mechanicsburg,39.601,-87.088
05420,Mechanicsburg,39.337,-85.367
05420,Mechanicsburg,40.005,-85.557
05422,Mechanicsville,38.034,-87.562
05424,Medford,40.121,-85.321
05435,Meiks,39.553,-85.750
05461,Mentor,38.316,-86.719
05472,Merriam,41.287,-85.434
05482,Messick,39.975,-85.303
05490,Metz,41.616,-84.839
05495,Miami,40.614,-86.106
05508,Middleboro,39.894,-84.832
05512,Middlebury,39.264,-87.119
05515,Middlefork,40.416,-86.392
05515,Middlefork,38.854,-85.472
05519,Middletown,40.943,-85.049
05519,Middletown,39.460,-85.649
05523,Midland,39.122,-87.192
05528,Midway,41.619,-85.891
05528,Midway,39.460,-85.217
05528,Midway,38.816,-85.463
05528,Midway,39.775,-87.317
05528,Midway,37.999,-87.138
05529,Mifflin,38.306,-86.540
05543,Mill Creek,41.581,-86.532
05554,Milledgeville,39.974,-86.497
05556,Miller,39.621,-86.282
05559,Millersburg,40.195,-86.024
05559,Millersburg,38.557,-86.336
05559,Millersburg,38.098,-87.422
05560,Millersport,38.343,-87.054
05569,Milligan,39.846,-87.038
05571,Millport,38.764,-86.103
05576,Millville,39.449,-85.124
05576,Millville,39.925,-85.252
05580,Milo,40.654,-85.468
05583,Milton,38.978,-85.015
05591,Mineral City,38.994,-86.880
05593,Mineral Springs,39.132,-85.861
05593,Mineral Springs,41.326,-85.744
05627,Moberly,38.270,-86.209
05632,Modesto,39.270,-86.548
05636,Mohawk,39.844,-85.841
05653,Monitor,40.420,-86.757
05655,Monmouth,40.868,-84.944
05658,Monroe,40.286,-86.735
05670,Montclair,39.848,-86.567
05694,Moody,40.992,-87.024
05697,Moonlight,41.584,-85.031
05699,Moore,41.397,-84.953
05700,Moorefield,38.806,-85.170
05705,Moorestown,38.719,-86.616
05717,Moran,40.388,-86.515
05743,Morris,39.282,-85.177
05750,Morton,39.763,-86.936
05751,Morven,39.421,-85.661
05753,Moscow,39.485,-85.557
05775,Mount Auburn,39.508,-85.194
05775,Mount Auburn,39.392,-85.894
05779,Mount Carmel,38.716,-86.249
05784,Mount Healthy,39.081,-86.038
05793,Mount Liberty,39.184,-86.130
05794,Mount Meridian,39.602,-86.757
05798,Mount Olive,38.799,-86.694
05800,Mount Pisgah,41.603,-85.244
05801,Mount Pleasant,40.849,-86.325
05801,Mount Pleasant,40.089,-85.306
05801,Mount Pleasant,39.460,-86.119
05801,Mount Pleasant,38.652,-86.892
05801,Mount Pleasant,38.122,-86.518
05805,Mount Sinai,39.081,-84.999
05806,Mount Sterling,38.796,-85.074
05807,Mount Tabor,39.311,-86.633
05809,Mount Vernon,40.670,-85.824
05813,Mount Zion,41.014,-86.149
05813,Mount Zion,40.650,-85.335
05853,Murdock,38.910,-86.508
05856,Murray,40.792,-85.201
05899,Nashville,39.928,-85.659
05902,Natchez,38.617,-86.711
05918,Nebraska,39.064,-85.459
05920,Needham,39.530,-85.971
05921,Needmore,39.251,-86.340
05921,Needmore,38.927,-86.530
05921,Needmore,39.619,-87.410
05944,Nevada,40.395,-86.004
05953,New Baltimore,38.177,-87.884
05956,New Boston,38.000,-86.011
05956,New Boston,38.059,-86.810
05959,New Britton,39.980,-86.010
05960,New Brunswick,39.944,-86.523
05962,New Burlington,40.120,-85.298
05967,New Carrollton,38.945,-85.365
05972,New Columbus,40.019,-85.656
05980,New Era,41.294,-85.121
05981,New Fairfield,39.507,-84.972
05983,New Frankfort,38.737,-85.711
05998,New Hope,39.183,-86.828
05998,New Hope,37.990,-87.223
06001,New Lancaster,40.255,-85.880
06002,New Lebanon,39.041,-87.471
06004,New Liberty,38.568,-85.867
06006,New Lisbon,39.863,-85.263
06006,New Lisbon,40.244,-84.824
06007,New London,40.443,-86.271
06009,New Market,38.536,-85.617
06016,New Philadelphia,38.627,-85.970
06018,New Pittsburg,40.307,-84.899
06030,New Salem,39.542,-85.358
06030,New Salem,38.621,-85.904
06042,New Waverly,40.764,-86.192
06047,Newark,39.129,-86.807
06049,Newbern,39.235,-85.751
06060,Newland,41.046,-87.034
06066,Newry,38.905,-85.822
06068,Newton,40.767,-87.386
06068,Newton,40.967,-85.823
06070,Newtonville,38.002,-86.943
06072,Newville,41.349,-84.845
06090,Nine Mile,40.975,-85.225
06091,Nineveh,39.362,-86.085
06094,Nisbet,38.146,-87.653
06096,Noah,39.588,-85.759
06117,Normal,40.465,-85.825
06118,Norman,38.953,-86.275
06125,Norristown,39.365,-85.761
06141,North Gate,39.264,-85.946
06152,North Oaks,40.777,-85.174
06163,North Union,39.966,-86.903
06171,Northfield,40.031,-86.280
06183,Norton,38.494,-86.683
06191,Nottingham,40.581,-85.150
06195,Numa,39.631,-87.370
06201,Nutwood,41.594,-86.282
06212,Oak Forest,39.385,-85.085
06214,Oak Grove,37.836,-88.022
06214,Oak Grove,41.288,-86.486
06229,Oakdale,40.768,-86.054
06232,Oakford,40.419,-86.104
06237,Oakley,40.702,-86.013
06242,Oakville,40.079,-85.391
06243,Oakwood,41.678,-86.786
06243,Oakwood,41.550,-84.914
06244,Oakwood Park,41.411,-85.738
06254,Ockley,40.488,-86.634
06259,Octagon,40.526,-86.992
06260,Odell,40.288,-87.074
06265,Ogden,39.799,-85.469
06289,Old Hill,39.302,-87.207
06299,Olean,38.990,-85.219
06306,Olive,41.700,-86.448
06310,Oliver,38.043,-87.839
06321,Omega,40.198,-85.939
06331,Ontario,41.702,-85.382
06341,Orange,39.584,-85.299
06345,Orangeville,41.336,-84.857
06345,Orangeville,38.631,-86.557
06359,Oriole,38.169,-86.505
06373,Orrville,38.458,-87.686
06397,Oswego,41.320,-85.787
06401,Otis,41.599,-86.906
06402,Otisco,38.542,-85.667
06409,Otter Lake,41.638,-85.172
06412,Otto,38.571,-85.467
06428,Owasco,40.461,-86.628
06430,Owen,38.458,-85.542
06444,Packerton,41.116,-85.797
06452,Page,41.688,-84.859
06464,Palestine,39.417,-84.928
06464,Palestine,41.178,-85.950
06472,Palmer,41.391,-87.239
06482,Panama,41.706,-85.108
06493,Paradise,37.996,-87.379
06496,Park,39.016,-86.849
06499,Paris,38.824,-85.634
06507,Parkersburg,39.873,-86.903
06510,Parkside,39.238,-85.911
06519,Parr,41.027,-87.219
06537,Patton,40.708,-86.741
06555,Paxton,39.021,-87.389
06557,Paynesville,38.621,-85.493
06560,Peabody,41.085,-85.489
06585,Peerless,38.924,-86.503
06593,Pelzer,37.989,-87.257
06596,Pembroke,41.100,-87.277
06609,Pennville,39.814,-85.111
06611,Pennyville,38.554,-87.008
06619,Peoria,39.433,-84.817
06619,Peoria,40.719,-85.961
06625,Perkins,40.765,-87.363
06630,Perrysburg,40.898,-86.149
06633,Perryville,40.591,-85.041
06634,Pershing,41.096,-86.319
06637,Perth,39.593,-87.162
06643,Peterson,40.813,-85.015
06645,Petersville,39.224,-85.820
06647,Petroleum,40.611,-85.151
06650,Pettysville,40.881,-85.982
06651,Pettit,40.417,-86.709
06661,Phenix,40.582,-85.107
06662,Philadelphia,39.781,-85.846
06667,Philomath,39.724,-85.016
06671,Phlox,40.421,-85.919
06687,Pierceville,39.133,-85.180
06690,Pigeon,38.100,-87.067
06691,Pike,40.124,-86.482
06694,Pikeville,38.322,-87.111
06700,Pilot Knob,38.282,-86.350
06704,Pin Hook,39.815,-87.127
06706,Pinch,40.107,-85.146
06726,Pine Ridge,39.579,-87.492
06729,Pine Valley,38.476,-86.450
06745,Pinhook,39.219,-85.517
06745,Pinhook,41.564,-86.856
06745,Pinhook,38.815,-86.356
06745,Pinhook,39.816,-85.059
06749,Pinola,41.599,-86.798
06753,Pioneer,40.738,-85.896
06764,Pittsburg,40.593,-86.702
06776,Plainfield,41.708,-86.477
06780,Plano,39.499,-86.604
06784,Plato,41.642,-85.332
06787,Plattsburg,38.719,-86.090
06790,Pleasant,38.871,-85.184
06797,Pleasant Lake,41.575,-85.016
06800,Pleasant Plain,40.697,-85.545
06803,Pleasant Ridge,40.934,-87.074
06803,Pleasant Ridge,40.483,-84.979
06806,Pleasant Valley,38.632,-86.801
06806,Pleasant Valley,41.694,-86.074
06808,Pleasant View,39.663,-85.942
06812,Pleasantville,38.967,-87.250
06813,Pleasure Valley,39.401,-85.709
06816,Plevna,40.536,-85.976
06822,Plummer,38.982,-86.972
06825,Poe,40.936,-85.087
06836,Poland,39.444,-86.951
06838,Poling,40.532,-85.053
06861,Pontiac,39.590,-87.119
06863,Pony,40.445,-85.095
06867,Poplar Grove,40.556,-86.347
06889,Portersville,38.499,-86.978
06911,Pottersville,39.207,-86.814
06923,Powers,40.322,-85.093
06931,Prairie,37.921,-87.982
06933,Prairie City,39.446,-87.113
06934,Prairie Creek,39.275,-87.497
06940,Prairieton,39.370,-87.474
06943,Prather,38.382,-85.693
06946,Prattsburg,39.162,-85.188
06950,Preble,40.832,-85.015
06953,Prescott,39.479,-85.708
06955,Preston,39.507,-87.372
06971,Progress,40.120,-85.442
06973,Prospect,38.578,-86.614
06977,Prosperity,40.179,-85.672
06981,Providence,39.491,-86.177
06984,Pueblo,37.826,-87.110
06985,Pulaski,40.975,-86.658
06987,Pumpkin Center,38.589,-86.364
06987,Pumpkin Center,38.705,-85.950
06990,Purcell,38.596,-87.519
06999,Pyrmont,40.468,-86.680
07001,Quaker,39.863,-87.528
07003,Quakertown,39.581,-85.003
07017,Quincy,39.454,-86.713
07025,Rabbitville,38.769,-86.474
07026,Raber,41.086,-85.433
07027,Raccoon,39.856,-86.896
07038,Radley,40.436,-85.734
07039,Radnor,40.509,-86.635
07041,Reagan,40.192,-86.509
07050,Raintown,39.878,-86.510
07051,Raleigh,39.744,-85.364
07061,Ramsey,38.324,-86.155
07066,Randolph,40.266,-84.976
07069,Ranger,38.096,-86.686
07088,Ray,41.760,-84.872
07090,Raymond,39.472,-84.849
07094,Raysville,39.796,-85.513
07102,Redding,38.774,-86.504
07111,Red Bank,37.971,-87.626
07115,Red Bush,37.938,-87.272
07118,Red Hill,38.933,-86.598
07134,Reddington,39.032,-85.833
07163,Riley,39.787,-85.731
07174,Reno,39.710,-86.670
07178,Reo,37.901,-87.109
07188,Retreat,38.824,-85.853
07203,Rhodes,39.609,-87.413
07204,Rome,37.923,-86.524
07208,Riceville,38.324,-86.666
07218,Ritchie,37.960,-87.039
07222,Richland,39.498,-85.395
07223,Richland Center,41.156,-86.271
07231,Riddle,38.251,-86.431
07243,Ridgeport,39.046,-86.804
07245,Ridgeview,40.761,-86.076
07269,Ripley,41.101,-86.660
07281,River Ridge,38.379,-85.646
07287,Riverside,40.325,-87.166
07287,Riverside,41.256,-86.894
07287,Riverside,40.696,-85.085
07288,Riverton,39.020,-87.568
07289,Rivervale,38.769,-86.398
07290,Riverview,39.200,-87.584
07291,Riverwood,40.101,-85.968
07302,Roberts,40.316,-87.102
07315,Rock Hill,37.945,-87.040
07326,Rockdale,39.317,-84.847
07329,Rockford,38.987,-85.891
07329,Rockford,40.760,-85.314
07335,Rockport,39.881,-87.279
07357,Rogers,38.538,-87.224
07358,Rogersville,40.036,-85.329
07359,Roland,38.595,-86.682
07361,Roll,40.552,-85.390
07364,Rolling Hills,38.478,-85.589
07392,Rosebud,38.194,-87.410
07392,Rosebud,38.528,-86.212
07393,Roseburg,40.522,-85.729
07393,Roseburg,39.589,-84.947
07407,Rosewood,38.038,-85.929
07411,Ross,41.527,-87.375
07413,Rossburg,39.326,-85.326
07416,Rosston,40.049,-86.289
07444,Royalton,39.927,-86.338
07445,Royville,41.200,-85.133
07456,Rugby,39.309,-85.715
07458,Rumble,38.436,-87.343
07463,Rural,40.107,-84.966
07473,Rusk,38.557,-86.757
07477,Russels Point,41.554,-84.925
07487,Rutland,41.244,-86.357
07510,Saint Anthony,38.314,-86.827
07517,Saint James,38.177,-87.578
07519,Saint John,38.082,-87.449
07520,Saint Johns,41.309,-85.114
07521,Saint Joseph,38.400,-85.808
07521,Saint Joseph,38.066,-87.647
07524,Saint Marks,38.306,-86.818
07525,Saint Marys,38.356,-85.865
07525,Saint Marys,39.348,-85.109
07526,Saint Maurice,39.366,-85.334
07536,Salem,40.717,-84.853
07536,Salem,40.310,-84.843
07536,Salem,39.604,-84.890
07537,Salem Center,41.585,-85.140
07538,Salem Heights,41.575,-86.622
07543,Saline City,39.365,-87.132
07557,Saluda,38.651,-85.485
07559,Samaria,39.404,-86.186
07572,San Jacinto,38.956,-85.497
07594,Sand Ridge,37.903,-87.169
07596,Sanders,39.080,-86.513
07603,Sandusky,39.419,-85.478
07607,Sandy Hook,38.568,-87.218
07625,Santa Fe,40.653,-85.986
07625,Santa Fe,38.111,-86.908
07638,Sardinia,39.154,-85.631
07642,Sassafras,38.188,-86.690
07668,Schley,38.046,-86.872
07679,Scipio,41.099,-82.959
07684,Scotchtown,39.075,-87.298
07687,Scott,41.742,-85.556
07688,Scott City,39.194,-87.465
07695,Scottsburg,38.289,-87.219
07696,Scottsville,38.402,-85.909
07719,Sedalia,40.416,-86.515
07720,Sedan,41.436,-85.099
07722,Sedley,41.489,-87.157
07740,Servia,40.957,-85.741
07741,Sevastopol,41.129,-86.019
07754,Sexton,39.700,-85.435
07759,Shady Lane,39.546,-87.134
07768,Shannondale,40.055,-86.696
07772,Sharon,40.554,-86.391
07780,Sharptown,39.367,-84.874
07790,Shelburne,39.435,-86.393
07804,Shepherd,39.967,-86.431
07818,Shields,38.916,-86.003
07819,Shiloh,39.039,-87.293
07853,Silex,39.361,-86.660
07870,Silverdale,37.916,-87.072
07872,Silverwood,39.956,-87.403
07876,Simpson,40.855,-85.413
07885,Sitka,40.826,-86.735
07887,Six Points,39.372,-86.986
07887,Six Points,39.726,-86.336
07890,Skelton,38.341,-87.782
07896,Slabtown,39.278,-85.401
07904,Sleepy Hollow,39.397,-85.717
07914,Smedley,38.633,-86.216
07916,Smith,41.711,-86.669
07920,Smith Valley,39.605,-86.197
07924,Smithfield,40.170,-85.269
07925,Smithland,39.460,-85.847
07930,Smithville,39.071,-86.507
07930,Smithville,39.321,-87.026
07936,Smyrna,39.264,-85.377
07936,Smyrna,38.782,-85.481
07944,Snow Hill,39.656,-87.170
07944,Snow Hill,40.092,-84.963
07945,Snow Lake,41.730,-85.029
07960,Solitude,38.015,-87.899
07979,South Boston,38.583,-85.979
07982,South Center,41.476,-86.640
07989,South Gate,39.321,-84.957
07990,South Haven,40.784,-85.829
07997,South Park,41.401,-85.721
08002,South Salem,40.151,-84.841
08016,Southport,39.277,-86.762
08018,Southwest,41.537,-85.944
08027,Sparksville,38.778,-86.237
08029,Sparta,39.105,-85.045
08030,Spartanburg,40.066,-84.852
08031,Spearsville,39.331,-86.196
08032,Speed,38.412,-85.752
08036,Spencerville,41.283,-84.922
08056,Spring Hill,39.413,-87.377
08063,Springboro,40.595,-86.775
08067,Springfield,41.715,-86.778
08067,Springfield,38.042,-87.870
08071,Springtown,39.702,-86.606
08073,Springville,41.676,-86.663
08073,Springville,38.936,-86.619
08088,St. Anthony,38.315,-86.827
08096,St. Croix,38.224,-86.586
08131,St. Wendel,38.105,-87.700
08141,Standard,39.196,-87.389
08145,Stanford,39.090,-86.667
08147,Stanley,38.164,-87.355
08165,Starlight,38.415,-85.892
08166,State Line,41.759,-86.251
08166,State Line,39.437,-87.529
08182,Stemm,38.957,-86.504
08184,Stevenson,38.010,-87.436
08190,Steubenville,41.532,-85.023
08194,Stewart,40.360,-87.476
08197,Stewartsville,38.185,-87.833
08202,Stillwell,41.556,-86.603
08209,Stockdale,40.915,-85.944
08212,Stockport,40.321,-85.461
08213,Stockton,39.239,-87.022
08216,Stone,40.234,-85.004
08225,Stony Creek,41.535,-85.650
08227,Stonington,38.732,-86.368
08228,Stony Ridge,41.327,-85.777
08232,Story,39.099,-86.214
08235,Stoutsburg,41.191,-87.114
08255,Stringtown,39.788,-85.708
08255,Stringtown,39.098,-85.163
08255,Stringtown,39.053,-87.297
08255,Stringtown,38.021,-87.562
08266,Stumptown,39.852,-87.274
08280,Sugar Creek,39.641,-85.913
08281,Sugar Grove,38.118,-85.911
08290,Sulphur,38.227,-86.471
08292,Sulphur Springs,38.212,-86.475
08299,Summit,41.513,-85.026
08299,Summit,39.031,-87.199
08299,Summit,39.688,-86.537
08299,Summit,41.643,-86.798
08332,Sunset Village,38.457,-85.534
08334,Superior,39.629,-87.156
08339,Surprise,38.971,-86.059
08340,Surrey,40.998,-87.200
08352,Swan,41.316,-85.213
08359,Swanville,38.686,-85.559
08376,Sycamore,40.494,-85.919
08380,Sylvan Grove,38.468,-85.736
08382,Sylvania,39.919,-87.294
08386,Syria,38.586,-86.402
08396,Taggart,39.262,-86.139
08398,Talbot,40.505,-87.454
08411,Tampico,38.800,-85.956
08413,Tangier,39.919,-87.318
08414,Tanner,39.018,-86.793
08429,Taylor,40.341,-86.934
08430,Taylor Corner,41.486,-84.949
08430,Taylor Corner,40.025,-87.016
08443,Teegarden,41.465,-86.377
08448,Temple,38.344,-86.416
08463,Terry,38.087,-86.633
08478,Thayer,41.173,-87.334
08493,Thomas,38.613,-87.232
08494,Thomaston,41.378,-86.814
08520,Thurman,41.120,-85.004
08531,Tilden,39.821,-86.439
08534,Tillman,41.024,-84.893
08553,Titus,38.054,-86.256
08606,Townley,41.018,-84.864
08610,Tracy,41.485,-86.683
08624,Trenton,40.450,-85.239
08635,Trinity,40.542,-84.849
08669,Tulip,39.082,-86.887
08676,Tunnelton,38.769,-86.343
08681,Turkey Creek,41.556,-85.171
08684,Turner,39.498,-87.160
08701,Twelve Mile,40.866,-86.225
08708,Twin Lakes,41.304,-86.357
08719,Tyner,41.410,-86.403
08736,Underwood,38.604,-85.774
08737,Union,38.465,-87.435
08738,Union Center,41.484,-86.640
08746,Union Mills,41.493,-86.778
08751,Unionport,40.121,-85.096
08752,Uniontown,38.846,-85.826
08752,Uniontown,38.225,-86.661
08753,Unionville,39.230,-86.416
08768,Upton,37.964,-87.962
08770,Urbana,40.898,-85.793
08783,Valentine,41.590,-85.387
08791,Valley Brook,40.806,-85.845
08793,Valley City,38.094,-86.223
08819,Vandalia,39.313,-86.866
08832,Vaughan,37.900,-87.630
08853,Vermont,40.499,-86.032
08861,Vesta,38.485,-85.551
08868,Vicksburg,39.091,-87.198
08869,Victor,39.061,-86.581
08870,Victoria,39.046,-87.223
08870,Victoria,38.005,-87.359
08874,Vienna,38.649,-85.769
08876,Vigo,39.287,-87.537
08878,Vilas,39.170,-86.840
08891,Vine,40.295,-87.135
08902,Virgie,41.115,-87.180
08911,Volga,38.784,-85.518
08921,Waco,38.535,-87.040
08923,Wadena,40.693,-87.277
08925,Wadesville,38.102,-87.786
08941,Wakefield,38.787,-85.560
08959,Walkerville,39.528,-85.763
08961,Wall Lake,41.731,-85.201
08971,Walnut,41.176,-86.212
08975,Walnut Grove,40.162,-85.940
08977,Walnut Ridge,38.925,-85.556
08994,Ward,39.996,-86.582
09006,Warrenton,38.173,-87.533
09008,Warrington,39.907,-85.634
09015,Washington Center,41.325,-85.597
09015,Washington Center,41.048,-85.509
09025,Waterford,41.671,-86.845
09026,Waterloo,39.704,-85.103
09026,Waterloo,39.563,-86.198
09034,Watson,38.349,-85.700
09037,Waugh,40.084,-86.307
09046,Waverly,39.557,-86.271
09048,Waycross,39.304,-86.344
09050,Wayne,39.888,-84.926
09052,Waynesburg,39.211,-85.669
09053,Waynesville,39.115,-85.892
09060,Weaver,40.465,-85.729
09067,Webster,39.903,-84.945
09089,Wells,40.732,-86.111
09090,Wellsboro,41.497,-86.765
09091,Wellsburg,40.666,-85.221
09104,Wesley,40.068,-87.007
09123,West Fork,38.234,-86.526
09124,West Franklin,37.895,-87.713
09127,West Grove,39.845,-85.014
09135,West Liberty,40.533,-84.996
09156,West Union,39.844,-87.337
09164,Westchester,40.498,-84.895
09169,Westfield,41.676,-86.380
09176,Westland,39.750,-85.688
09176,Westland,39.583,-86.846
09186,Westview,41.586,-85.183
09188,Westwood,39.919,-85.417
09203,Wheeling,40.566,-86.392
09203,Wheeling,40.364,-85.464
09203,Wheeling,38.413,-87.455
09211,Whitaker,39.380,-86.608
09213,Whitcomb,39.448,-84.937
09219,White Cloud,38.228,-86.224
09234,White River,38.394,-87.753
09238,White Sulphur Springs,38.386,-87.092
09245,Whitehall,39.174,-86.684
09249,Whiteoak,38.409,-87.146
09256,Whitesville,39.965,-86.834
09260,Whitfield,38.619,-86.913
09277,Wickliffe,38.368,-86.641
09281,Wilbur,39.516,-86.489
09291,Wildwood,41.595,-85.189
09300,Williams,40.919,-84.975
09302,Williamsburg,39.951,-84.996
09307,Williamstown,39.453,-85.469
09311,Willis,38.553,-87.357
09313,Willisville,38.451,-87.296
09316,Willow Branch,39.876,-85.684
09324,Willow Valley,38.695,-86.719
09329,Wilmington,39.063,-84.947
09332,Wilmot,41.310,-85.642
09334,Wilson,38.444,-85.830
09342,Windom,38.574,-86.798
09343,Windsor,40.156,-85.215
09343,Windsor,40.154,-85.213
09360,Winona,41.236,-86.569
09370,Winthrop,40.370,-87.234
09373,Wirt,38.809,-85.454
09378,Wiser,39.612,-86.294
09386,Wolff,39.433,-86.395
09388,Wolf Lake,41.335,-85.496
09400,Woodbury,39.909,-85.895
09406,Woodcrest,39.438,-86.395
09411,Woodland,41.564,-86.177
09426,Woodruff,41.573,-85.329
09433,Woodville,39.916,-85.545
09433,Woodville,41.563,-87.041
09442,Wooster,41.209,-85.743
09442,Wooster,38.737,-85.693
09459,Wyandotte,38.229,-86.295
09476,Yankeetown,37.917,-87.298
09484,Yellow Bank,39.438,-85.069
09488,Yellowstone,38.999,-86.343
09492,Yoder,40.931,-85.177
09494,York,41.688,-84.823
09499,Yorkville,39.204,-84.968
09500,Young,39.610,-86.338
09503,Youngstown,39.362,-87.382
09518,Zeigler,41.698,-86.433
09528,Zoar,38.269,-87.073