phoneme,name,latitude,longitude
04353,Kansas City,39.122,-94.555
08113,St. Louis,38.627,-90.198
08067,Springfield,37.194,-93.293
01835,Columbia,38.952,-92.334
04130,Independence,39.085,-94.352
06205,O'Fallon,38.811,-90.700
08109,St. Joseph,39.769,-94.847
08092,St. Charles,38.784,-90.481
00892,Blue Springs,39.017,-94.282
03032,Florissant,38.789,-90.323
04318,Joplin,37.075,-94.501
01610,Chesterfield,38.663,-90.577
04264,Jefferson City,38.567,-92.175
06242,Oakville,38.470,-90.305
09291,Wildwood,38.583,-90.663
04831,Liberty,39.246,-94.419
07095,Raytown,39.009,-94.464
04493,Kirkwood,38.583,-90.407
05437,Mehlville,38.508,-90.323
03332,Gladstone,39.204,-94.555
03462,Grandview,38.886,-94.533
03802,Hazelwood,38.771,-90.371
00658,Belton,38.812,-94.532
07092,Raymore,38.802,-94.453
06439,Ozark,37.021,-93.206
07719,Sedalia,38.704,-93.228
00297,Arnold,38.433,-90.378
07362,Rolla,37.951,-91.771
09005,Warrensburg,38.763,-93.736
07179,Republic,37.169,-93.413
00051,Affton,38.551,-90.333
01869,Concord,38.525,-90.357
02058,Creve Coeur,38.661,-90.423
02954,Ferguson,38.744,-90.305
02921,Farmington,37.781,-90.422
05172,Manchester,38.597,-90.509
04491,Kirksville,40.195,-92.583
03678,Hannibal,39.710,-91.394
01709,Clayton,38.643,-90.324
07851,Sikeston,36.885,-89.587
06423,Overland,38.701,-90.362
01413,Carthage,37.176,-94.310
04232,Jackson,37.382,-89.666
04758,Lebanon,37.681,-92.664
09014,Washington,38.558,-91.012
04831,Liberty,36.718,-90.022
06839,Polk,40.354,-94.865
05627,Moberly,39.418,-92.438
05269,Marshall,39.123,-93.197
08652,Troy,38.979,-90.981
09063,Webb City,37.146,-94.463
08086,St. Ann,38.727,-90.383
04273,Jennings,38.719,-90.260
01012,Branson,36.612,-93.292
03195,Fulton,38.847,-91.948
05934,Neosho,36.869,-94.368
08737,Union,38.450,-91.008
02055,Crestwood,38.557,-90.382
09149,West Plains,36.728,-91.852
02827,Eureka,38.498,-90.645
04130,Independence,36.236,-90.038
05492,Mexico,39.170,-91.883
08603,Town and Country,38.612,-90.463
01061,Bridgeton,38.767,-90.412
00924,Bolivar,37.614,-93.410
05294,Maryville,40.346,-94.872
04363,Kearney,39.368,-94.362
07930,Smithville,39.397,-94.571
04401,Kennett,36.236,-90.056
03727,Harrisonville,38.653,-94.349
02708,Ellisville,38.593,-90.587
05650,Monett,36.921,-93.927
01631,Chillicothe,39.787,-93.532
01506,Center,37.807,-94.346
01741,Clinton,38.369,-93.778
07226,Richmond Heights,38.629,-90.320
09006,Warrenton,38.811,-91.142
06795,Pleasant Hill,38.806,-94.272
06501,Park Hills,37.854,-90.518
06633,Perryville,37.724,-89.861
01310,Cameron,39.745,-94.232
06214,Oak Grove,39.007,-94.128
05855,Murphy,38.490,-90.487
05944,Nevada,37.839,-94.355
05222,Maplewood,38.613,-90.325
01036,Brentwood,38.618,-90.349
00700,Berkeley,38.755,-90.331
02322,Dexter,36.796,-89.958
00945,Boonville,38.974,-92.743
06513,Parkville,39.195,-94.682
05273,Marshfield,37.339,-92.907
06443,Pacific,38.481,-90.751
00371,Aurora,36.971,-93.718
08288,Sullivan,38.213,-91.164
08800,Valley Park,38.549,-90.493
00808,Black Jack,38.793,-90.267
08107,St. John,38.715,-90.346
00481,Barnhart,38.344,-90.393
02231,De Soto,38.139,-90.555
09296,Willard,37.305,-93.429
07839,Shrewsbury,38.590,-90.337
03352,Glendale,38.596,-90.377
03552,Greenwood,38.842,-94.334
00528,Battlefield,37.119,-93.368
08624,Trenton,40.072,-93.577
07225,Richmond,39.279,-93.977
06263,Odessa,38.999,-93.954
05125,Macon,39.742,-92.473
09053,Waynesville,37.829,-92.201
09453,Wright City,38.828,-91.020
04128,Imperial,38.370,-90.378
07650,Savannah,39.942,-94.830
01567,Charleston,36.921,-89.351
05801,Mount Pleasant,38.268,-94.348
01978,Cotton Hill,36.560,-89.994
02278,Dellwood,38.749,-90.286
00327,Ashland,38.774,-92.257
06742,Piney,37.322,-91.973
08093,St. Clair,38.345,-90.981
02112,Crystal City,38.221,-90.379
07315,Rock Hill,38.608,-90.378
01103,Brookfield,39.772,-93.071
03892,Higginsville,39.073,-93.717
01446,Castor,36.885,-89.940
01524,Centralia,39.211,-92.134
03980,Hollister,36.621,-93.215
07536,Salem,37.646,-91.536
04826,Lexington,39.185,-93.880
01292,California,38.628,-92.567
05809,Mount Vernon,37.104,-93.819
02664,Eldon,38.348,-92.582
05817,Mountain Grove,37.134,-92.266
07358,Rogersville,37.115,-93.075
07688,Scott City,37.225,-89.538
03456,Grand River,39.786,-94.266
03147,Fredericktown,37.560,-90.294
04649,Lamar,37.495,-94.277
00970,Bowling Green,39.342,-91.195
06119,Normandy,38.721,-90.297
03898,High Ridge,38.459,-90.537
01248,Butler,38.259,-94.331
07287,Riverside,39.178,-94.613
02950,Fenton,38.513,-90.436
08105,St. James,37.997,-91.614
01401,Carrollton,39.395,-93.474
03181,Frontenac,38.636,-90.415
05754,Moscow Mills,38.948,-90.918
05161,Malden,36.557,-89.966
06475,Palmyra,39.794,-91.523
06691,Pike,37.031,-89.846
03931,Hillsboro,38.232,-90.563
08819,Vandalia,39.308,-91.489
08737,Union,36.537,-90.112
09343,Windsor,38.511,-93.552
01188,Buffalo,37.644,-93.092
00728,Bethany,40.251,-94.043
08124,St. Paul,38.861,-90.742
05029,Louisiana,39.449,-91.052
08280,Sugar Creek,39.139,-94.409
01439,Cassville,36.677,-93.869
01214,Burdine,37.119,-92.080
08881,Villa Ridge,38.473,-90.887
02117,Cuba,38.063,-91.403
02464,Duck Creek,36.889,-90.143
01534,Chaffee,37.180,-89.655
01173,Buckner,39.133,-94.199
00376,Ava,36.952,-92.660
08549,Tipton,38.656,-92.780
05680,Montgomery City,38.978,-91.505
09343,Windsor,38.532,-93.523
06806,Pleasant Valley,39.216,-94.484
06432,Owensville,38.346,-91.502
04838,Licking,37.499,-91.857
02938,Fayette,39.146,-92.684
03077,Forsyth,36.685,-93.120
03521,Green Park,38.524,-90.338
05660,Monroe City,39.654,-91.732
01353,Canton,40.125,-91.625
05230,Marceline,39.726,-92.943
08241,Strafford,37.269,-93.118
05825,Mountain View,36.995,-91.704
08859,Versailles,38.431,-92.841
04734,Lawson,39.433,-94.220
06907,Potosi,37.936,-90.788
08460,Terre du Lac,37.904,-90.618
08460,Terre du Lac,37.903,-90.616
01991,Country Club,39.847,-94.824
07544,Salisbury,39.411,-92.788
03791,Hayti,36.234,-89.750
07536,Salem,36.108,-90.185
02250,Deer Creek,38.438,-94.345
07290,Riverview,38.748,-90.212
05993,New Haven,38.608,-91.219
02498,Duquesne,37.077,-94.459
01870,Concordia,38.983,-93.569
09014,Washington,37.898,-94.343
03659,Hamilton,39.743,-94.038
04703,Lathrop,39.548,-94.330
07737,Seneca,36.841,-94.611
09009,Warsaw,38.243,-93.382
06787,Plattsburg,39.566,-94.448
05258,Marlborough,38.570,-90.337
03971,Holden,38.714,-93.991
03853,Hermann,38.704,-91.437
09323,Willow Springs,36.992,-91.970
08737,Union,39.914,-93.927
08737,Union,40.537,-93.042
04050,Houston,37.326,-91.956
05230,Marceline,39.718,-92.947
00342,Athens,40.229,-94.290
03442,Granby,36.920,-94.263
05252,Marionville,37.003,-93.637
00206,Anderson,36.651,-94.444
08029,Sparta,37.001,-93.082
07901,Slater,39.218,-93.069
06684,Piedmont,37.154,-90.696
08478,Thayer,36.525,-91.538
09014,Washington,39.795,-94.526
07755,Seymour,37.146,-92.769
00713,Bernie,36.669,-89.969
01412,Carterville,37.149,-94.443
03216,Gallatin,39.914,-93.962
05533,Milan,40.202,-93.125
08178,Steele,36.084,-89.829
08213,Stockton,37.699,-93.796
00862,Bloomfield,36.886,-89.929
09180,Weston,39.411,-94.902
01484,Cedar Hill,38.353,-90.641
07222,Richland,37.861,-92.400
00046,Adrian,38.398,-94.352
08753,Unionville,40.477,-93.003
05446,Memphis,40.458,-92.171
01917,Cooper,40.207,-94.510
02392,Doniphan,36.621,-90.823
00082,Albany,40.249,-94.331
01309,Camden,39.887,-94.387
03651,Hallsville,39.117,-92.221
06378,Osage,38.093,-94.360
03233,Garden City,38.561,-94.191
09092,Wellston,38.673,-90.299
00959,Bourbon,38.155,-91.244
01317,Campbell,36.493,-90.075
01741,Clinton,37.130,-92.205
08101,St. George,38.536,-90.312
09347,Winfield,38.997,-90.738
00316,Ash Grove,37.315,-93.585
08422,Tarkio,40.440,-95.378
02022,Crane,36.905,-93.572
04201,Ironton,37.597,-90.627
03149,Freeborn,36.444,-89.987
07211,Rich Hill,39.838,-93.474
09340,Winchester,38.590,-90.528
03475,Grant,39.572,-94.046
05725,Morgan,40.436,-93.581
07637,Sarcoxie,37.069,-94.117
08179,Steelville,37.968,-91.355
00616,Belle,38.285,-91.721
06234,Oakland,38.576,-90.386
04098,Huntsville,39.441,-92.545
04881,Linn,38.486,-91.850
03283,Gerald,38.400,-91.331
04860,Lynch,37.449,-91.995
00047,Advance,37.105,-89.911
05226,Marble Hill,37.306,-89.970
08366,Sweet Springs,38.964,-93.415
00793,Bismarck,37.769,-90.625
04563,La Plata,40.023,-92.492
07211,Rich Hill,38.096,-94.361
05194,Mansfield,37.107,-92.581
02337,Dixon,37.992,-92.094
02457,Drywood,37.700,-94.325
03402,Goodman,36.742,-94.399
01704,Clay,36.072,-90.064
03932,Hillsdale,38.683,-90.284
03535,Greenfield,37.415,-93.841
06340,Oran,37.085,-89.655
04232,Jackson,37.368,-91.767
04232,Jackson,40.101,-94.528
08417,Taos,38.506,-92.071
04861,Lincoln,38.391,-93.335
06499,Paris,39.481,-92.001
00767,Billings,37.068,-93.552
07222,Richland,36.840,-89.786
01434,Cass,37.196,-91.979
05340,Maysville,39.889,-94.362
03335,Glasgow,39.228,-92.838
02215,Davis,39.573,-93.816
04142,Indian Lake,38.091,-91.451
01400,Carroll,37.187,-91.700
01188,Buffalo,36.048,-90.294
05984,New Franklin,39.017,-92.737
06991,Purdy,36.817,-93.921
01912,Cool Valley,38.728,-90.310
08238,Stover,38.441,-92.992
02618,Edina,40.168,-92.173
09093,Wellsville,39.072,-91.570
01992,Country Club Hills,38.721,-90.275
05769,Mound City,40.131,-95.232
01698,Clarkton,36.452,-89.967
06965,Princeton,40.401,-93.581
03907,Highlandville,36.933,-93.280
04956,Loma Linda,36.991,-94.587
02442,Drexel,38.501,-94.604
09360,Winona,37.010,-91.323
06007,New London,39.585,-91.401
08267,Sturgeon,39.234,-92.281
02064,Crocker,37.949,-92.264
06386,Osceola,38.047,-93.704
04232,Jackson,40.375,-94.678
08656,Truesdale,38.812,-91.130
05589,Miner,36.907,-89.536
06527,Pasadena Hills,38.708,-90.293
04256,Jasper,37.336,-94.301
06006,New Lisbon,36.972,-90.029
06439,Ozark,37.526,-94.563
00692,Benton,37.098,-89.563
02326,Diamond,36.995,-94.316
02625,Edmundson,38.736,-90.364
04831,Liberty,39.923,-94.034
07324,Rockaway Beach,36.699,-93.160
04555,La Grange,40.043,-91.498
03020,Flint Hill,38.855,-90.861
03476,Grant City,40.487,-94.411
06352,Oregon,39.987,-95.145
07728,Seligman,36.523,-93.940
04936,Lockwood,37.386,-93.953
02641,Egypt,39.283,-93.705
04462,King City,40.051,-94.524
02703,Ellington,37.242,-90.969
06740,Pineville,36.595,-94.384
06099,Nodaway,40.441,-95.016
01149,Brunswick,39.423,-93.130
07478,Russellville,38.512,-92.440
02255,Deerfield,37.809,-94.456
06378,Osage,38.231,-93.627
09046,Waverly,39.209,-93.518
03206,Gainesville,36.603,-92.428
03305,Gideon,36.452,-89.919
05768,Mound,38.349,-94.346
02882,Fairview,38.236,-93.809
04315,Jonesburg,38.853,-91.306
09230,White Oak,38.425,-94.007
08197,Stewartsville,39.751,-94.497
08808,Van Buren,36.996,-91.015
09087,Wellington,39.134,-93.983
06839,Polk,39.984,-94.532
02852,Exeter,36.672,-93.941
06354,Orrick,39.213,-94.123
02375,Doe Run,37.743,-90.498
01902,Conway,37.502,-92.821
05722,Morehouse,36.847,-89.685
01680,Clarence,39.742,-92.259
00722,Bertrand,36.910,-89.453
05248,Marion,40.526,-93.566
04112,Iberia,38.090,-92.293
01817,Colfax,39.793,-94.383
05556,Miller,37.215,-93.840
00731,Bethlehem,38.322,-93.683
04232,Jackson,39.903,-93.806
00165,Alton,36.694,-91.399
04263,Jefferson,40.263,-94.678
00909,Bogard,38.515,-94.015
04660,Lancaster,40.521,-92.528
04263,Jefferson,39.773,-93.178
09199,Wheaton,36.763,-94.056
06628,Perry,39.431,-91.675
04545,La Belle,40.117,-91.913
05743,Morris,37.277,-92.163
06699,Pilot Grove,38.875,-92.912
06514,Parkway,38.338,-90.970
05982,New Florence,38.910,-91.448
00055,Agency,39.645,-94.740
06700,Pilot Knob,37.621,-90.640
00030,Adams,39.883,-94.269
01732,Cleveland,38.679,-94.594
05734,Morley,37.044,-89.610
08975,Walnut Grove,37.411,-93.550
03534,Greendale,38.695,-90.313
01817,Colfax,39.824,-94.158
01171,Bucklin,39.809,-92.911
02869,Fairfax,40.339,-95.393
00739,Bevier,39.747,-92.564
04829,Liberal,37.558,-94.520
04101,Hurricane,39.566,-93.341
04757,Leawood,37.037,-94.497
03415,Gordonville,37.311,-89.679
00260,Arcadia,37.588,-90.629
03970,Holcomb,36.399,-90.024
07329,Rockford,39.576,-94.149
00406,Bacon,37.993,-94.119
02613,Edgerton,39.505,-94.633
04174,Innsbrook,38.769,-91.052
08709,Twin Oaks,38.565,-90.497
08633,Trimble,39.471,-94.565
05132,Madison,40.060,-93.709
04025,Hopkins,40.538,-94.814
02248,Deepwater,38.261,-94.018
04861,Lincoln,40.162,-93.575
06189,Norwood,37.108,-92.415
03746,Hartville,37.251,-92.510
01817,Colfax,40.505,-93.945
02398,Doolittle,37.940,-91.881
01712,Clear Creek,37.889,-94.123
04144,Indian Point,36.628,-93.344
03691,Hardin,39.271,-93.834
09334,Wilson,40.422,-93.027
04246,Jamesport,39.975,-93.801
01374,Cardwell,36.047,-90.293
04232,Jackson,39.892,-93.672
04380,Kelso,37.191,-89.550
02868,Fairdealing,36.663,-90.617
06517,Parma,36.614,-89.816
07009,Queen City,40.409,-92.568
00080,Alba,37.238,-94.417
01520,Central,37.518,-94.418
04754,Leeton,38.583,-93.695
04824,Lewistown,40.086,-91.813
08874,Vienna,38.187,-91.947
04474,Kingston,39.659,-94.038
02710,Elm,40.406,-92.772
05132,Madison,39.474,-92.210
04054,Howard,38.080,-94.527
05310,Matthews,36.759,-89.587
02035,Cream Ridge,39.926,-93.525
02747,Eminence,37.151,-91.358
06845,Polo,39.552,-94.041
07928,Smithton,38.680,-93.093
08858,Verona,36.964,-93.796
00841,Bland,38.300,-91.633
03854,Hermitage,37.941,-93.316
07792,Shelbyville,39.806,-92.042
08737,Union,37.611,-94.311
04581,Laddonia,39.243,-91.645
01506,Center,39.508,-91.529
07811,Sherman,39.886,-94.520
03027,Florence,38.589,-92.979
02208,Date,37.090,-91.710
09219,White Cloud,40.204,-94.878
02237,Dearborn,39.525,-94.772
08955,Walker,37.884,-94.238
03154,Freeman,38.618,-94.505
02780,Eolia,39.236,-91.008
07222,Richland,37.402,-94.240
03475,Grant,40.192,-94.791
00887,Blue Mound,39.661,-93.598
00692,Benton,40.082,-94.151
03523,Green Ridge,38.620,-93.409
08903,Virgil,37.791,-94.120
06686,Pierce,37.093,-91.843
07536,Salem,40.095,-94.039
02419,Dover,37.702,-94.221
03993,Holt,39.454,-94.339
04263,Jefferson,39.994,-93.686
00738,Beverly Hills,38.700,-90.292
03209,Galena,36.805,-93.467
04263,Jefferson,39.924,-94.144
00633,Bell City,37.024,-89.820
08297,Summersville,37.179,-91.658
03133,Franklin,40.237,-93.581
02250,Deer Creek,38.412,-93.694
08280,Sugar Creek,40.170,-93.821
09230,White Oak,40.249,-94.150
06411,Otterville,38.700,-93.002
00408,Badger,37.797,-94.237
05556,Miller,40.103,-94.326
05912,Naylor,36.575,-90.604
01026,Breckenridge,39.742,-93.813
00692,Benton,39.988,-93.171
07809,Sheridan,39.826,-94.039
09150,West Point,38.362,-94.560
07783,Shawnee,38.499,-93.778
00388,Avondale,39.154,-94.547
07793,Sheldon,37.658,-94.293
01201,Bull Creek,36.715,-93.204
05132,Madison,40.427,-93.820
09049,Wayland,40.394,-91.583
02861,Fair Play,37.630,-93.573
02882,Fairview,39.672,-93.482
02882,Fairview,36.818,-94.088
01686,Clark,39.663,-92.917
05417,Meadville,39.784,-93.302
02846,Ewing,40.006,-91.714
03150,Freeburg,38.315,-91.923
09183,Westphalia,38.442,-91.999
08810,Van Horn,39.492,-93.485
09013,Washburn,36.587,-93.966
01288,Calhoun,38.467,-93.626
02806,Essex,36.813,-89.861
00142,Alma,39.095,-93.545
04861,Lincoln,39.575,-93.934
08737,Union,40.468,-94.836
00887,Blue Mound,37.989,-94.221
05899,Nashville,37.375,-94.492
07392,Rosebud,38.387,-91.401
06439,Ozark,37.209,-91.808
03548,Greenville,37.127,-90.450
05688,Montrose,38.258,-93.981
08770,Urbana,37.842,-93.167
02868,Fairdealing,36.663,-90.604
02115,Crystal Lakes,39.359,-94.190
01254,Butterfield,36.750,-93.908
05276,Marston,36.519,-89.613
08748,Union Star,39.981,-94.594
03475,Grant,40.331,-93.931
04078,Hughes,40.195,-94.999
08737,Union,40.438,-94.042
05747,Morrisville,37.481,-93.427
01697,Clarksville,39.371,-90.905
02285,Delta,37.197,-89.736
00347,Atlanta,39.899,-92.481
06383,Osborn,39.750,-94.357
07247,Ridgeway,40.378,-93.937
09203,Wheeling,39.799,-93.393
09014,Washington,40.313,-93.579
00339,Atchison,40.527,-94.976
03614,Hale,39.604,-93.342
04199,Irondale,37.832,-90.678
04000,Homer,38.262,-94.564
08151,Stanton,38.274,-91.106
05248,Marion,40.431,-93.924
05658,Monroe,40.289,-95.074
00942,Boone,37.558,-92.000
04831,Liberty,40.157,-93.433
01042,Brewer,37.781,-89.925
07091,Raymondville,37.340,-91.834
09485,Yellow Creek,39.815,-92.991
03131,Frankford,39.490,-91.320
03475,Grant,39.984,-94.384
09334,Wilson,40.330,-94.542
09334,Wilson,40.004,-93.425
03391,Gomer,39.739,-93.933
07235,Ridge,39.480,-93.374
06048,Newburg,37.914,-91.903
00651,Bellflower,39.007,-91.355
07096,Rayville,39.348,-94.063
08971,Walnut,38.166,-94.551
02041,Creighton,38.495,-94.073
04247,Jamestown,38.766,-92.481
06544,Pattonsburg,40.075,-94.102
04263,Jefferson,40.338,-94.042
09485,Yellow Creek,39.656,-93.045
08117,St. Mary,37.879,-89.949
06990,Purcell,37.242,-94.435
07502,Saddlebrooke,36.826,-93.203
02993,Fisk,36.782,-90.209
07841,Sibley,39.179,-94.193
09188,Westwood,38.644,-90.440
05490,Metz,37.998,-94.446
05658,Monroe,39.655,-93.703
01571,Charlotte,38.262,-94.455
01704,Clay,39.873,-93.292
07508,Saginaw,37.024,-94.468
08067,Springfield,38.417,-93.572
04576,Laclede,39.786,-93.167
05451,Mendon,39.576,-93.145
08995,Wardell,36.351,-89.818
02427,Downing,40.488,-92.369
04965,Lone Oak,38.178,-94.319
01207,Bunker,37.458,-91.212
02562,East Lynne,38.668,-94.229
03456,Grand River,38.422,-94.226
05706,Mooresville,39.739,-93.716
00881,Blue Eye,36.499,-93.397
03456,Grand River,40.011,-93.964
08610,Tracy,39.377,-94.793
04337,Junction City,37.576,-90.288
09198,Wheatland,37.946,-93.401
04861,Lincoln,40.508,-95.136
00604,Bee Branch,39.662,-92.779
01517,Centertown,38.619,-92.412
02689,Elkhart,38.366,-94.447
03506,Green,39.735,-93.599
08050,Spring City,36.987,-94.534
01630,Chilhowee,38.589,-93.854
04085,Hume,38.090,-94.584
07783,Shawnee,38.359,-94.228
01278,Cainsville,40.438,-93.775
01867,Conception,40.243,-94.687
02843,Everton,37.343,-93.702
03841,Henrietta,39.234,-93.936
04130,Independence,40.497,-94.679
06378,Osage,37.987,-94.343
02532,Eagleville,40.469,-93.987
03723,Harrisburg,39.142,-92.463
04861,Lincoln,40.542,-92.929
02680,Elk,36.693,-89.818
04883,Linneus,39.879,-93.189
05157,Maitland,40.201,-95.074
09308,Williamsville,36.971,-90.550
03383,Golden,36.524,-93.654
02173,Dallas,39.986,-94.261
04443,Kidder,39.780,-94.102
00367,Augusta,38.573,-90.882
01780,Cobalt,37.545,-90.287
06937,Prairie Home,38.813,-92.590
02913,Farley,39.282,-94.831
09014,Washington,40.175,-94.681
05463,Mercer,40.511,-93.532
06172,Northfork,37.407,-94.346
00748,Big Creek,38.512,-93.897
06044,New York,39.655,-93.928
05248,Marion,40.075,-93.437
00502,Barton City,37.605,-94.446
05248,Marion,39.993,-94.111
05283,Martinsburg,39.102,-91.648
00220,Annapolis,37.360,-90.698
02248,Deepwater,38.255,-94.129
01686,Clark,39.280,-92.360
01694,Clarksdale,39.814,-94.551
06850,Pomona,36.867,-91.914
05540,Milford,37.590,-94.116
01693,Clarksburg,38.659,-92.664
01296,Callao,39.761,-92.623
00292,Armstrong,39.270,-92.701
03057,Forest City,39.983,-95.192
05132,Madison,40.313,-93.724
01761,Coal,37.813,-94.563
04476,Kingsville,38.743,-94.070
07176,Rensselaer,39.671,-91.545
05562,Millersville,37.433,-89.799
08299,Summit,38.270,-94.231
07853,Silex,39.123,-91.054
06226,Oak Ridge,37.501,-89.730
02215,Davis,38.343,-93.910
02508,Dutchtown,37.253,-89.660
01014,Brashear,40.149,-92.379
02229,De Kalb,39.587,-94.925
03461,Grandin,36.829,-90.823
00815,Blackburn,39.105,-93.486
04804,Leroy,37.602,-94.556
05592,Mineral Point,37.945,-90.724
05597,Mingo,38.428,-94.113
08773,Utica,39.744,-93.627
09363,Winston,39.870,-94.140
02159,Dadeville,37.480,-93.674
05426,Medicine,39.927,-93.420
02962,Fidelity,37.068,-94.313
05989,New Hampton,40.264,-94.196
07891,Skidmore,40.289,-95.081
02582,Easton,39.722,-94.642
03456,Grand River,39.665,-93.357
03724,Harrison,37.701,-94.552
08130,St. Thomas,38.368,-92.217
09461,Wyatt,36.909,-89.223
00198,Amsterdam,38.350,-94.589
03533,Greencastle,40.263,-92.878
07472,Rushville,39.587,-95.026
01123,Browning,40.035,-93.160
01854,Combs,39.395,-93.361
05987,New Hamburg,37.126,-89.593
02173,Dallas,40.338,-94.157
03842,Henry,38.007,-94.554
03919,Hill,39.564,-93.598
05622,Missouri City,39.241,-94.288
07222,Richland,40.445,-92.916
08955,Walker,38.347,-94.018
03724,Harrison,40.422,-93.695
05342,Mayview,39.053,-93.831
05893,Napoleon,39.131,-94.071
01658,Chula,39.922,-93.474
03506,Green,40.355,-95.091
00759,Big Spring,38.803,-91.478
06662,Philadelphia,39.839,-91.739
00856,Blodgett,37.004,-89.527
04487,Kirbyville,36.623,-93.164
08042,Spokane,36.868,-93.297
02748,Emma,38.975,-93.495
01279,Cairo,39.512,-92.440
02139,Curryville,39.346,-91.345
00628,Belgrade,37.787,-90.849
04522,Knox City,40.144,-92.009
06243,Oakwood,39.202,-94.570
04534,Koshkonong,36.596,-91.646
04594,Lake,37.901,-94.443
04831,Liberty,40.530,-92.805
02528,Eagle Rock,36.550,-93.754
07811,Sherman,40.243,-93.928
08614,Trail Creek,40.337,-93.827
01564,Chariton,39.294,-92.876
03615,Holland,36.056,-89.871
00312,Asbury,37.275,-94.606
04595,Lake Arrowhead,39.484,-94.319
07340,Rockville,38.074,-94.108
00786,Birmingham,39.166,-94.451
04002,Homestead,39.363,-94.201
06244,Oakwood Park,39.203,-94.574
01518,Centerview,38.744,-93.845
04008,Honey Creek,38.421,-93.898
05628,Mokane,38.675,-91.874
09494,York,40.525,-93.294
00424,Bakersfield,36.523,-92.142
04232,Jackson,39.976,-93.298
00423,Baker,39.916,-92.925
00475,Barnard,40.174,-94.824
03895,High Hill,38.878,-91.383
03318,Gilliam,39.233,-93.005
03475,Grant,40.528,-92.720
00222,Anniston,36.826,-89.328
03367,Glenwood,40.518,-92.576
05658,Monroe,39.823,-93.921
05485,Meta,38.313,-92.166
04099,Hurley,36.931,-93.499
07343,Rocky Comfort,36.746,-94.091
00826,Blackwater,38.980,-92.991
04951,Lohman,38.543,-92.364
01309,Camden,39.197,-94.023
02972,Fillmore,40.025,-94.974
05519,Middletown,39.127,-91.414
06955,Preston,37.941,-93.208
01789,Cockrell,39.572,-92.807
08181,Stella,36.761,-94.191
06663,Phillipsburg,37.554,-92.785
00161,Altamont,39.889,-94.089
00909,Bogard,39.458,-93.524
02882,Fairview,39.663,-93.813
03218,Galt,40.129,-93.387
02154,Cypress,40.176,-94.038
09014,Washington,39.565,-93.713
05546,Mill Spring,37.062,-90.684
00478,Barnett,38.378,-92.675
07549,Salt Creek,39.577,-93.023
02260,Defiance,38.632,-90.778
01519,Centerville,37.435,-90.958
05494,Myers,40.228,-93.433
05928,Nelson,38.995,-93.033
08697,Tuscumbia,38.233,-92.459
06504,Parkdale,38.478,-90.523
08385,Syracuse,38.670,-92.873
09262,Whiting,36.789,-89.374
03639,Halfway,37.616,-93.245
04688,Laredo,40.026,-93.447
04805,Leslie,39.482,-93.584
05495,Miami,39.321,-93.228
05964,New Cambria,39.775,-92.750
06931,Prairie,38.081,-94.227
09014,Washington,40.242,-93.699
09049,Wayland,39.524,-92.760
03724,Harrison,39.817,-93.829
04079,Hughesville,38.839,-93.295
01792,Coffey,40.107,-94.005
04514,Knob Lick,37.664,-90.386
05426,Medicine,40.427,-93.280
07809,Sheridan,40.518,-94.612
01719,Clearmont,40.510,-95.032
07222,Richland,37.893,-94.561
09014,Washington,40.084,-93.932
00564,Bear Creek,38.246,-93.899
00274,Argyle,38.295,-92.026
02825,Eugene,38.353,-92.404
04232,Jackson,40.435,-93.144
05426,Medicine,40.310,-93.429
08429,Taylor,40.176,-93.752
03438,Graham,40.201,-95.037
06680,Pickering,40.451,-94.842
07200,Rhineland,38.718,-91.517
00684,Bennett Springs,37.726,-92.853
04805,Leslie,38.418,-91.232
02825,Eugene,39.306,-93.356
08100,St. Francisville,40.458,-91.569
08542,Tina,39.536,-93.440
04087,Hunnewell,39.668,-91.862
05027,Louisburg,37.758,-93.139
06931,Prairie,39.391,-93.708
03742,Hartsburg,38.695,-92.309
05117,Mackenzie,38.580,-90.317
01286,Caledonia,37.763,-90.773
07811,Sherman,40.536,-93.151
00030,Adams,40.170,-93.925
07785,Shawneetown,37.551,-89.652
02306,Des Arc,37.283,-90.637
03094,Fortuna,38.567,-92.798
00727,Bethel,39.877,-92.024
06230,Oaks,39.196,-94.570
01828,Collins,37.891,-93.623
02870,Fairfield,39.483,-93.706
06518,Parnell,40.440,-94.623
04077,Huggins,40.265,-94.438
04232,Jackson,40.009,-93.570
03659,Hamilton,40.525,-94.070
09446,Wortham,37.844,-90.609
00471,Baring,40.244,-92.206
06625,Perkins,37.095,-89.775
06861,Pontiac,36.516,-92.604
04237,Jacksonville,39.588,-92.471
06944,Prathersville,39.313,-94.272
04861,Lincoln,40.535,-94.182
08688,Turney,39.635,-94.321
05687,Montreal,37.969,-92.593
07403,Rosendale,40.044,-94.821
06299,Olean,38.411,-92.529
03977,Holliday,39.494,-92.129
01968,Cosby,39.864,-94.678
05065,Ludlow,39.655,-93.702
06071,Newtown,40.376,-93.335
09161,Westboro,40.535,-95.319
03015,Fleming,39.199,-94.066
03016,Flemington,37.805,-93.501
04875,Lindley,40.525,-93.699
08246,Strasburg,38.760,-94.166
00684,Bennett Springs,37.734,-92.856
06192,Novelty,40.013,-92.208
00106,Alexandria,40.359,-91.455
03175,Frisbee,36.350,-90.029
05682,Monticello,40.118,-91.712
02721,Elmo,40.518,-95.116
00693,Benton City,39.134,-91.765
01535,Chain-O-Lakes,36.535,-93.725
04861,Lincoln,40.083,-93.830
02019,Craig,40.195,-95.371
03652,Halltown,37.193,-93.625
02466,Dudley,36.789,-90.093
03122,Fox Creek,40.242,-93.828
03724,Harrison,40.177,-93.701
09230,White Oak,36.330,-90.028
01110,Brooklyn Heights,37.173,-94.383
02220,Dawn,39.668,-93.635
00383,Avilla,37.195,-94.130
01248,Butler,40.167,-94.157
04054,Howard,40.341,-94.278
07242,Ridgely,39.456,-94.639
09100,Wentworth,36.993,-94.074
00832,Blairstown,38.556,-93.961
05744,Morrison,38.673,-91.636
05752,Mosby,39.316,-94.294
00133,Allenville,37.222,-89.758
00970,Bowling Green,39.370,-92.994
04089,Hunter,36.891,-90.849
06826,Pocahontas,37.501,-89.639
03040,Foley,39.046,-90.742
07149,Reeds,37.116,-94.166
07967,Somerset,40.522,-93.438
04984,Longtown,37.670,-89.774
09014,Washington,40.434,-94.139
07386,Roscoe,37.973,-93.812
06009,New Market,39.502,-94.799
06784,Plato,37.504,-92.225
02419,Dover,39.193,-93.688
09258,Whitewater,37.238,-89.796
02232,De Witt,39.384,-93.221
07488,Rutledge,40.314,-92.088
02299,Denton,36.090,-89.891
00434,Baldwin Park,38.794,-94.246
00994,Bradleyville,36.784,-92.908
02620,Edinburg,40.081,-93.694
03098,Foster,38.166,-94.507
05390,McKittrick,38.735,-91.444
08302,Sumner,39.653,-93.245
09057,Weatherby,39.909,-94.244
05772,Moundville,37.764,-94.452
00099,Aldrich,37.548,-93.555
05548,Millard,40.107,-92.546
08400,Tallapoosa,36.508,-89.819
04187,Ionia,38.504,-93.324
05795,Mount Moriah,40.330,-93.795
07190,Revere,40.495,-91.678
06493,Paradise,39.428,-94.516
07329,Rockford,39.476,-93.279
08921,Waco,37.247,-94.599
03792,Hayward,36.399,-89.670
05080,Luray,40.453,-91.882
00753,Big Lake,40.082,-95.350
01124,Brownington,38.246,-93.723
03133,Franklin,39.012,-92.753
04245,Jameson,40.005,-93.979
00328,Ashley,39.251,-91.220
03300,Gibbs,40.098,-92.417
04702,Latham,38.561,-92.683
03747,Hartwell,38.435,-93.935
07218,Ritchey,36.944,-94.185
02204,Darlington,40.198,-94.396
02926,Farrar,37.702,-89.689
04801,Leopold,37.258,-89.926
06689,Pierpont,38.862,-92.315
03721,Harris,40.306,-93.350
08661,Truxton,39.002,-91.240
09102,Worth,40.405,-94.444
08822,Vandiver,39.163,-91.844
01704,Clay,40.522,-93.834
06557,Paynesville,39.263,-90.900
08317,Sundown,36.566,-92.637
02238,Deering,36.191,-89.883
03499,Grayson,39.533,-94.564
09307,Williamstown,40.241,-91.797
09253,Whiteside,39.185,-91.017
03338,Glen Allen,37.318,-90.028
05056,Lucerne,40.464,-93.292
05504,Middle Grove,39.395,-92.271
05580,Milo,37.756,-94.306
06047,Newark,39.993,-91.973
03313,Guilford,40.170,-94.736
04921,Livonia,40.491,-92.700
07066,Randolph,39.158,-94.496
09034,Watson,40.477,-95.621
01757,Clyde,40.269,-94.669
01892,Connelsville,40.278,-92.700
03275,Gentry,40.332,-94.420
00263,Arkoe,40.258,-94.828
02718,Elmer,39.957,-92.650
04797,Leonard,39.896,-92.179
06936,Prairie Hill,39.519,-92.738
09449,Worthington,40.408,-92.689
01605,Chesapeake,37.117,-93.682
08095,St. Cloud,38.169,-91.218
00127,Allendale,40.486,-94.289
02815,Ethel,39.895,-92.738
04206,Irwin,37.589,-94.286
06844,Pollock,40.359,-93.085
07098,Rea,40.062,-94.765
01073,Brimson,40.144,-93.739
01879,Coney Island,36.593,-93.397
08543,Tindall,40.161,-93.608
01858,Commerce,37.159,-89.443
00413,Bagnell,38.227,-92.602
06925,Powersville,40.549,-93.300
07214,Richards,37.907,-94.557
07021,Quitman,40.373,-95.077
07292,Rives,36.094,-90.013
00264,Arcola,37.549,-93.875
02720,Elmira,39.507,-94.155
08236,Stoutsville,39.547,-91.859
08636,Triplett,39.498,-93.194
08908,Vista,37.988,-93.664
06600,Pendleton,38.827,-91.235
02301,Denver,40.397,-94.323
04652,Lambert,37.093,-89.554
03754,Harwood,37.956,-94.154
09438,Wooldridge,38.906,-92.523
00839,Blanchard,40.578,-95.221
07987,South Fork,36.628,-91.963
00192,Amity,39.871,-94.436
06530,Passaic,38.322,-94.348
02849,Excello,39.636,-92.475
03987,Hollywood,36.051,-90.186
06387,Osgood,40.199,-93.347
01022,Brazeau,37.661,-89.653
03469,Granger,40.468,-91.976
08496,Thomasville,36.789,-91.532
00256,Arbela,40.463,-92.017
03092,Fortescue,40.052,-95.318
01216,Burgess,37.556,-94.615
02841,Evergreen,37.543,-92.597
08233,Stotesbury,37.972,-94.564
01548,Champ,38.741,-90.445
02175,Dalton,39.398,-92.990
06816,Plevna,39.974,-92.086
00764,Bigelow,40.111,-95.290
07275,River Bend,39.179,-94.395
01459,Cave,39.020,-91.043
00015,Abo,37.698,-92.465
00029,Adair,40.252,-92.374
00037,Aid,36.877,-90.041
00045,Adonis,37.796,-93.363
00050,Etna,40.417,-91.979
00057,Agnes,37.512,-92.499
00073,Akron,40.519,-93.817
00082,Albany,39.223,-94.113
00090,Allbright,37.329,-90.227
00118,Alice,37.298,-92.189
00136,Alliance,37.562,-89.997
00137,Allison,40.532,-94.707
00153,Alpha,39.985,-93.421
00160,Alta Vista,39.909,-94.205
00166,Altona,38.400,-94.235
00188,Americus,38.780,-91.564
00197,Amos,38.016,-94.580
00199,Amy,36.606,-92.004
00200,Anaconda,38.302,-91.041
00208,Andover,40.565,-93.895
00227,Anson,40.577,-91.766
00232,Antioch,40.325,-91.693
00239,Apex,39.111,-90.755
00242,Apple Creek,37.613,-89.751
00249,Aquilla,36.947,-89.915
00250,Arab,37.094,-90.077
00257,Arbor,37.159,-89.802
00265,Arden,36.985,-92.805
00266,Ardmore,39.643,-92.536
00271,Argo,38.184,-91.331
00281,Arkmo,35.997,-90.248
00284,Arley,39.404,-94.445
00285,Arlington,37.920,-91.971
00294,Arnett,36.563,-94.222
00296,Arno,36.940,-92.747
00298,Aroma,36.864,-94.265
00307,Arthur,38.013,-94.369
00313,Ascalon,38.701,-90.409
00314,Ash,39.515,-92.290
00317,Ash Hill,36.776,-90.233
00320,Ashburn,39.545,-91.169
00323,Asherville,36.899,-90.187
00330,Ashton,40.446,-91.808
00337,Astoria,37.380,-92.289
00343,Atherton,39.186,-94.306
00356,Atwell,38.038,-92.213
00360,Auburn,39.127,-90.974
00373,Austin,38.503,-94.300
00377,Avalon,39.659,-93.442
00379,Avalon Park,37.326,-93.263
00382,Avery,38.068,-93.360
00386,Avon,37.751,-90.223
00390,Axtell,39.824,-92.473
00403,Bachelor,38.993,-91.772
00406,Bacon,38.709,-92.454
00415,Bailey,38.225,-90.431
00419,Bainbridge,37.410,-89.437
00420,Baird,36.447,-90.004
00423,Baker,36.773,-89.764
00428,Bakerville,36.234,-89.918
00439,Ballard,38.361,-94.143
00450,Bancroft,40.119,-93.859
00457,Banner,37.697,-90.834
00459,Bannister,38.035,-92.988
00477,Barnesville,39.504,-94.231
00477,Barnesville,39.899,-92.590
00496,Barryville,39.668,-92.662
00498,Bartlett,37.005,-91.414
00514,Bass,38.432,-92.325
00522,Batesville,36.699,-90.246
00531,Bay,38.508,-91.559
00552,Beach,37.431,-92.959
00561,Beaman,38.757,-93.134
00563,Bear Branch,39.941,-93.034
00569,Bearcreek,37.657,-93.658
00580,Beaufort,38.421,-91.189
00592,Beaverdam,36.753,-90.631
00601,Bedford,39.696,-93.373
00614,Beemont,38.481,-91.359
00622,Belews Creek,38.299,-90.567
00623,Belfast,36.866,-94.454
00637,Bellair,38.833,-92.844
00638,Bellamy,37.685,-94.181
00645,Bellefontaine,38.026,-90.700
00647,Belleview,37.688,-90.740
00648,Belleville,37.124,-94.591
00661,Bellville,39.774,-91.830
00675,Benbow,39.915,-91.744
00676,Bend,38.194,-91.847
00679,Bengal,36.901,-93.310
00681,Benjamin,40.162,-91.634
00694,Bentonville,38.101,-93.449
00720,Bertha,36.838,-92.385
00723,Berwick,36.933,-94.095
00732,Bethpage,36.690,-94.236
00734,Beulah,37.624,-91.917
00737,Beverly,39.368,-94.867
00743,Bible Grove,40.353,-92.304
00745,Bidwell,37.872,-92.710
00748,Big Creek,37.236,-91.844
00754,Big Piney,37.672,-92.098
00766,Biggs,36.913,-92.192
00768,Billingsville,38.903,-92.794
00774,Burch,37.268,-90.354
00788,Byron,38.335,-91.711
00797,Bixby,37.660,-91.115
00798,Black,37.531,-90.933
00809,Black Oak,39.547,-93.839
00827,Blackwell,38.044,-90.618
00830,Blaine,37.949,-94.385
00838,Blanche,36.820,-92.303
00845,Blase,38.873,-90.477
00850,Bliss,38.093,-90.740
00869,Bloomington,39.797,-92.560
00886,Blue Lick,39.013,-93.210
00890,Blue Ridge,40.192,-93.936
00901,Bluffton,38.708,-91.624
00904,Boaz,37.019,-93.401
00917,Bois D'Arc,37.256,-93.508
00921,Boles,38.531,-90.890
00927,Bolton,40.225,-93.835
00930,Bonanza,39.644,-93.973
00951,Boss,37.643,-91.189
00952,Boston,37.413,-94.282
00956,Boulder City,36.794,-94.249
00959,Bourbon,39.239,-92.315
00964,Bowen,38.558,-93.591
00972,Bowmansville,38.709,-93.734
00976,Boyd,37.502,-93.076
00978,Boydsville,38.816,-92.111
00979,Boyer,37.316,-92.552
00983,Boynton,40.284,-93.084
00986,Bracken,37.341,-92.786
01003,Branch,37.911,-93.005
01006,Brandon,38.508,-93.423
01015,Braswell,36.714,-91.311
01017,Brawley,36.874,-91.284
01041,Brevator,38.958,-90.743
01045,Brian,36.607,-90.093
01046,Briar,36.648,-90.972
01053,Brickey's,38.084,-90.211
01055,Bridge Creek,39.572,-93.385
01059,Bridgeport,38.744,-91.400
01069,Brighton,37.458,-93.348
01077,Briscoe,39.082,-91.012
01079,Bristow,37.805,-94.264
01089,Broadwater,36.582,-89.921
01092,Brock,40.551,-92.152
01109,Brooklyn,40.398,-94.041
01122,Brownfield,37.667,-92.345
01126,Browns,39.050,-92.261
01126,Browns,36.862,-89.633
01139,Brownwood,37.081,-89.954
01150,Brush Creek,37.616,-92.714
01160,Bryson,38.580,-93.479
01161,Buchanan,37.211,-90.192
01163,Buck Creek,38.231,-92.769
01164,Buckeye,36.904,-89.493
01165,Buckhart,36.894,-92.319
01167,Buckhorn,37.338,-90.289
01167,Buckhorn,37.783,-92.269
01180,Bucoda,36.090,-90.214
01181,Bucyrus,37.344,-92.017
01184,Budapest,36.769,-90.711
01194,Buffington,36.831,-89.743
01205,Bullion,40.171,-92.488
01208,Bunker Hill,39.218,-92.531
01208,Bunker Hill,36.706,-89.970
01209,Burbank,37.147,-90.370
01211,Burdett,38.434,-94.483
01215,Burg,37.368,-89.803
01220,Burksville,39.862,-91.918
01227,Burnham,36.927,-91.958
01230,Burns,37.605,-93.309
01235,Burr,36.502,-90.986
01240,Burton,39.215,-92.612
01246,Bushnell,37.497,-94.151
01258,Butts,37.996,-91.156
01270,Caddo,37.342,-93.047
01276,Kagel,37.206,-89.633
01297,Callaway,38.915,-91.951
01299,Calm,36.552,-91.162
01300,Calumet,39.327,-91.012
01321,Campbellton,38.540,-91.161
01327,Kampville,38.852,-90.546
01366,Capps,38.242,-92.321
01376,Carie,36.638,-90.939
01380,Karlin,37.554,-93.414
01399,Carrington,38.808,-92.060
01407,Carsonville,38.717,-90.319
01422,Cascade,37.299,-90.269
01424,Case,37.844,-92.764
01424,Case,38.735,-91.374
01426,Kaseyville,39.624,-92.663
01446,Castor,37.068,-89.979
01449,Catalpa,36.883,-89.294
01451,Catawba,39.641,-93.834
01452,Catawissa,38.425,-90.782
01457,Cato,36.721,-93.680
01460,Cave City,39.689,-91.332
01462,Cave Spring,37.351,-93.464
01478,Cedar City,38.597,-92.180
01479,Cedar Creek,36.579,-92.998
01494,Cedar Springs,37.874,-93.894
01499,Cedarville,37.574,-93.984
01500,Cedron,38.774,-92.568
01533,Chadwick,36.930,-93.057
01538,Chalk Level,38.093,-93.810
01545,Chambersburg,40.524,-91.799
01548,Champ,39.121,-91.930
01549,Champion,36.909,-92.362
01553,Chandler,39.300,-94.383
01557,Chantilly,38.998,-90.843
01558,Chapel,36.936,-91.676
01558,Chapel,40.541,-92.730
01559,Chapel Hill,38.917,-94.058
01560,Chapin,36.691,-91.772
01564,Chariton,40.570,-92.781
01574,Charter Oak,36.715,-89.720
01591,Cheney,36.907,-92.442
01602,Cherry Valley,37.955,-91.267
01604,Cherryville,37.852,-91.277
01616,Chestnut Ridge,37.798,-90.336
01624,Chicopee,36.985,-91.006
01632,Chilton,36.933,-90.921
01634,China,36.612,-91.900
01644,Chloride,37.461,-90.687
01656,Christopher,36.799,-94.290
01666,Cincinnati,39.563,-91.594
01672,Civil Bend,39.997,-94.100
01676,Clara,37.300,-92.021
01695,Clarkson,37.049,-94.005
01700,Claryville,37.892,-89.829
01704,Clay,40.227,-92.453
01708,Claysville,38.661,-92.259
01708,Claysville,39.394,-94.214
01716,Clear Springs,37.108,-91.851
01721,Clearwater,37.766,-90.138
01726,Clement,38.057,-90.165
01731,Cleopatra,40.549,-93.404
01738,Clifton,36.557,-91.530
01738,Clifton,40.427,-92.484
01741,Clinton,37.814,-91.560
01750,Clover Bottom,38.504,-91.120
01753,Cloverdale,37.635,-93.027
01759,Cody,37.119,-93.119
01761,Coal,38.326,-93.615
01762,Kohl City,38.598,-91.365
01782,Cobb,37.894,-93.755
01782,Cobb,36.917,-90.213
01789,Cockrell,38.886,-94.238
01790,Cockrum,36.011,-90.338
01795,Coffman,37.794,-90.194
01807,Cold Springs,38.231,-93.383
01808,Coldspring,36.972,-92.431
01810,Coldwater,37.303,-90.410
01812,Coleman,38.751,-94.395
01822,College Mound,39.623,-92.573
01840,Colony,40.254,-91.991
01849,Columbus,38.859,-93.891
01856,Comet,37.397,-93.632
01860,Como,36.620,-89.755
01869,Concord,39.033,-91.968
01869,Concord,36.293,-89.701
01887,Conklin,37.385,-93.019
01901,Converse,39.499,-94.276
01909,Cookville,37.649,-92.210
01930,Cora,40.110,-93.131
01938,Corry,37.487,-93.725
01947,Cornelia,38.644,-93.739
01952,Corning,40.248,-95.454
01955,Cornwall,37.512,-90.203
01957,Corona,36.551,-91.412
01958,Corridon,37.382,-91.072
01960,Corsicana,36.799,-93.995
01971,Cottage,39.983,-92.582
01979,Cotton Plant,36.090,-90.091
01985,Couch,36.606,-91.383
01997,Courtney,39.156,-94.394
01998,Cove,36.581,-94.103
02003,Covington,36.107,-89.878
02008,Cox,39.637,-92.383
02011,Coy,36.661,-94.532
02017,Craddock,37.639,-91.846
02031,Crawford,40.475,-92.276
02051,Crest,38.450,-93.135
02060,Crider,36.718,-92.078
02071,Crook,38.551,-91.778
02083,Cross Roads,36.850,-92.854
02083,Cross Roads,37.666,-90.247
02083,Cross Roads,36.822,-93.533
02085,Crosstown,37.744,-89.725
02096,Crown,37.264,-92.951
02106,Crump,37.279,-89.829
02131,Cunningham,39.642,-93.240
02131,Cunningham,36.197,-89.700
02132,Kirby,39.846,-92.115
02136,Current View,36.499,-90.778
02146,Custer,37.536,-91.520
02152,Cyclone,36.618,-94.256
02155,Cyrene,39.286,-91.107
02156,Cyrus,36.659,-90.056
02157,Czar,37.753,-91.118
02166,Daisy,37.405,-89.464
02178,Dameron,39.218,-90.800
02182,Danby,38.109,-90.308
02185,Danforth,40.241,-92.734
02195,Danville,38.911,-91.535
02202,Darien,37.520,-91.593
02209,Daugherty,38.604,-94.282
02215,Davis,39.058,-91.020
02218,Davisville,37.808,-91.185
02221,Dawson,37.257,-92.308
02222,Dawsonville,40.464,-95.099
02223,Day,36.813,-93.244
02226,Dayton,38.485,-94.194
02240,Decaturville,37.908,-92.700
02249,Deer,38.622,-91.797
02253,Deer Park,38.861,-92.250
02271,Delaware,37.103,-91.408
02274,Delhi,38.128,-91.348
02277,Dell,38.172,-93.309
02279,Delmar,37.783,-92.550
02298,Dent,37.553,-91.974
02299,Denton,38.613,-93.929
02302,Depew,37.023,-92.863
02332,Dickens,36.727,-93.047
02342,Dillard,37.737,-91.204
02344,Dillman,36.185,-90.105
02345,Dillon,37.972,-91.698
02358,Dissen,37.584,-89.842
02358,Dissen,38.560,-91.276
02361,Dixie,38.719,-92.009
02368,Dockery,39.361,-93.989
02369,Dodds,36.602,-89.674
02379,Dogwood,37.038,-92.831
02379,Dogwood,36.825,-89.454
02391,Dongola,37.168,-89.960
02400,Dora,36.777,-92.217
02403,Dorena,36.616,-89.237
02409,Doss,37.576,-91.485
02419,Dover,40.012,-91.596
02431,Doyle,36.600,-90.910
02435,Drake,38.468,-91.465
02439,Dresden,38.753,-93.319
02441,Drew,37.548,-92.468
02449,Drury,36.931,-92.324
02460,Dublin,0.000,0.000
02475,Dumas,40.521,-91.636
02481,Duncan,37.282,-92.692
02484,Dundee,38.593,-91.125
02489,Dunlap,40.108,-93.483
02493,Dunn,37.141,-92.191
02503,Durham,39.976,-91.668
02533,Earl,38.931,-92.061
02539,Ernestville,38.932,-93.630
02540,Easley,38.802,-92.376
02587,Eastview,36.731,-92.778
02589,Eastwood,36.891,-91.033
02595,Ebenezer,37.340,-93.307
02600,Economy,39.889,-92.421
02610,Edgehill,37.588,-90.933
02616,Edgewood,39.272,-91.075
02620,Edinburg,40.374,-92.185
02626,Edmonson,38.309,-93.224
02632,Edwards,38.137,-93.170
02661,Elko,40.415,-92.865
02668,Eldridge,37.830,-92.749
02671,Elgin,39.936,-91.997
02672,Ely,39.692,-91.633
02675,Elliott,37.043,-93.748
02682,Elk Creek,37.189,-91.997
02686,Elk Prairie,37.864,-91.705
02690,Elkhead,37.014,-92.931
02691,Elkhorn,39.309,-94.113
02693,Elkland,37.443,-93.031
02696,Elkton,37.852,-93.426
02704,Ellis,37.825,-94.449
02709,Ellsworth,37.453,-92.012
02710,Elm,38.853,-94.043
02722,Elmont,38.236,-91.243
02724,Elmwood,39.069,-93.433
02730,Elsey,36.854,-93.541
02735,Elwood,37.228,-93.431
02741,Emden,39.796,-91.863
02745,Emerson,39.889,-91.698
02751,Empire,36.763,-90.316
02761,Energy,40.404,-92.346
02765,Englewood,38.822,-92.184
02773,Enon,38.457,-92.490
02773,Enon,38.863,-90.831
02777,Enterprise,40.024,-93.085
02777,Enterprise,39.649,-92.260
02785,Epworth,39.894,-92.094
02789,Erie,36.728,-94.363
02810,Estes,39.237,-91.376
02813,Estill,39.048,-92.744
02823,Eudora,37.483,-93.538
02826,Eunice,37.245,-91.780
02827,Eureka,37.679,-89.737
02834,Evansville,39.450,-92.302
02836,Eve,37.840,-94.584
02838,Evening Shade,37.576,-92.142
02840,Everett,38.504,-94.427
02850,Excelsior,38.478,-92.722
02851,Exchange,37.226,-91.036
02857,Fabius,40.289,-92.138
02859,Fair Haven,37.976,-94.173
02876,Fairmont,40.331,-91.910
02881,Fairport,39.988,-94.346
02882,Fairview,39.036,-91.184
02886,Fairville,39.232,-93.218
02889,Faith,38.054,-92.398
02890,Falcon,37.605,-92.379
02907,Fanning,38.037,-91.470
02910,Farewell,36.501,-91.361
02915,Farmer,39.257,-91.309
02919,Farmersville,39.961,-93.542
02924,Faro,37.447,-90.438
02935,Fawn,37.544,-91.476
02937,Fay,36.555,-92.344
02939,Fayetteville,38.881,-93.756
02960,Fertile,38.074,-90.686
02970,Filer,37.030,-92.415
02971,Filley,37.759,-93.949
02976,Finey,38.234,-93.546
03004,Flat,37.745,-91.929
03012,Flatwood,37.221,-91.448
03013,Flatwoods,36.681,-90.700
03017,Fletcher,38.166,-90.733
03020,Flint Hill,39.624,-91.383
03028,Florida,39.493,-91.787
03037,Floyd,39.193,-94.111
03037,Floyd,37.954,-90.949
03041,Folsom,38.733,-92.154
03047,Forbes,39.903,-95.083
03050,Ford City,40.112,-94.465
03051,Fordham,39.830,-94.271
03117,Fowler,37.233,-92.217
03139,Franks,37.953,-92.037
03141,Frankville,36.697,-91.806
03143,Frazier,39.629,-94.668
03146,Fredericksburg,38.608,-91.642
03151,Freedom,38.464,-91.691
03159,Fremont,36.952,-91.164
03176,Frisco,36.759,-89.862
03180,Frogtown,37.980,-90.766
03186,Fruitland,37.449,-89.639
03189,Fruitville,36.616,-91.766
03192,Fulkerson,38.854,-94.089
03211,Galesburg,37.269,-94.516
03211,Galesburg,40.519,-93.313
03229,Garber,36.692,-93.299
03241,Garfield,36.585,-91.326
03242,Garland,38.443,-93.854
03243,Garner,39.966,-92.977
03247,Garrison,36.839,-93.020
03250,Garwood,37.066,-90.878
03264,Gatewood,36.577,-91.090
03276,Gentryville,36.864,-92.361
03276,Gentryville,40.133,-94.344
03279,Georgetown,38.759,-93.238
03280,Georgeville,39.496,-93.908
03288,Germantown,38.290,-94.019
03302,Gibson,36.441,-90.031
03302,Gibson,36.118,-89.845
03312,Gilead,40.019,-91.682
03324,Gilmore,38.810,-90.806
03327,Gipsy,37.147,-90.179
03337,Glenn,36.530,-90.684
03351,Glencoe,38.544,-90.624
03352,Glendale,40.487,-92.764
03374,Glover,37.486,-90.691
03398,Goodhope,36.909,-92.808
03400,Goodland,37.636,-91.003
03400,Goodland,39.980,-92.302
03416,Gore,38.714,-91.323
03419,Goshen,40.383,-93.680
03421,Goss,39.514,-91.942
03430,Grace,39.601,-93.441
03430,Grace,37.858,-92.745
03436,Graff,37.318,-92.283
03441,Granada,37.028,-92.737
03474,Graniteville,37.650,-90.680
03479,Grantsville,39.943,-93.114
03481,Granville,39.563,-92.098
03488,Grassy,37.261,-90.124
03494,Gravel Hill,37.358,-89.840
03495,Gravelton,37.298,-90.254
03500,Graysville,40.446,-92.779
03505,Greeley,37.515,-91.187
03531,Greenbrier,37.111,-90.026
03538,Greenlawn,39.477,-91.686
03543,Greensburg,40.296,-92.217
03553,Greer,36.769,-91.353
03554,Gregg,37.052,-94.564
03564,Griffin,37.081,-93.378
03570,Griswold,36.511,-91.145
03583,Grover,38.576,-90.637
03588,Guam,36.902,-89.824
03592,Guild,37.070,-91.802
03608,Guthrie,38.757,-92.097
03620,Hackney,37.345,-93.396
03622,Hayden,38.075,-91.977
03623,Hadley,37.073,-90.798
03631,Hahn,37.205,-90.070
03635,Haynesville,39.461,-94.316
03640,Halifax,38.012,-90.490
03643,Halleck,39.578,-94.821
03648,Halls,39.633,-94.973
03656,Hamden,39.577,-92.823
03664,Hammond,36.676,-92.644
03671,Hancock,37.986,-92.182
03672,Handley,37.528,-92.930
03673,Handy,36.809,-91.107
03690,Hardeman,39.089,-93.011
03712,Harold,37.378,-93.516
03713,Harper,38.063,-93.519
03725,Harrison Mills,38.080,-91.147
03728,Harriston,38.834,-92.948
03734,Hart,36.737,-94.606
03736,Hartford,40.470,-92.836
03744,Hartshorn,37.265,-91.671
03759,Hatch,39.589,-91.618
03761,Hatfield,40.529,-94.155
03764,Hatton,39.024,-92.026
03774,Hawkeye,38.006,-92.393
03798,Hazel Run,37.947,-90.466
03799,Hazelgreen,37.767,-92.427
03806,Hedrick,37.632,-91.666
03814,Hebron,36.852,-92.153
03815,Hecla,39.940,-93.304
03822,Helena,39.913,-94.649
03824,Helm,37.984,-92.154
03826,Helton,39.775,-91.421
03828,Hematite,38.202,-90.481
03829,Hemenway,36.548,-90.652
03834,Henderson,37.141,-93.060
03837,Hendrickson,36.904,-90.469
03838,Henley,38.344,-92.323
03841,Henrietta,38.602,-93.619
03849,Hercules,36.708,-92.873
03850,Hereford,38.992,-92.094
03857,Herndon,39.004,-93.270
03866,Hester,39.911,-91.627
03877,Hickory Creek,39.998,-93.669
03880,Hickory Hill,38.401,-92.360
03882,Hickory Ridge,37.173,-89.805
03890,Higdon,37.593,-90.168
03896,High Point,38.484,-92.591
03897,High Prairie,37.295,-92.765
03899,Highland,37.664,-89.891
03913,Hilda,36.664,-92.982
03914,Hilderbrand,37.576,-89.854
03925,Hilldale,39.063,-92.561
03926,Hilliard,36.825,-90.417
03941,Hinch,38.063,-91.156
03952,Hinton,39.054,-92.340
03953,Hiram,37.179,-90.315
03955,Hitt,40.564,-92.256
03961,Hobson,37.756,-91.632
03964,Hodge,39.224,-93.627
03966,Hoffman,38.924,-93.760
03979,Hollis,36.704,-91.305
03992,Holstein,38.655,-91.171
03999,Homeland,36.667,-91.919
04008,Honey Creek,38.463,-92.242
04014,Hooker,37.860,-92.061
04018,Hoover,39.369,-94.667
04019,Hope,38.528,-91.671
04024,Hopewell,38.689,-91.141
04024,Hopewell,37.888,-90.703
04033,Hornet,36.962,-94.557
04040,Horton,36.870,-92.074
04040,Horton,37.974,-94.368
04047,Houck,37.301,-89.749
04048,Huff,38.244,-90.885
04057,Howell,38.743,-90.611
04059,Howes,37.709,-91.515
04067,Hubbard,39.583,-92.693
04073,Huddleston,36.727,-91.425
04074,Hudson,38.204,-94.090
04077,Huggins,37.320,-92.199
04080,Hugo,37.995,-92.659
04095,Huntington,39.661,-91.599
04100,Huron,37.716,-93.353
04101,Hurricane,37.416,-90.014
04101,Hurricane,38.181,-90.825
04106,Hutchison,39.346,-91.643
04113,Iconium,38.106,-93.544
04116,Idalia,36.864,-89.861
04120,Idlewild,37.004,-90.104
04135,Indian Creek,39.594,-91.777
04137,Indian Grove,39.511,-93.035
04191,Ira,37.873,-92.850
04196,Iron Mountain,37.695,-90.640
04208,Isabella,36.581,-92.613
04211,Island City,40.146,-94.571
04229,Jack,37.576,-91.621
04237,Jacksonville,40.277,-93.113
04248,Jamesville,36.960,-93.371
04253,Japan,38.239,-91.306
04255,Jarvis,38.268,-90.494
04260,Jeddo,40.100,-91.969
04261,Jeff,36.508,-91.388
04268,Jenkins,36.779,-93.687
04277,Jerome,37.926,-91.978
04287,Jewett,37.380,-90.501
04298,Johnson City,38.117,-93.928
04304,Johnstown,38.310,-94.082
04309,Jolly,36.896,-94.070
04320,Jordan,38.021,-93.141
04325,Joy,37.514,-91.674
04330,Judge,38.421,-91.781
04331,Judson,40.312,-93.231
04333,Julesburg,40.462,-92.606
04345,Kaiser,38.134,-92.590
04359,Katy,37.828,-94.572
04375,Kellerville,39.822,-92.135
04377,Kellogg,39.796,-92.442
04381,Keltner,36.969,-92.948
04390,Kendall,39.717,-91.917
04413,Kenwood,40.196,-92.287
04415,Keota,39.708,-92.577
04419,Kern,39.776,-92.701
04422,Kerrville,39.378,-94.695
04428,Ketterman,37.958,-94.285
04431,Kewanee,36.671,-89.574
04439,Keysville,37.875,-91.389
04446,Kiel,38.522,-91.244
04452,Kimble,37.577,-91.841
04454,Kimberly,39.432,-92.489
04459,Kinder,37.016,-90.078
04469,Kings Point,37.321,-93.935
04482,Kinsey,38.031,-90.300
04504,Klondike,38.578,-90.843
04512,Knights,37.140,-94.251
04515,Noble,36.748,-92.569
04517,Not,36.895,-91.581
04521,Knox,37.474,-93.611
04523,Knoxville,39.446,-94.017
04527,Kodiak,39.952,-94.757
04537,Krakow,38.498,-91.046
04544,Lance,37.586,-90.453
04580,Ladd,37.586,-92.112
04585,Laflin,37.277,-89.888
04603,Lake Creek,38.511,-93.134
04623,Lake Station,39.701,-94.889
04630,Lakeland,39.895,-92.274
04636,Lakeside,38.208,-92.620
04641,Lakeview,39.323,-93.777
04642,Lakeview Heights,38.259,-93.156
04673,Langdon,40.356,-95.580
04709,Latty,37.988,-90.851
04713,Laura,40.221,-91.602
04732,Lawrenceburg,37.244,-93.660
04759,Lebeck,37.890,-93.913
04760,Lebo,36.520,-91.909
04768,Leemon,37.464,-89.588
04769,Leeper,37.075,-90.708
04772,Leesville,38.349,-93.545
04788,Lenox,37.653,-91.761
04802,Leota,36.531,-92.038
04807,Lesterville,37.454,-90.843
04813,Levy,37.913,-90.945
04820,Lewis,38.435,-93.692
04835,Libertyville,37.704,-90.288
04843,Light,38.061,-91.734
04848,Lilly,39.470,-94.445
04871,Lindell,38.171,-91.792
04872,Linden,40.486,-95.537
04872,Linden,37.047,-93.134
04875,Lindley,40.082,-93.368
04879,Lingo,39.768,-92.821
04889,Lisbon,39.106,-92.906
04890,Lisle,38.549,-94.595
04897,Little Compton,39.568,-93.286
04917,Lively,38.210,-93.108
04938,Locust,36.564,-92.543
04941,Locust Hill,40.026,-92.276
04944,Lodge,37.324,-90.128
04946,Lodi,37.256,-90.453
04948,Logan,37.145,-93.138
04948,Logan,37.014,-93.616
04962,Lone Elm,38.825,-92.737
04962,Lone Elm,37.114,-94.526
04968,Lone Star,40.341,-94.253
04969,Lone Tree,38.572,-94.361
04985,Longview,36.723,-94.203
04987,Longwood,38.899,-93.170
05030,Louisville,39.242,-92.844
05030,Louisville,39.200,-91.175
05044,Lowell,39.851,-93.355
05054,Lucas,38.416,-94.029
05070,Lulu,36.689,-91.305
05081,Lusk,37.032,-89.382
05094,Lynchburg,37.496,-92.293
05099,Lyon,38.512,-91.174
05100,Lyons,37.566,-92.495
05104,Mabel,39.822,-94.200
05123,Mackville,39.059,-91.060
05124,Macomb,37.094,-92.492
05136,Madisonville,39.457,-91.497
05139,May,36.751,-94.522
05140,McGee,37.074,-90.196
05144,Magnolia,38.639,-93.914
05146,Mahan,37.404,-91.827
05156,Manes,37.380,-92.367
05168,Mammoth,36.536,-92.401
05175,Mandeville,39.496,-93.621
05181,Manila,38.551,-93.336
05210,Maple Grove,37.254,-94.126
05219,Maples,37.584,-91.784
05233,March,37.523,-93.089
05236,Marco,36.748,-89.808
05248,Marion,38.691,-92.366
05260,Marlo,37.950,-90.114
05260,Marlow,36.390,-89.979
05284,Martinsville,40.339,-94.162
05287,Marvin,38.416,-92.771
05312,Mathis,37.722,-93.166
05319,Maud,39.633,-92.196
05321,Maupin,38.241,-90.784
05323,Maurine,38.491,-93.912
05334,Mayfield,37.454,-89.949
05335,Mayflower,36.511,-94.052
05344,Maywood,39.954,-91.600
05352,McBride,37.833,-89.840
05367,McCracken,37.017,-93.158
05370,McCune,39.406,-91.246
05376,McDowell,36.824,-93.793
05383,McIntosh,39.404,-90.973
05387,McKinley,37.061,-93.627
05395,McMullin,36.954,-89.620
05419,Mecca,39.484,-94.523
05422,Mechanicsville,38.693,-90.798
05424,Medford,38.652,-94.007
05439,Melbourne,40.142,-93.788
05461,Mentor,37.106,-93.199
05478,Merritt,36.899,-92.869
05510,Middlebrook,37.662,-90.648
05523,Midland,37.978,-91.327
05528,Midway,38.985,-92.449
05528,Midway,40.159,-91.827
05528,Midway,36.611,-91.477
05536,Mildred,36.637,-93.099
05541,Mill,37.889,-90.347
05550,Millbrook,38.499,-92.357
05553,Millcreek,37.527,-90.310
05558,Millers,37.861,-90.270
05559,Millersburg,38.899,-92.124
05567,Millheim,37.617,-89.887
05571,Millport,40.267,-92.093
05575,Milltown,36.778,-90.605
05576,Millville,39.405,-93.918
05577,Millwood,39.103,-91.106
05583,Milton,40.285,-95.417
05583,Milton,39.470,-92.329
05587,Minden,36.979,-93.916
05588,Mineola,38.888,-91.572
05591,Mineral City,37.716,-90.534
05597,Mingo,36.937,-90.200
05609,Mint Hill,38.549,-91.747
05623,Mitchell,37.847,-90.580
05624,Mitchellville,40.212,-94.072
05631,Modena,40.300,-93.681
05640,Molino,39.302,-91.878
05648,Monday,38.217,-91.021
05665,Montague,36.928,-93.328
05668,Montauk,37.448,-91.696
05674,Monterey,37.572,-90.853
05676,Montevallo,37.726,-94.108
05689,Montserrat,38.775,-93.622
05694,Moody,36.529,-91.989
05715,Mora,38.524,-93.216
05725,Morgan,37.510,-92.677
05750,Morton,39.319,-93.861
05756,Moselle,38.387,-90.898
05758,Mosher,37.971,-90.077
05774,Mount Airy,39.377,-92.635
05788,Mount Hope,38.298,-90.874
05798,Mount Olive,38.901,-93.695
05801,Mount Pleasant,40.227,-94.501
05806,Mount Sterling,38.465,-91.627
05813,Mount Zion,38.218,-93.638
05816,Mountain Dale,37.189,-92.754
05845,Mumford,37.188,-93.201
05849,Munger,37.597,-90.796
05874,Myrick,39.176,-93.903
05875,Myrtle,36.509,-91.267
05877,Mystic,40.156,-92.932
05888,Naomi,39.926,-91.696
05917,Nebo,37.571,-92.335
05921,Needmore,37.618,-93.707
05921,Needmore,38.072,-90.238
05929,Nelsonville,39.926,-91.797
05931,Nemo,37.877,-93.262
05938,Nesbit,36.090,-90.135
05941,Netherlands,36.299,-89.751
05943,Nettleton,39.758,-93.905
05956,New Boston,39.952,-92.860
05983,New Frankfort,39.306,-93.006
05985,New Garden,39.323,-94.166
05991,New Harmony,39.294,-91.375
05992,New Hartford,39.199,-91.270
05997,New Home,38.144,-94.472
05998,New Hope,39.137,-90.864
06002,New Lebanon,38.764,-92.939
06020,New Point,40.055,-95.079
06060,Newland,38.809,-93.173
06064,Newmarket,39.760,-91.732
06065,Newport,37.528,-94.104
06085,Nile,37.360,-91.666
06089,Nind,40.071,-92.768
06091,Nineveh,40.274,-92.695
06099,Nodaway,39.909,-94.968
06124,Norris,38.521,-93.896
06138,North Fork,39.611,-91.919
06156,North River,39.844,-91.490
06157,North Salem,40.031,-92.989
06179,Northview,37.287,-92.997
06183,Norton,39.196,-93.135
06203,Nyssa,36.640,-90.243
06208,Oak,39.894,-94.530
06214,Oak Grove,37.573,-90.395
06215,Oak Grove Heights,37.174,-93.119
06218,Oak Hill,38.206,-91.421
06226,Oak Ridge,36.030,-89.842
06229,Oakdale,39.761,-91.933
06234,Oakland,37.636,-92.559
06241,Oakton,37.458,-94.354
06252,Ocie,36.559,-92.759
06258,Octa,36.171,-90.123
06261,Odin,37.268,-92.618
06270,Ohio,38.156,-93.852
06272,Ohlman,37.426,-91.115
06294,Olden,36.834,-91.911
06296,Oldfield,36.978,-93.040
06297,Oldham,38.731,-92.263
06302,Olga,37.089,-92.907
06305,Olinger,37.277,-93.837
06306,Olive,37.459,-93.109
06316,Olney,39.084,-91.243
06318,Olympia,37.726,-94.029
06319,Omaha,40.532,-92.801
06334,Opal,37.021,-93.770
06341,Orange,37.045,-93.717
06348,Orchid,39.952,-94.530
06359,Oriole,37.442,-89.535
06379,Osage City,38.553,-92.032
06385,Oscar,37.414,-91.831
06390,Oskaloosa,37.639,-94.593
06404,Oto,36.859,-93.455
06417,Owsley,38.645,-93.516
06424,Overton,38.948,-92.576
06428,Owasco,40.138,-92.978
06431,Owens,37.219,-92.403
06437,Oxford,40.421,-94.541
06453,Page City,39.127,-93.731
06461,Palace,37.620,-92.140
06474,Palmetto,37.142,-93.096
06478,Palo Pinto,38.382,-93.456
06482,Panama,38.047,-94.355
06488,Pansy,36.938,-92.846
06491,Panther Valley,37.189,-93.018
06505,Parker,37.064,-89.671
06524,Parsons,40.079,-93.272
06529,Pasley,36.628,-93.889
06532,Patterson,37.188,-90.551
06537,Patton,37.502,-90.013
06540,Patsy,37.962,-91.272
06553,Pawnee,40.522,-94.051
06565,Peach Orchard,36.366,-89.934
06568,Peaksville,40.507,-91.697
06572,Pearl,37.352,-93.487
06579,Pease,37.495,-92.633
06595,Pembina,37.067,-93.122
06606,Pennsboro,37.327,-93.834
06609,Pennville,40.363,-92.947
06619,Peoria,37.756,-90.884
06627,Perrin,39.660,-94.403
06642,Petersburg,38.519,-93.847
06660,Phelps,37.190,-93.903
06661,Phenix,37.379,-93.546
06704,Pin Hook,37.679,-90.736
06709,Pinckney,38.679,-91.233
06711,Pine,36.716,-91.095
06745,Pinhook,36.739,-89.310
06747,Pink Hill,39.050,-94.197
06753,Pioneer,36.836,-94.055
06754,Piper,38.344,-94.015
06759,Pisgah,38.776,-92.649
06764,Pittsburg,37.834,-93.301
06769,Pittsville,38.851,-93.990
06780,Plano,37.193,-93.551
06793,Pleasant Gap,38.173,-94.182
06799,Pleasant Mount,38.368,-92.524
06803,Pleasant Ridge,36.896,-93.792
06803,Pleasant Ridge,40.171,-94.014
06803,Pleasant Ridge,37.364,-92.170
06824,Plymouth,39.597,-93.702
06832,Point Lookout,36.617,-93.239
06835,Point Pleasant,36.453,-89.574
06839,Polk,37.729,-93.299
06853,Ponce de Leon,36.876,-93.351
06854,Pond,38.580,-90.656
06879,Port Hudson,38.454,-91.254
06887,Porter,36.980,-89.478
06891,Portia,37.908,-94.075
06892,Portland,38.711,-91.718
06897,Possum Trot,36.979,-93.429
06898,Possum Walk,40.494,-95.084
06900,Post Oak,38.569,-93.751
06911,Pottersville,36.696,-92.031
06918,Powell,36.623,-94.181
06921,Powellville,37.889,-92.015
06929,Poynor,36.520,-90.907
06933,Prairie City,38.079,-94.175
06944,Prathersville,39.018,-92.322
06945,Pratt,36.530,-90.831
06953,Prescott,37.437,-91.922
06955,Preston,37.279,-94.389
06968,Prior,37.002,-92.302
06969,Proctor,38.255,-92.936
06977,Prosperity,37.126,-94.421
06981,Providence,38.837,-92.406
06981,Providence,36.516,-89.972
06985,Pulaski,36.614,-90.747
06987,Pumpkin Center,37.745,-93.071
06987,Pumpkin Center,40.200,-94.868
06994,Purvis,38.164,-92.817
06997,Pyletown,36.725,-90.019
06999,Pyrmont,38.509,-93.020
07001,Quaker,37.781,-91.002
07017,Quincy,38.008,-93.472
07019,Quinn,40.407,-93.169
07025,Rabbitville,38.072,-90.739
07030,Racine,36.896,-94.527
07031,Racket,38.293,-93.492
07067,Raney,37.952,-93.729
07069,Ranger,37.558,-91.732
07070,Rankin,40.067,-94.918
07089,Rayborn,37.304,-92.358
07099,Redd,36.848,-90.061
07105,Reger,40.144,-93.193
07111,Red Bank,36.938,-92.811
07124,Red Oak,37.229,-94.011
07129,Red Top,37.300,-93.011
07132,Redbird,38.182,-91.571
07137,Redford,37.320,-90.898
07140,Redman,39.866,-92.337
07157,Reform,38.765,-91.779
07159,Regal,39.468,-93.815
07160,Regina,38.326,-90.592
07172,Renfro,38.861,-92.507
07183,Rescue,37.192,-93.979
07195,Reynolds,37.639,-93.158
07195,Reynolds,37.401,-91.073
07199,Rinehart,37.956,-94.499
07203,Roads,39.467,-93.701
07204,Rome,36.842,-92.773
07228,Richville,36.840,-92.239
07228,Richville,39.990,-95.048
07230,Richwoods,38.160,-90.828
07238,Ridgedale,36.504,-93.224
07242,Ridgley,36.697,-94.020
07284,Riverdale,36.995,-93.290
07287,Riverside,38.287,-90.380
07290,Riverview,38.276,-93.070
07294,Roach,37.994,-92.836
07296,Roanoke,39.317,-92.689
07299,Robbins,38.906,-93.808
07304,Robertsville,38.415,-90.814
07307,Roby,37.516,-92.139
07309,Rochester,39.912,-94.685
07322,Rock Springs,37.756,-90.483
07325,Rockbridge,36.789,-92.409
07329,Rockford,39.346,-92.914
07332,Rockingham,39.357,-93.782
07339,Rockview,37.202,-89.639
07348,Rocky Mount,38.324,-92.665
07348,Rocky Mount,38.271,-92.720
07350,Rocky Ridge,37.930,-90.238
07359,Rowland,37.599,-93.816
07368,Romance,36.717,-92.503
07376,Rondo,37.766,-93.450
07377,Roosevelt,36.831,-92.124
07378,Roosterville,39.295,-94.437
07390,Rose Hill,38.633,-94.069
07398,Roseland,38.393,-93.543
07399,Roselle,37.599,-90.526
07407,Rosewood,40.425,-92.923
07417,Rossville,36.733,-90.246
07424,Round Grove,37.267,-93.905
07435,Rover,36.722,-91.621
07437,Rowena,39.326,-92.058
07441,Roy,36.890,-92.804
07442,Royal,38.128,-91.580
07443,Royal Oak,36.734,-91.472
07448,Rucker,39.231,-92.414
07478,Russellville,39.407,-93.830
07491,Ryder,39.305,-92.438
07497,Sabula,37.405,-90.696
07498,Saco,37.366,-90.439
07510,Saint Anthony,38.156,-92.274
07536,Salem,40.029,-91.914
07543,Saline City,39.140,-92.943
07551,Salt River,39.583,-91.306
07553,Salt Springs,39.112,-93.347
07560,Samoa,37.274,-91.913
07561,Sampson,37.442,-92.843
07563,San Antonio,39.777,-94.684
07589,Sand Hill,40.311,-92.128
07607,Sandy Hook,38.748,-92.409
07625,Santa Fe,39.369,-91.819
07629,Santa Rosa,39.980,-94.206
07631,Santiago,38.427,-93.457
07641,Sargent,36.901,-89.506
07641,Sargent,37.087,-92.027
07658,Saxton,39.722,-94.759
07669,Schofield,37.552,-93.207
07672,Schubert,38.517,-92.050
07685,Scotia,38.028,-91.214
07686,Scotland,37.083,-94.377
07687,Scott,38.619,-92.277
07713,Seaton,37.808,-91.603
07717,Sebree,39.127,-92.531
07721,Sedgwick,40.008,-92.906
07730,Sellers,40.066,-91.674
07732,Selma,38.150,-90.342
07738,Seney,39.847,-92.582
07739,Sentinel,37.794,-93.296
07747,Seventy-Six,37.720,-89.612
07756,Shade,36.176,-89.767
07758,Shady Grove,37.509,-92.880
07758,Shady Grove,37.859,-92.278
07762,Shafter,39.984,-93.285
07764,Shamrock,39.003,-91.694
07768,Shannondale,39.359,-92.850
07768,Shannondale,37.390,-91.438
07772,Sharon,39.301,-93.133
07775,Sharp,36.600,-92.208
07778,Sharpsburg,39.687,-91.763
07782,Shaw,38.974,-92.203
07783,Shawnee,37.121,-91.260
07791,Shelby,39.969,-93.018
07811,Sherman,38.537,-90.590
07812,Sherrill,37.589,-91.876
07824,Shirley,37.915,-90.919
07838,Shreve,36.646,-90.096
07844,Sidney,40.354,-92.819
07857,Siloam Springs,40.373,-94.264
07857,Siloam Springs,36.796,-92.076
07858,Silva,37.176,-90.464
07865,Silver Lake,37.684,-89.990
07868,Silver Springs,37.999,-90.525
07873,Simcoe,36.722,-94.168
07874,Simmons,37.231,-92.016
07882,Sue City,39.967,-92.365
07897,Slagle,37.532,-93.375
07907,Sligo,37.774,-91.378
07921,Smithboro,37.392,-90.824
07924,Smithfield,37.169,-94.603
07940,Snyder,39.666,-93.240
07961,Solo,37.233,-91.953
08004,South Troy,38.957,-90.994
08011,Southard,37.539,-92.338
08023,Spalding,39.619,-91.527
08029,Sparta,39.650,-94.833
08032,Speed,38.848,-92.803
08035,Spencer,37.184,-93.703
08037,Sperry,40.280,-92.489
08044,Sprague,38.096,-94.460
08048,Spring Bluff,38.296,-91.238
08053,Spring Garden,38.385,-92.423
08055,Spring Grove,37.552,-93.038
08068,Springhill,39.874,-93.644
08075,Sprott,37.864,-90.328
08077,Spruce,38.266,-94.133
08083,Spurgeon,36.934,-94.472
08084,St. Albans,38.579,-90.775
08095,St. Cloud,39.293,-94.018
08101,St. George,37.381,-92.442
08107,St. John,37.889,-92.380
08107,St. John,40.540,-93.189
08123,St. Patrick,40.264,-91.627
08143,Standish,39.384,-93.429
08161,Stark,39.373,-91.025
08183,Stephens,38.977,-92.131
08187,Sterling,37.044,-92.008
08199,Stickney,38.068,-91.936
08205,Stinson,37.246,-93.752
08209,Stockdale,39.291,-94.343
08211,Stokley,38.839,-93.470
08214,Stoddard,36.791,-90.034
08242,Strain,38.292,-91.303
08255,Stringtown,36.753,-90.583
08255,Stringtown,38.523,-92.354
08263,Stubbs,39.425,-94.751
08270,Sublette,40.301,-92.572
08271,Success,37.444,-92.088
08292,Sulphur Springs,38.336,-90.374
08295,Summerfield,38.284,-91.805
08299,Summit,37.912,-90.708
08321,Sunlight,37.782,-90.905
08330,Sunset,37.551,-93.308
08344,Sutherland,38.585,-93.593
08352,Swan,36.795,-93.063
08360,Swanwick,39.314,-94.031
08363,Sweden,36.877,-92.501
08368,Sweetwater,36.827,-94.266
08376,Sycamore,36.703,-92.274
08382,Sylvania,37.508,-94.023
08389,Table Rock,37.964,-91.997
08394,Taft,36.635,-90.538
08404,Talmage,37.258,-92.413
08414,Tanner,36.918,-89.683
08429,Taylor,39.938,-91.524
08441,Tecumseh,36.587,-92.287
08452,Ten Mile,40.078,-91.643
08452,Ten Mile,39.808,-92.375
08458,Teresita,36.985,-91.629
08497,Thompson,39.189,-91.983
08509,Thorpe,37.488,-92.998
08528,Tiffin,37.955,-93.938
08531,Tilden,37.706,-92.961
08534,Tillman,37.055,-89.864
08536,Timber,37.363,-91.427
08566,Toga,37.116,-89.885
08571,Toledo,38.841,-91.818
08571,Toledo,36.774,-92.686
08581,Toonerville,38.692,-90.733
08582,Topaz,36.946,-92.203
08586,Topsy,40.353,-93.480
08588,Torch,36.536,-90.676
08591,Toronto,38.004,-92.526
08606,Townley,36.617,-89.970
08613,Trail,36.768,-92.295
08653,Troy Mills,40.147,-92.601
08663,Tuckahoe,37.129,-94.529
08669,Tulip,39.343,-92.157
08716,Tyler,36.034,-89.737
08721,Tyrone,37.203,-91.877
08724,Udall,36.542,-92.263
08732,Umpire,37.180,-92.606
08737,Union,40.363,-91.754
08740,Union City,36.979,-93.466
08752,Uniontown,37.615,-89.714
08755,Unity,40.391,-92.256
08768,Upton,37.368,-92.161
08776,Uva,39.731,-91.453
08778,Vada,37.472,-92.051
08793,Valley City,38.866,-93.612
08803,Valley View,38.206,-93.428
08803,Valley View,38.052,-90.276
08807,Van,37.561,-93.287
08809,Van Cleve,38.235,-92.157
08826,Vanzant,36.970,-92.303
08839,Venice,37.208,-91.400
08841,Venus,38.180,-92.034
08843,Vera,39.378,-91.145
08844,Vera Cruz,36.914,-92.494
08868,Vicksburg,36.154,-89.870
08870,Victoria,38.178,-90.526
08872,Vida,37.857,-91.800
08892,Vineland,38.095,-90.613
08899,Viola,36.573,-93.582
08900,Violet,37.667,-93.320
08904,Virginia,38.267,-94.496
08917,Vulcan,37.309,-90.662
08938,Wainwright,38.584,-92.067
08948,Waldo,37.189,-92.745
08950,Waldron,39.222,-94.793
08956,Walkersville,39.741,-92.069
08963,Wallace,39.555,-94.847
08971,Walnut,39.990,-92.718
08990,Wanda,36.811,-94.200
08997,Ware,38.214,-90.662
09003,Warren,39.774,-91.757
09015,Washington Center,40.427,-94.157
09026,Waterloo,40.449,-91.669
09026,Waterloo,39.133,-94.034
09033,Watkins,38.124,-92.381
09064,Weber,40.017,-91.604
09111,West Bend,37.458,-93.461
09123,West Fork,37.492,-91.109
09128,West Hartford,39.411,-91.606
09181,Westover,37.922,-91.228
09187,Westville,39.643,-92.908
09216,White Bear,39.698,-91.461
09218,White City,36.880,-93.398
09219,White Cloud,38.021,-93.373
09235,White Rock,39.334,-93.285
09256,Whitesville,40.061,-94.719
09278,Wien,39.661,-92.784
09284,Wilcox,40.399,-94.967
09293,Willhoit,36.684,-92.506
09302,Williamsburg,38.920,-91.702
09337,Wilton,38.735,-92.359
09340,Winchester,40.318,-91.611
09345,Windyville,37.707,-92.927
09349,Wingate,38.731,-94.205
09353,Winkler,37.836,-91.557
09356,Winner,39.333,-94.492
09358,Winnipeg,37.604,-92.302
09368,Wintersville,40.268,-93.327
09370,Winthrop,39.560,-95.108
09375,Wisdom,38.167,-93.477
09379,Wishart,37.509,-93.460
09382,Wittenberg,37.653,-89.524
09393,Womack,37.681,-90.196
09396,Wood,39.952,-94.453
09411,Woodland,39.753,-91.594
09417,Woodlawn,39.578,-92.213
09426,Woodruff,39.444,-94.817
09429,Woodside,36.742,-91.388
09433,Woodville,39.620,-92.336
09443,Worcester,39.274,-91.754
09445,Worland,38.188,-94.592
09456,Wrightsville,36.473,-89.996
09463,Wyeth,40.025,-94.802
09474,Yancy Mills,37.791,-91.834
09481,Yates,39.310,-92.599
09494,York,40.408,-95.266
09503,Youngstown,40.175,-92.682
09507,Yucatan,38.854,-91.751
09508,Yukon,37.273,-91.848
09514,Zanoni,36.686,-92.332
09519,Zell,37.953,-90.143
09526,Zion,37.422,-90.310