phoneme,name,county,latitude,longitude
1589,Jackson,Hinds County,32.316,-90.213
2249,Gulfport,Harrison County,30.367,-89.093
3797,Olive Branch,DeSoto County,34.962,-89.830
5149,Tupelo,Lee County,34.258,-88.703
3334,Meridian,Lauderdale County,32.364,-88.704
2220,Greenville,Washington County,33.410,-91.062
2097,Madison,Madison County,32.462,-90.115
1085,Clinton,Hinds County,32.342,-90.322
3954,Pearl,Rankin County,32.275,-90.132
3876,Oxford,Lafayette County,34.367,-89.519
0575,Brandon,Rankin County,32.273,-89.986
4874,Starkville,Oktibbeha County,33.450,-88.818
4345,Ridgeland,Madison County,32.428,-90.132
1161,Columbus,Lowndes County,33.496,-88.427
5252,Vicksburg,Warren County,32.353,-90.878
2420,Hernando,DeSoto County,34.824,-89.994
2908,Laurel,Jones County,31.694,-89.131
3037,Long Beach,Harrison County,30.350,-89.153
1044,Clarksdale,Coahoma County,34.200,-90.571
1200,Corinth,Alcorn County,34.934,-88.522
2222,Greenwood,Leflore County,33.516,-90.180
3572,Natchez,Adams County,31.560,-91.403
2225,Grenada,Grenada County,33.769,-89.808
0740,Byram,Hinds County,32.179,-90.245
3260,McComb,Pike County,31.244,-90.453
0631,Brookhaven,Lincoln County,31.579,-90.441
1078,Cleveland,Bolivar County,33.744,-90.725
0813,Canton,Madison County,32.613,-90.037
5424,West Point,Clay County,33.608,-88.650
2582,Indianola,Sunflower County,33.451,-90.655
0537,Booneville,Prentiss County,34.658,-88.567
4842,St. Martin,Jackson County,30.438,-88.868
3596,New Albany,Union County,34.494,-89.008
0302,Batesville,Panola County,34.312,-89.944
4138,Richland,Rankin County,32.239,-90.158
5362,Waveland,Hancock County,30.287,-89.376
2794,Kosciusko,Attala County,33.058,-89.588
4000,Philadelphia,Neshoba County,32.772,-89.117
2497,Holly Springs,Marshall County,34.768,-89.449
2903,Latimer,Jackson County,30.535,-88.867
3071,Louisville,Winston County,33.124,-89.055
1150,Columbia,Marion County,31.252,-89.838
0859,Carthage,Leake County,32.733,-89.536
4123,Pontotoc,Pontotoc County,34.248,-88.999
4363,Ripley,Tippah County,34.730,-88.951
1887,Forest,Scott County,32.365,-89.474
4529,Saltillo,Lee County,34.376,-88.682
0004,Aberdeen,Monroe County,33.825,-88.544
1292,Crystal Springs,Copiah County,31.987,-90.357
1867,Florence,Rankin County,32.153,-90.131
5366,Waynesboro,Wayne County,31.675,-88.646
1666,Ellisville,Jones County,31.604,-89.196
5548,Winona,Montgomery County,33.482,-89.728
5499,Wiggins,Stone County,30.858,-89.135
1978,Fulton,Itawamba County,34.274,-88.409
2938,Leland,Washington County,33.405,-90.898
3955,Pearl River,Neshoba County,32.783,-89.228
0347,Beechwood,Warren County,32.328,-90.827
2532,Houston,Chickasaw County,33.898,-88.999
3492,Morton,Scott County,32.354,-89.655
2392,Hazlehurst,Copiah County,31.860,-90.396
5192,University,Lafayette County,34.366,-89.525
3626,New Hope,Lowndes County,33.468,-88.327
5349,Water Valley,Yalobusha County,34.151,-89.631
2334,Newton,Newton County,32.321,-89.163
2623,Iuka,Tishomingo County,34.812,-88.190
1723,Escatawpa,Jackson County,30.440,-88.544
3675,Nicholson,Pearl River County,30.477,-89.694
5247,Verona,Lee County,34.194,-88.720
0603,Bridgetown,DeSoto County,34.890,-89.905
3130,Macon,Noxubee County,33.105,-88.561
3783,Okolona,Chickasaw County,34.002,-88.755
2488,Hollandale,Washington County,33.169,-90.854
1145,Collins,Covington County,31.645,-89.555
1517,Durant,Holmes County,33.075,-89.855
1805,Farmington,Alcorn County,34.930,-88.452
3111,Lynchburg,DeSoto County,34.962,-90.096
4675,Shelby,Bolivar County,33.951,-90.768
2965,Union,Neshoba County,32.571,-89.115
4222,Quitman,Clarke County,32.040,-88.728
4205,Purvis,Lamar County,31.143,-89.410
3464,Moorhead,Sunflower County,33.450,-90.506
4665,Sharon,Jones County,31.790,-89.099
4082,Pleasant Hill,DeSoto County,34.914,-89.894
3139,Magnolia,Pike County,31.143,-90.459
4262,Raymond,Hinds County,32.259,-90.423
0379,Belmont,Tishomingo County,34.510,-88.209
3110,Lyman,Harrison County,30.495,-89.126
1483,Drew,Sunflower County,33.810,-90.526
0958,Charleston,Tallahatchie County,34.007,-90.057
3744,Oak Grove,Lamar County,31.286,-89.414
0760,Marion,Lauderdale County,32.417,-88.648
1147,Collinsville,Lauderdale County,32.498,-88.846
2089,Glendale,Forrest County,31.365,-89.306
4596,Sardis,Panola County,34.437,-89.916
1369,Decatur,Newton County,32.439,-89.108
1866,Flora,Madison County,32.543,-90.309
0656,Bruce,Calhoun County,33.992,-89.349
3095,Lumberton,Lamar County,31.006,-89.459
4441,Rosedale,Bolivar County,33.853,-91.028
2959,Lexington,Holmes County,33.113,-90.053
4664,Shannon,Lee County,34.116,-88.712
2170,Summit,Pike County,31.284,-90.468
4669,Shaw,Bolivar County,33.601,-90.772
5287,Wade,Jackson County,30.642,-88.570
1819,Fayette,Jefferson County,31.712,-91.061
1133,Coldwater,Tate County,34.692,-89.977
2558,Hurley,Jackson County,30.661,-88.494
5042,Terry,Hinds County,32.096,-90.294
3449,Monticello,Lawrence County,31.554,-90.107
2874,Lambert,Quitman County,34.202,-90.283
0935,Centreville,Amite County,31.087,-91.065
4131,Port Gibson,Claiborne County,31.961,-90.984
2121,Goodman,Holmes County,32.970,-89.912
0759,Caledonia,Lowndes County,33.683,-88.324
5029,Taylorsville,Smith County,31.830,-89.428
3476,Morgantown,Adams County,31.573,-91.348
1733,Etta,Union County,34.470,-89.228
1165,Como,Panola County,34.511,-89.940
2464,Hillsboro,Scott County,32.459,-89.511
5254,Victoria,Marshall County,34.846,-89.618
5471,White Oak,Tunica County,34.646,-90.354
4238,Raleigh,Smith County,32.033,-89.522
5147,Tunica,Tunica County,34.685,-90.383
1611,Edwards,Hinds County,32.330,-90.606
4177,Prentiss,Jefferson Davis County,31.599,-89.867
2676,Jonestown,Coahoma County,34.320,-90.456
4966,Sunflower,Sunflower County,33.543,-90.537
1642,Elliott,Grenada County,33.683,-89.749
0640,Brooksville,Noxubee County,33.235,-88.582
4009,Pickens,Holmes County,32.884,-89.971
3518,Mount Olive,Covington County,31.761,-89.655
5596,Woodville,Wilkinson County,31.105,-91.300
1360,De Kalb,Kemper County,32.768,-88.651
4910,Stonewall,Clarke County,32.132,-88.793
0712,Burnsville,Tishomingo County,34.841,-88.315
3463,Mooreville,Lee County,34.265,-88.577
4075,Plantersville,Lee County,34.213,-88.665
2595,Inverness,Sunflower County,33.354,-90.593
2404,Helena,Jackson County,30.495,-88.496
0503,Blue Mountain,Tippah County,34.671,-89.026
5143,Tucker,Neshoba County,32.707,-89.054
1117,Coffeeville,Yalobusha County,33.977,-89.676
3341,Metcalfe,Washington County,33.454,-91.007
5202,Vaiden,Carroll County,33.332,-89.741
0067,Algoma,Pontotoc County,34.176,-89.031
4290,Redwater,Leake County,32.767,-89.537
4432,Walnut,Tippah County,34.946,-88.900
5051,Thaxton,Pontotoc County,34.308,-89.178
0333,Beaumont,Perry County,31.169,-88.920
2402,Heidelberg,Jasper County,31.887,-88.984
2304,Utica,Hinds County,32.110,-90.623
4564,Sandersville,Jones County,31.787,-89.032
1250,Crenshaw,Panola County,34.505,-90.195
2168,Sherman,Lee County,34.361,-88.839
4112,Polkville,Smith County,32.194,-89.693
0794,Liberty,Amite County,31.158,-90.812
1093,Cloverdale,Adams County,31.498,-91.421
1278,Crowder,Panola County,34.173,-90.138
2283,Hamilton,Monroe County,33.738,-88.445
4736,Smithville,Monroe County,34.070,-88.391
0546,Bovina,Warren County,32.352,-90.735
0192,Ashland,Benton County,34.833,-89.176
0530,Bond,Stone County,30.894,-89.169
2436,Hickory Flat,Benton County,34.616,-89.188
2362,Hatley,Monroe County,33.977,-88.421
0729,Enterprise,Clarke County,32.174,-88.831
0518,Bogue Chitto,Kemper County,32.832,-88.918
0135,Anguilla,Sharkey County,32.974,-90.825
3557,Myrtle,Union County,34.558,-89.119
5316,Walnut Grove,Leake County,32.590,-89.458
5122,Tremont,Itawamba County,34.235,-88.259
1499,Dumas,Tippah County,34.640,-88.844
1230,Courtland,Panola County,34.241,-89.943
2836,Lake,Newton County,32.330,-89.314
3758,Oakland,Yalobusha County,34.056,-89.916
4876,State Line,Greene County,31.436,-88.473
1786,Falkner,Tippah County,34.842,-88.934
5370,Weir,Choctaw County,33.267,-89.291
0518,Bogue Chitto,Lincoln County,31.439,-90.452
3297,Meadville,Franklin County,31.472,-90.897
0506,Blue Springs,Union County,34.402,-88.873
0527,Bolton,Hinds County,32.349,-90.460
1244,Crawford,Lowndes County,33.302,-88.615
0398,Benton,Yazoo County,32.826,-90.259
2434,Hickory,Newton County,32.318,-89.026
2906,Lauderdale,Lauderdale County,32.521,-88.511
1736,Eudora,DeSoto County,34.830,-90.149
1842,Taylor,Lafayette County,34.272,-89.589
0001,Abbeville,Lafayette County,34.503,-89.503
5375,Webb,Tallahatchie County,33.947,-90.344
2079,Glen,Alcorn County,34.858,-88.418
5087,Tishomingo,Tishomingo County,34.637,-88.232
0848,Carrollton,Carroll County,33.508,-89.920
1729,Ethel,Attala County,33.120,-89.466
3282,McLain,Greene County,31.109,-88.827
0421,Bethlehem,Marshall County,34.578,-89.328
0183,Artesia,Lowndes County,33.415,-88.644
4700,Sidon,Leflore County,33.408,-90.204
2858,Lake View,DeSoto County,34.989,-90.141
1527,Eagle Bend,Warren County,32.521,-91.007
3044,Longview,Oktibbeha County,33.404,-88.921
0165,Arcola,Washington County,33.270,-90.880
3519,Mount Pleasant,Marshall County,34.956,-89.516
2251,Gunnison,Bolivar County,33.944,-90.945
1831,Fernwood,Pike County,31.186,-90.449
0334,Beauregard,Copiah County,31.722,-90.382
3116,Lyon,Coahoma County,34.218,-90.542
1362,De Soto,Clarke County,31.974,-88.713
1503,Duncan,Bolivar County,34.045,-90.745
4636,Sebastopol,Leake County,32.568,-89.334
2331,Sumner,Tallahatchie County,33.971,-90.369
1812,Farrell,Coahoma County,34.264,-90.672
2039,Georgetown,Copiah County,31.872,-90.165
0423,Beulah,Bolivar County,33.787,-90.980
0828,Cary,Sharkey County,32.806,-90.927
1272,Crosby,Amite County,31.274,-91.062
1099,Coahoma,Coahoma County,34.367,-90.523
1956,French Camp,Choctaw County,33.293,-89.400
4707,Silver City,Humphreys County,33.097,-90.497
4936,Sturgis,Oktibbeha County,33.345,-89.045
3473,Morgan City,Leflore County,33.381,-90.350
0787,Independence,Tate County,34.705,-89.809
3196,Marietta,Prentiss County,34.502,-88.469
3092,Lula,Coahoma County,34.453,-90.479
3879,Pace,Bolivar County,33.791,-90.857
2109,Golden,Tishomingo County,34.488,-88.189
3941,Pattison,Claiborne County,31.889,-90.887
4488,Silver Creek,Lawrence County,31.605,-89.998
3069,Louise,Humphreys County,32.982,-90.589
1406,Dennis,Tishomingo County,34.559,-88.226
3914,Paris,Lafayette County,34.179,-89.460
2797,Kossuth,Alcorn County,34.872,-88.646
2793,Kokomo,Marion County,31.198,-90.003
2941,Lena,Leake County,32.594,-89.612
5402,West,Holmes County,33.197,-89.777
4060,Pittsboro,Calhoun County,33.940,-89.338
2091,Glendora,Tallahatchie County,33.829,-90.293
1582,Eden,Yazoo County,32.985,-90.323
0432,Big Creek,Calhoun County,33.853,-89.411
3644,New Site,Prentiss County,34.559,-88.409
2484,Holcomb,Grenada County,33.761,-89.976
1784,Falcon,Quitman County,34.393,-90.256
1356,Woodland,Chickasaw County,33.779,-89.051
1371,Waterford,Marshall County,34.648,-89.457
1020,Church Hill,Jefferson County,31.716,-91.238
3453,Montrose,Jasper County,32.124,-89.236
3882,Paden,Tishomingo County,34.660,-88.266
4892,Stewart,Montgomery County,33.451,-89.436
5553,Winterville,Washington County,33.502,-91.058
2303,Scott,Bolivar County,33.592,-91.074
4291,Redwood,Warren County,32.478,-90.804
2137,Grace,Issaquena County,32.999,-90.956
1505,Dundee,Tunica County,34.524,-90.456
5215,Valley Park,Issaquena County,32.633,-90.867
0228,Austin,Tunica County,34.641,-90.449
0525,Bolivar,Bolivar County,33.660,-91.053
2873,Lamar,Benton County,34.917,-89.318
4909,Stoneville,Washington County,33.424,-90.915
4141,Porterville,Kemper County,32.688,-88.472
1493,Dublin,Coahoma County,34.072,-90.491
5144,Tula,Lafayette County,34.233,-89.362
0002,Abbott,Clay County,33.680,-88.774
0142,Ansley,Hancock County,30.225,-89.484
0230,Avalon,Carroll County,33.655,-90.086
0231,Avera,Greene County,31.296,-88.741
0251,Baird,Sunflower County,33.425,-90.500
0265,Banks,Tunica County,34.826,-90.230
0367,Bellevue,Lamar County,31.310,-89.500
0427,Bexley,George County,30.967,-88.674
0461,Black Hawk,Carroll County,33.326,-90.024
0584,Brazil,Tallahatchie County,34.026,-90.281
0634,Brooklyn,Forrest County,31.056,-89.186
0647,Browning,Leflore County,33.518,-90.120
0652,Brownsville,Hinds County,32.449,-90.437
0682,Buena Vista,Chickasaw County,33.884,-88.838
0731,Troy,Pontotoc County,34.119,-88.885
0741,Lawrence,Newton County,32.325,-89.233
0749,Hamburg,Franklin County,31.579,-91.067
0753,Caile,Sunflower County,33.300,-90.590
0778,Camden,Madison County,32.782,-89.839
0797,Osborn,Oktibbeha County,33.521,-88.722
0810,Cannonsburg,Jefferson County,31.634,-91.211
0832,Carlisle,Claiborne County,32.003,-90.784
0838,Carnes,Forrest County,30.994,-89.260
0842,Carpenter,Copiah County,32.034,-90.680
0851,Carson,Jefferson Davis County,31.538,-89.795
0894,Cayce,Marshall County,34.955,-89.618
0920,Chester,Choctaw County,33.359,-89.238
0943,Chalybeate,Tippah County,34.930,-88.868
0980,Cheraw,Marion County,31.156,-89.843
1013,Choctaw,Bolivar County,33.558,-90.813
1013,Choctaw,Neshoba County,32.778,-89.101
1035,Gwin,Holmes County,33.174,-90.223
1323,Daleville,Lauderdale County,32.570,-88.676
1509,Dunleith,Washington County,33.436,-90.821
1567,Eastport,Tishomingo County,34.886,-88.101
1575,Ebenezer,Holmes County,32.971,-90.091
1602,Edinburg,Leake County,32.799,-89.336
1615,Egremont,Sharkey County,32.861,-90.903
1616,Egypt,Chickasaw County,33.898,-88.730
1637,Sparta,Chickasaw County,33.769,-88.979
1753,Michigan City,Benton County,34.981,-89.251
1776,Sibley,Adams County,31.379,-91.399
1888,Warrenton,Warren County,32.248,-90.928
1938,Franklin,Holmes County,33.036,-90.002
1973,Fruitland Park,Forrest County,30.916,-89.171
2080,Glen Allan,Washington County,33.024,-91.030
2118,Good Hope,Holmes County,33.102,-90.300
2337,Harriston,Jefferson County,31.725,-91.032
2338,Harrisville,Simpson County,31.973,-90.078
2496,Holly Ridge,Sunflower County,33.446,-90.753
2499,Holmesville,Pike County,31.204,-90.309
2519,Hopewell,Covington County,31.718,-89.471
2543,Hudsonville,Marshall County,34.861,-89.375
2559,Hurricane,Pontotoc County,34.351,-89.158
2765,Kingston,Adams County,31.406,-91.278
2775,Kirkville,Itawamba County,34.451,-88.490
2864,Lakeshore,Hancock County,30.247,-89.436
2878,Lamont,Bolivar County,33.535,-91.076
2955,Lewisburg,DeSoto County,34.862,-89.833
2966,Washington,Adams County,31.579,-91.299
3002,Little Rock,Newton County,32.526,-89.025
3012,Livingston,Madison County,32.553,-90.216
3072,Love,DeSoto County,34.753,-89.970
3189,Marcella,Holmes County,33.129,-90.297
3221,Martinsville,Copiah County,31.791,-90.407
3275,McHenry,Stone County,30.707,-89.138
3335,Merrill,George County,30.979,-88.721
3457,Moon Lake,Coahoma County,34.440,-90.495
3476,Morgantown,Marion County,31.313,-89.916
3476,Morgantown,Oktibbeha County,33.306,-88.997
3565,Napanee,Washington County,33.506,-90.871
3692,Norfolk,DeSoto County,34.951,-90.231
3780,Oil City,Yazoo County,32.691,-90.434
3814,Onward,Sharkey County,32.725,-90.942
3913,Parchman,Sunflower County,33.932,-90.551
4037,Pine Ridge,Adams County,31.629,-91.345
4081,Pleasant Grove,Panola County,34.439,-90.089
4101,Pocahontas,Hinds County,32.474,-90.286
4103,Point,Lauderdale County,32.311,-88.891
4138,Richland,Holmes County,32.974,-89.986
4166,Prairie,Monroe County,33.797,-88.668
4223,Quito,Leflore County,33.439,-90.301
4250,Randolph,Pontotoc County,34.181,-89.168
4277,Red Lick,Jefferson County,31.793,-90.979
4320,Rome,Sunflower County,33.963,-90.478
4365,Rising Sun,Leflore County,33.459,-90.209
4405,Rockport,Copiah County,31.795,-90.156
4439,Rose Hill,Jasper County,32.145,-88.996
4493,Ruth,Lincoln County,31.382,-90.316
4558,Sand Hill,Rankin County,32.488,-89.880
4576,Sanford,Covington County,31.487,-89.427
4590,Sarah,Tate County,34.569,-90.210
4603,Savoy,Lauderdale County,32.271,-88.770
4665,Sharon,Madison County,32.658,-89.936
4682,Sherard,Coahoma County,34.216,-90.706
4690,Shipman,George County,30.878,-88.475
4725,Slayden,Marshall County,34.947,-89.441
4856,Stafford Springs,Jasper County,31.905,-88.933
4867,Star,Rankin County,32.094,-90.046
4918,Stovall,Coahoma County,34.297,-90.645
4983,Swan Lake,Tallahatchie County,33.875,-90.283
4992,Swiftwater,Washington County,33.337,-91.060
5036,Ten Mile,Stone County,30.766,-89.144
5065,Thornton,Holmes County,33.079,-90.323
5074,Tibbee,Clay County,33.528,-88.631
5225,Vance,Quitman County,34.073,-90.351
5233,Vaughan,Yazoo County,32.806,-90.042
5244,Vernal,Greene County,31.039,-88.611
5369,Wayside,Washington County,33.269,-91.034
5497,Whynot,Lauderdale County,32.289,-88.490
5504,Wildwood,Leflore County,33.619,-90.241
5512,Williamsburg,Covington County,31.619,-89.611