phoneme,name,latitude,longitude
00793,Bismarck,46.808,-100.784
03444,Grand Forks,47.925,-97.033
05608,Minot,48.233,-101.296
09312,Williston,48.147,-103.618
02336,Dickinson,46.879,-102.790
05174,Mandan,46.827,-100.890
04247,Jamestown,46.911,-98.708
08935,Wahpeton,46.265,-96.606
02314,Devils Lake,48.112,-98.876
08793,Valley City,46.923,-98.003
04861,Lincoln,46.762,-100.700
03782,Hay Creek,46.873,-100.798
03437,Grafton,48.412,-97.411
00242,Apple Creek,46.750,-100.634
04030,Horace,46.759,-96.904
00734,Beulah,47.263,-101.778
03300,Gibbs,46.858,-100.637
06035,New Town,47.981,-102.490
09025,Waterford,48.416,-101.386
07456,Rugby,48.369,-99.996
08147,Stanley,48.317,-102.390
03803,Hazen,47.294,-101.623
04889,Lisbon,46.442,-97.681
06230,Oakes,46.139,-98.090
03724,Harrison,48.244,-101.367
05343,Mayville,47.498,-97.325
03931,Hillsboro,47.404,-97.062
03752,Harvey,47.770,-99.935
03247,Garrison,47.652,-101.416
09013,Washburn,47.289,-101.029
07362,Rolla,48.858,-99.618
07148,Reed,46.941,-96.871
08497,Thompson,47.774,-97.110
02077,Crosby,48.914,-103.295
04885,Linton,46.267,-100.233
06030,New Salem,46.845,-101.411
00552,Beach,46.918,-104.004
06182,Northwood,47.734,-97.567
01919,Cooperstown,47.444,-98.124
08147,Stanley,46.751,-96.839
05617,Mission,47.993,-98.840
08953,Walhalla,48.923,-97.918
06523,Parshall,47.953,-102.135
01345,Cannon Ball,46.389,-100.594
00051,Afton,48.149,-101.334
03754,Harwood,46.979,-96.881
03814,Hebron,46.901,-102.045
08736,Underwood,47.456,-101.137
08225,Stony Creek,48.081,-103.526
03507,Green Acres,48.838,-99.690
05893,Napoleon,46.508,-99.771
02438,Drayton,48.571,-97.178
09337,Wilton,47.158,-100.784
03764,Hatton,47.640,-97.453
07088,Ray,48.344,-103.165
04647,Lakota,48.043,-98.336
00857,Bloom,46.943,-98.619
08178,Steele,46.855,-99.916
05579,Milnor,46.259,-97.456
05610,Minto,48.292,-97.371
05528,Midway,46.937,-98.768
00328,Ashley,46.034,-99.371
06892,Portland,47.498,-97.370
01506,Center,47.116,-101.300
07359,Roland,48.944,-100.370
00127,Allendale,47.810,-97.185
08960,Walle,47.795,-97.034
02671,Elgin,46.404,-101.846
08789,Valley,46.957,-97.960
08624,Trenton,48.071,-103.837
03074,Forman,46.108,-97.636
09397,Wood Lake,47.897,-98.822
08605,Towner,48.346,-100.405
01506,Center,46.237,-96.683
09488,Yellowstone,47.896,-103.997
07492,Rye,47.981,-97.181
03350,Glenburn,48.513,-101.221
04540,Kulm,46.302,-98.948
05402,McVille,47.764,-98.177
06924,Powers Lake,48.563,-102.648
01225,Burlington,48.239,-101.463
05202,Manvel,48.078,-97.176
02827,Eureka,48.328,-101.338
07428,Round Prairie,48.151,-103.959
06436,Oxbow,46.673,-96.810
08340,Surrey,48.240,-101.074
06790,Pleasant,46.667,-96.859
02888,Ferry,48.059,-97.177
08246,Strasburg,46.134,-100.162
08151,Stanton,47.321,-101.382
01259,Buxton,47.602,-97.097
06122,Normanna,46.675,-96.988
08943,Walcott,46.587,-96.927
04331,Judson,48.160,-103.795
04000,Homer,46.841,-98.618
05325,Max,47.821,-101.299
06383,Osborn,47.987,-102.430
08107,St. John,48.944,-99.711
08130,St. Thomas,48.619,-97.446
07654,Sawyer,48.090,-101.054
04214,Island Park,46.408,-97.732
00105,Alexander,47.843,-103.643
00863,Blooming,47.971,-97.298
02435,Drake,47.924,-100.372
00971,Bowman,46.161,-103.444
07195,Reynolds,47.669,-97.106
06867,Poplar Grove,48.077,-99.010
04019,Hope,47.322,-97.722
05235,Marsh,46.848,-97.997
05428,Medina,46.894,-99.300
01817,Colfax,46.500,-96.926
03332,Gladstone,46.861,-102.568
05500,Michigan City,48.025,-98.117
08602,Tower City,46.926,-97.676
00104,Alex,47.801,-103.594
06021,New Prairie,48.153,-101.079
01405,Carson,46.418,-101.565
03706,Harmon,46.952,-100.953
02892,Falconer,47.984,-97.077
02211,Davenport,46.714,-97.070
00007,Abercrombie,46.448,-96.730
08711,Twin Valley,48.045,-103.187
04406,Kensington,48.416,-97.722
04948,Logan,48.148,-101.154
04797,Leonard,46.652,-97.246
02518,Eagle,46.532,-96.782
00211,Aneta,47.679,-97.988
02960,Fertile,48.413,-97.601
00018,Akra,48.755,-97.762
09400,Woodbury,46.841,-98.766
07090,Raymond,46.941,-96.979
08429,Taylor,46.901,-102.425
01399,Carrington,47.472,-99.075
03801,Hazelton,46.485,-100.280
07284,Riverdale,47.498,-101.371
08299,Summit,46.146,-96.668
02128,Cummings,47.514,-97.079
01070,Brightwood,46.069,-96.937
03366,Glenview,47.019,-100.834
06680,Pickering,48.856,-100.514
08418,Tappen,46.875,-99.636
08654,Truax,48.121,-103.286
08117,St. Mary,47.625,-101.494
06243,Oakwood,48.412,-97.339
00564,Bear Creek,46.156,-98.054
05220,Mapleton,46.844,-96.997
06871,Porcupine,46.219,-101.099
02620,Edinburg,48.497,-97.862
03182,Frontier,46.801,-96.833
02235,Dean,46.319,-98.350
00245,Apple Valley,46.822,-100.598
05606,Minnewaukan,48.071,-99.252
05850,Munich,48.669,-98.833
03386,Golden Valley,47.291,-102.065
03461,Grandin,47.237,-97.003
00188,Americus,47.723,-97.035
07813,Sherwood,48.960,-101.633
07817,Sheyenne,47.828,-99.120
02671,Elgin,48.754,-98.420
08737,Union,47.709,-97.291
00490,Barrie,46.586,-97.103
06242,Oakville,47.883,-97.306
03241,Garfield,47.628,-97.409
04115,Idaho,48.329,-102.370
00747,Big Bend,46.406,-97.605
08877,Viking,47.542,-97.411
02067,Crofte,47.026,-100.686
08187,Sterling,46.814,-100.291
00581,Beaulieu,48.755,-97.893
00770,Binford,47.562,-98.345
08693,Turtle River,48.143,-97.202
04892,Litchville,46.654,-98.194
06186,Norway,47.454,-97.156
05606,Minnewaukan,48.144,-98.757
03367,Glenwood,48.499,-97.600
05621,Missouri,46.688,-100.640
07587,Sanborn,46.942,-98.224
03151,Freedom,48.064,-101.335
04969,Lone Tree,46.713,-103.951
06806,Pleasant Valley,48.328,-102.893
01609,Chester,47.889,-97.430
01653,Christine,46.574,-96.802
07486,Ruthville,48.372,-101.299
07881,Sioux,47.913,-103.871
09317,Willow City,48.604,-100.294
00329,Ashtabula,47.114,-98.014
03534,Greendale,45.979,-96.831
03958,Hobart,46.936,-98.116
07943,Snow,47.629,-101.248
02628,Edmore,48.413,-98.454
06808,Pleasant View,47.808,-97.445
00862,Bloomfield,47.367,-97.155
00907,Bowdon,47.470,-99.708
08573,Tolna,47.827,-98.440
06106,Noonan,48.889,-103.009
00047,Advance,48.834,-97.753
04019,Hope,48.141,-98.476
08942,Walburg,46.767,-97.357
00976,Boyd,46.765,-100.521
05387,McKinley,48.331,-101.200
03475,Grant,46.057,-97.219
01849,Columbus,48.904,-102.780
02698,Ellendale,45.974,-98.579
08763,Upham,48.582,-100.728
02870,Fairfield,47.803,-97.301
09014,Washington,47.716,-97.431
00119,Aliceton,46.319,-97.585
05248,Marion,46.607,-98.332
05699,Moore,46.587,-97.721
09003,Warren,46.754,-97.000
01726,Clement,46.175,-98.194
03240,Gardner,47.147,-96.968
02870,Fairfield,47.189,-103.222
02921,Farmington,48.499,-97.470
09311,Willis,48.061,-101.196
02712,Elm Grove,47.977,-97.688
05216,Maple River,46.761,-97.240
00624,Belford,46.153,-96.948
00702,Berlin,47.019,-97.010
09417,Woodlawn,46.843,-99.880
05431,Medora,46.914,-103.524
03506,Greene,46.580,-97.459
03641,Hall,46.239,-97.332
00046,Adrian,46.595,-98.589
02666,Eldorado,47.461,-97.017
05499,Michigan,47.709,-97.163
03404,Goodrich,47.475,-100.126
03314,Gill,46.844,-97.364
08601,Tower,46.942,-97.609
00229,Antelope,46.326,-96.967
02751,Empire,47.014,-97.378
03728,Harriston,48.326,-97.317
04403,Kennison,46.573,-98.725
07687,Scott,45.984,-102.560
09506,Ypsilanti,46.782,-98.563
00719,Burt,48.160,-101.458
00789,Bisbee,48.626,-99.378
08172,Stavanger,47.628,-97.027
03694,Hardscrabble,48.071,-103.943
04831,Liberty,46.580,-97.611
03823,Helendale,46.580,-97.209
06065,Newport,48.327,-100.432
02484,Dundee,48.500,-97.731
02839,Everest,46.847,-97.241
05493,Meyer,48.323,-99.891
07284,Riverdale,46.059,-98.081
01381,Carlisle,48.804,-97.360
07851,Sykeston,47.465,-99.400
02972,Fillmore,48.945,-103.257
07077,Raritan,46.669,-97.732
07793,Sheldon,46.586,-97.491
00150,Almont,46.725,-101.503
03357,Glenfield,47.453,-98.567
08812,Van Meter,45.980,-98.444
00036,Addison,46.760,-97.116
00158,Alta,46.935,-97.873
06048,Newburg,48.715,-100.913
07850,Sikes,48.151,-102.386
00027,Acton,48.425,-97.202
03096,Forward,47.716,-99.876
01966,Corwin,46.747,-98.638
02877,Fairmount,46.024,-96.602
03506,Green,46.841,-98.113
05886,Nansen,46.413,-96.967
08701,Twelve Mile,48.122,-103.421
09222,White Earth,48.381,-102.773
01161,Buchanan,47.015,-98.775
02775,Ensign,48.502,-101.257
03899,Highland,46.671,-97.482
04002,Homestead,46.326,-97.092
00186,Amenia,47.026,-97.271
02238,Deering,48.396,-101.052
05279,Martin,48.506,-97.332
08398,Talbot,46.170,-103.305
08909,Vivian,46.243,-97.840
02801,Esmond,48.036,-99.762
04474,Kingston,46.058,-97.311
07841,Sibley,46.828,-99.780
02667,Eldred,46.767,-97.493
06154,North Prairie,48.160,-100.940
07406,Roseville,47.454,-97.410
09034,Watson,46.673,-97.367
09299,Willey,46.235,-97.580
02415,Douglas,47.857,-101.503
02479,Dunbar,46.160,-97.560
03932,Hillsdale,47.811,-99.995
06932,Prairie Centre,48.325,-97.579
07468,Rush River,47.026,-97.145
07772,Sharon,47.597,-97.894
00386,Avon,47.802,-97.559
01935,Cordelia,48.835,-100.244
04977,Long Lake,46.666,-100.267
05686,Montpelier,46.700,-98.590
06990,Purcell,48.247,-102.353
07411,Ross,48.311,-102.547
08948,Waldo,46.064,-96.814
09347,Winfield,46.841,-98.492
05181,Manilla,48.761,-98.277
06861,Pontiac,46.666,-97.609
07252,Riga,48.327,-100.681
08240,Strabane,48.144,-97.568
09089,Wells,47.811,-99.855
02371,Dodge,47.306,-102.204
03535,Greenfield,47.281,-97.261
04833,Liberty Grove,46.146,-97.063
08546,Tioga,48.423,-102.962
02359,Divide,46.236,-98.064
03481,Granville,48.234,-100.812
03535,Greenfield,47.284,-98.151
04354,Karlsruhe,48.090,-100.620
06048,Newburgh,47.629,-97.537
00587,Beaver Creek,47.623,-97.655
03430,Grace,47.802,-97.688
01425,Casey,46.493,-97.605
03383,Golden,48.407,-97.853
04592,Lehr,46.282,-99.353
05117,McKenzie,46.822,-100.415
05979,New England,46.499,-102.863
09517,Zeeland,45.970,-99.831
02322,Dexter,46.144,-97.177
02629,Edna,47.110,-98.267
04074,Hudson,46.074,-98.184
05725,Morgan,47.629,-97.282
06108,Nora,46.420,-98.715
07363,Rolling Green,48.144,-101.581
07844,Sydney,46.754,-98.744
01005,Brandenburg,46.153,-96.825
01851,Colville,48.591,-102.693
02226,Dayton,47.797,-98.450
02675,Elliott,46.420,-97.857
03841,Henrietta,46.412,-98.465
04515,Noble,47.194,-96.887
05814,Mountain,48.688,-97.865
02512,Dwight,46.304,-96.738
03149,Freeborn,47.810,-98.631
03707,Harmony,46.941,-97.127
04059,Howes,46.854,-97.482
05240,Margaret,48.408,-101.114
07071,Ransom,46.067,-97.441
07470,Rushford,48.326,-97.709
00664,Belmont,47.621,-96.912
02783,Epping,48.279,-103.357
04380,Kelso,47.281,-97.007
06587,Pekin,47.791,-98.328
09166,Western,47.710,-99.995
05410,Meadow Lake,46.761,-98.354
07207,Rice Lake,47.986,-101.541
07390,Rose Hill,47.450,-98.939
08124,St. Paul,46.856,-99.373
09376,Wise,47.552,-100.755
02166,Dazey,47.191,-98.202
08351,Sverdrup,47.378,-98.065
02716,Elma,45.976,-96.981
04643,Lakeville,48.070,-97.330
06955,Preston,46.580,-97.836
08777,Uxbridge,47.117,-98.394
00057,Agnes,48.064,-97.709
00839,Blanchard,47.367,-97.283
02221,Dawson,46.869,-99.751
02395,Donnybrook,48.509,-101.885
02710,Elm,45.984,-98.704
06331,Ontario,48.162,-98.601
07699,Scranton,46.174,-103.179
08109,St. Joseph,48.954,-97.726
02109,Crystal,48.586,-97.732
05160,Malcolm,47.625,-101.110
05750,Morton,46.668,-100.384
08856,Vernon,48.326,-97.838
08870,Victoria,47.537,-101.258
09110,West Bank,48.328,-103.022
01443,Castle Rock,46.320,-102.371
05424,Medford,48.239,-97.840
05458,Menoken,46.821,-100.531
06985,Pulaski,48.317,-97.200
00772,Binghampton,46.761,-97.745
01188,Buffalo,46.938,-97.482
04628,Lake Williams,47.548,-100.849
04758,Lebanon,48.059,-100.810
05940,Ness,48.329,-100.190
06073,Niagara,47.971,-97.795
00771,Bingham,47.548,-96.909
01852,Colvin,47.715,-98.601
02291,Denmark,48.757,-102.076
05279,Martin,47.804,-100.123
05802,Mount Rose,48.676,-101.255
07209,Rich,47.101,-97.505
08194,Stewart,47.023,-98.150
08980,Walshville,48.245,-97.194
01121,Brown,47.981,-100.896
01251,Butte,47.838,-100.665
01738,Clifton,46.753,-97.629
04089,Hunter,47.203,-97.266
06797,Pleasant Lake,48.326,-99.761
06964,Primrose,47.455,-97.537
07635,Saratoga,46.595,-98.463
02028,Crane Creek,48.068,-102.384
02446,Driscoll,46.844,-100.141
03630,Hague,46.029,-99.996
03768,Havana,45.950,-97.619
04327,Jud,46.526,-98.896
04680,Lansford,48.582,-101.375
07685,Scotia,48.945,-100.896
08334,Superior,47.635,-99.064
08695,Tuscarora,48.239,-100.031
09013,Washburn,47.456,-98.032
00307,Arthur,47.108,-97.263
01732,Cleveland,48.233,-97.961
03294,Getchell,47.015,-98.031
05359,McClusky,47.451,-100.492
06686,Pierce,47.203,-98.392
07268,Ryan,46.319,-98.213
07387,Rose,47.021,-98.529
08051,Spring Creek,46.683,-98.114
09197,Wheatfield,48.064,-97.579
09378,Wiser,47.107,-96.883
03681,Hanson,46.416,-97.956
05291,Maryland,48.343,-101.074
05337,Mayland,48.416,-101.647
05696,Moon Lake,46.849,-98.999
05716,Moraine,47.892,-97.827
08393,Tacoma,48.669,-100.853
08877,Viking,46.500,-97.093
09011,Warwick,47.888,-98.697
09198,Wheatland,46.907,-97.345
00395,Ayr,47.022,-97.515
00677,Benedict,47.830,-101.082
03757,Hastings,48.770,-101.180
00233,Antler,48.951,-101.289
00327,Ashland,47.104,-98.641
01453,Kathryn,46.678,-97.969
03548,Greenville,46.416,-98.100
04099,Hurley,48.844,-101.549
05381,McHenry,47.576,-98.591
01006,Brandon,48.748,-101.571
02301,Denver,46.233,-97.934
03211,Galesburg,47.275,-97.378
05717,Moran,46.053,-97.065
07739,Sentinel,46.886,-103.719
08858,Verona,46.364,-98.072
00964,Bowen,46.153,-97.695
01772,Colgate,47.245,-97.656
03332,Gladstone,46.500,-98.223
05189,Manning,46.706,-99.876
05607,Minnie,46.415,-101.860
06175,Northland,46.581,-97.960
06595,Pembina,48.944,-97.308
08183,Stevens,48.064,-98.614
08590,Torning,48.071,-101.483
09064,Weber,45.972,-97.563
00111,Alger,48.237,-102.494
03165,Freshwater,48.252,-98.899
04861,Lincoln,48.675,-97.198
06062,Newman,47.983,-101.159
07088,Ray,46.417,-98.841
07771,Sharlow,46.677,-98.906
08066,Springer,46.498,-97.848
03939,Hilton,47.986,-101.433
05269,Marshall,48.329,-103.410
01732,Cleveland,46.892,-99.118
02727,Elora,48.587,-97.600
03194,Fullerton,46.165,-98.427
03485,Grass Lake,47.208,-100.675
05104,Mabel,47.379,-98.447
05174,Mandan,48.248,-101.718
08599,Tuttle,47.144,-99.995
08780,Vale,48.853,-102.604
03662,Hamlin,47.810,-98.215
04973,Long Creek,48.102,-103.259
06156,North River,46.951,-96.803
06649,Pettibone,47.119,-99.520
07807,Sherbrooke,47.455,-97.665
07817,Sheyenne,46.508,-97.216
08721,Tyrone,48.327,-103.678
06228,Oak Valley,48.777,-100.512
08072,Springvale,46.847,-97.745
08692,Turtle Lake,47.549,-100.986
02710,Elm,46.415,-101.736
05004,Loretta,47.716,-97.818
05523,Midland,48.637,-97.332
02624,Edmunds,47.284,-98.901
02786,Equality,48.333,-103.143
03659,Hamilton,48.772,-97.491
04789,Lenora,47.637,-98.045
04812,Levant,48.151,-97.319
05076,Lund,48.059,-101.846
06111,Norden,46.344,-98.974
07749,Severn,46.689,-98.766
08252,Streeter,46.675,-99.396
00408,Badger,46.319,-98.463
01048,Briarwood,46.786,-96.797
02789,Erie,47.116,-97.389
03564,Griffin,46.667,-99.123
03853,Herman,46.157,-97.323
04869,Lind,47.715,-97.689
05875,Myrtle,48.329,-102.767
06183,Norton,48.329,-97.981
06531,Passport,48.333,-101.863
07386,Roscoe,46.500,-98.474
00124,Alleghany,46.319,-97.836
00125,Allen,46.915,-99.883
03919,Hill,46.847,-97.619
06931,Prairie,46.594,-98.223
07487,Rutland,46.068,-97.550
08155,Star,46.242,-103.421
08808,Van Buren,48.504,-101.385
00078,Alamo,48.582,-103.470
01045,Bryan,47.546,-98.418
03502,Great Bend,46.154,-96.802
03547,Greenview,47.449,-97.921
05034,Lovell,45.979,-98.070
06117,Normal,48.496,-100.330
06389,Oshkosh,47.623,-99.577
06924,Powers Lake,48.496,-102.690
09121,West End,46.326,-97.218
09315,Willow,47.632,-98.291
00865,Blooming Prairie,48.945,-103.396
02960,Fertile,47.884,-102.170
03453,Grand Prairie,47.110,-97.897
04349,Kane,48.756,-100.917
06104,Nome,46.678,-97.810
06945,Pratt,48.582,-100.984
09322,Willow Lake,47.276,-97.879
03615,Haaland,47.443,-99.703
03837,Hendrickson,48.159,-100.830
04687,Larrabee,47.539,-98.810
04691,Lark,46.415,-101.362
04985,Longview,47.365,-99.208
05408,Meadow,48.596,-100.728
06496,Park,48.676,-97.726
06824,Plymouth,48.062,-97.841
07811,Sherman,48.843,-101.289
08994,Ward,48.756,-102.339
00702,Berlin,47.710,-100.123
01217,Burke,48.240,-102.246
02503,Durham,47.199,-98.649
02737,Elysian,48.669,-100.592
03154,Freeman,46.413,-97.218
03362,Glenmore,46.500,-98.725
04780,Leipzig,46.509,-101.851
05388,McKinney,48.767,-101.819
06887,Porter,46.234,-98.451
07357,Rogers,47.073,-98.200
07501,Saddle Butte,47.021,-103.976
08034,Speedwell,47.456,-99.585
00084,Albert,48.057,-99.513
00369,Ora,47.723,-97.947
01317,Campbell,46.596,-100.000
02334,Dickey,46.537,-98.468
02602,Eddy,47.789,-98.696
03658,Hammer,48.407,-98.906
05206,Maple,46.147,-98.452
05852,Munster,47.712,-99.221
01001,Brampton,45.986,-97.831
01088,Broadview,47.281,-98.012
01771,Coalfield,48.843,-103.000
02148,Cut Bank,48.764,-101.431
03027,Florance,47.553,-98.663
03462,Grandview,46.504,-98.338
03774,Hawkeye,47.985,-102.844
04207,Isabel,48.065,-99.653
04511,Knife River,48.068,-102.505
05189,Manning,47.229,-102.769
05380,McGregor,48.595,-102.928
05743,Morris,48.239,-98.767
06261,Odin,47.987,-100.637
07225,Richmond,47.191,-100.311
00035,Addie,47.537,-98.299
02452,Dry Fork,48.240,-102.891
04767,Leeds,48.329,-99.389
05063,Lucy,48.691,-102.549
05132,Madison,46.587,-102.487
08982,Walters,47.277,-99.033
09169,Westfield,47.622,-97.782
09436,Woodworth,47.142,-99.303
00293,Arne,47.886,-99.611
01679,Clermont,45.991,-102.435
01787,Coburn,46.580,-97.353
02979,Finley,47.540,-97.782
03260,Gates,47.804,-99.084
04438,Keystone,46.155,-98.567
05810,Mount View,48.846,-99.457
06452,Page,47.203,-97.504
06642,Petersburg,47.964,-97.948
06744,Pingree,47.200,-98.901
07309,Rochester,47.196,-97.642
08035,Spencer,48.583,-102.158
09215,White Ash,48.503,-101.778
00118,Alice,46.762,-97.556
01394,Carpenter,47.282,-97.771
01718,Clearfield,47.457,-98.286
02717,Elmdale,48.674,-102.158
03774,Hawkeye,48.854,-103.266
05463,Mercer,47.458,-100.769
05928,Nelson,46.776,-98.003
07397,Rosefield,47.621,-99.201
07662,Scandia,48.947,-100.775
08067,Springfield,48.398,-99.429
08118,St. Marys,48.414,-101.511
08913,Voltaire,48.021,-100.842
00210,Andrews,47.797,-101.036
00457,Banner,47.884,-102.054
00499,Bartley,47.282,-98.278
00866,Blooming Valley,48.851,-103.136
02517,Egan,48.334,-101.976
02582,Easton,47.450,-97.782
02604,Eden,48.238,-97.709
03159,Fremont,48.957,-98.027
03496,Gray,47.118,-98.523
04831,Liberty,47.880,-102.297
06628,Perry,48.688,-98.378
06910,Potter,46.938,-98.259
08350,Svea,46.762,-98.249
09498,Yorktown,46.153,-98.317
00028,Ada,45.980,-98.319
00480,Barney,46.267,-97.001
01243,Bush,47.804,-98.975
01722,Cleary,48.685,-102.669
02605,Eden Valley,48.945,-101.550
03770,Haven,47.450,-98.830
04170,Inkster,48.151,-97.644
04724,Leval,47.905,-98.473
04763,Lee,47.715,-98.076
04892,Litchville,46.595,-98.109
05583,Milton,48.626,-98.043
05897,Nash,48.057,-97.947
06643,Peterson,46.950,-99.363
06795,Pleasant Hill,46.858,-100.014
07329,Rockford,48.858,-101.945
09077,Weimer,47.022,-97.769
09214,White,47.898,-100.130
09318,Willow Creek,48.595,-100.461
00142,Alma,48.674,-98.122
00616,Bell,47.195,-97.134
00699,Bergen,47.709,-98.323
01253,Butte Valley,48.139,-99.499
01372,Carbondale,48.496,-101.915
01949,Cornell,47.022,-97.642
01983,Cottonwood,48.430,-102.529
01995,Courtenay,47.189,-98.524
02739,Embden,46.802,-97.433
03133,Franklin,47.536,-97.910
03352,Glendale,46.597,-99.710
03537,Greenland,46.675,-98.376
03632,Haley,45.976,-103.052
03863,Hesper,47.983,-99.610
04473,Kingsley,47.457,-98.436
05445,Melvin,47.878,-98.079
06116,Norma,46.774,-97.849
06118,Norman,47.368,-97.410
06263,Odessa,47.969,-98.588
06561,Peace,46.691,-99.608
07491,Ryder,47.896,-101.669
08394,Taft,46.772,-100.248
00089,Albion,46.071,-98.686
01468,Cayuga,46.074,-97.384
01704,Clay,48.679,-101.514
01986,Coulee,48.236,-99.126
02246,Deep River,48.597,-100.853
02369,Dodds,47.984,-98.322
02694,Elkmount,48.150,-97.831
03049,Forde,47.723,-98.461
03288,Germantown,47.624,-99.448
04662,Land,47.898,-100.532
07475,Russell,46.503,-98.588
07731,Selz,47.857,-99.892
08789,Valley,46.748,-99.648
09163,Westby,48.868,-103.969
09391,Wolford,48.499,-99.704
00206,Anderson,47.038,-98.256
00342,Athens,48.404,-103.609
01345,Cannon Ball,46.327,-102.110
01576,Chatfield,48.588,-101.121
01619,Chicago,46.852,-99.268
02274,Delhi,47.017,-103.852
03019,Flint,46.949,-99.236
03047,Forbes,45.944,-98.782
03655,Hamburg,47.717,-99.480
03661,Hamlet,48.756,-101.683
04348,Kandiyohi,48.584,-102.296
04673,Langdon,48.849,-98.410
04982,Longfellow,47.451,-101.246
05499,Michigan,48.030,-98.100
06050,Newbury,46.757,-99.423
06106,Noonan,48.224,-98.617
06425,Ovid,46.319,-98.108
07467,Rush Lake,48.436,-99.705
08991,Wano,46.413,-98.599
09204,Wheelock,48.331,-103.269
09452,Wright,46.226,-98.295
00702,Berlin,47.378,-99.575
01317,Campbell,46.582,-102.350
01941,Corinne,47.269,-98.520
02066,Crocus,48.668,-99.155
03148,Fredonia,46.329,-99.096
03814,Hebron,48.248,-103.960
03901,Highland Center,48.505,-98.373
04263,Jefferson,48.239,-100.193
05926,Nekoma,48.593,-98.381
06121,Normania,48.232,-99.256
06162,North Star,48.936,-102.216
08055,Spring Grove,47.893,-100.391
08875,View,48.229,-103.161
00030,Adams,48.409,-98.128
00192,Amity,48.761,-100.376
00218,Anna,47.985,-101.668
01202,Bull Moose,47.472,-99.969
01286,Caledonia,47.458,-96.889
01835,Columbia,47.624,-98.810
02251,Deer Lake,47.044,-99.045
02419,Dover,47.277,-98.394
03795,Hazel,48.590,-103.211
04232,Jackson,46.066,-97.946
04374,Keller,48.850,-102.872
04706,Latona,48.339,-98.087
04973,Long Creek,48.944,-103.126
05630,Model,47.988,-102.054
06401,Otis,47.799,-100.897
07287,Riverside,47.384,-97.911
07809,Sheridan,46.580,-98.338
07878,Sinclair,46.758,-99.128
08256,Strong,47.087,-99.289
08657,Truman,47.898,-99.995
09199,Wheaton,48.944,-101.421
00826,Blackwater,47.629,-101.751
01269,Cash,46.323,-103.491
02764,Englevale,46.393,-97.913
04927,Loam,48.854,-98.155
06312,Olivia,47.900,-100.770
06463,Palermo,48.327,-102.251
06637,Perth,48.231,-98.087
06789,Plaza,47.978,-101.936
06908,Potsdam,46.237,-98.701
07100,Reeder,46.074,-102.943
07392,Rosebud,46.675,-98.260
07834,Short Creek,48.941,-102.735
08006,South Valley,48.590,-100.079
00407,Baden,48.588,-102.048
00949,Border,48.786,-102.995
01600,Cherry Lake,47.630,-98.672
02154,Cypress,48.938,-98.910
02430,Dows,47.195,-97.388
04057,Howell,48.765,-99.335
04370,Keene,47.927,-102.942
04738,Layton,48.504,-100.731
05443,Melrose,47.362,-97.783
06778,Plainview,47.103,-98.901
07588,Sand Creek,46.495,-103.423
08085,St. Andrews,48.492,-97.202
08429,Taylor,45.979,-97.696
08630,Trier,48.682,-98.895
08652,Troy,48.858,-103.389
09300,Williams,47.984,-98.194
00433,Baldwin,47.200,-97.892
02184,Daneville,48.765,-103.947
03440,Grainfield,48.667,-99.421
03487,Grassland,48.684,-101.625
03704,Harlem,46.149,-97.799
04594,Lake,47.101,-97.638
04998,Lorraine,45.990,-98.826
06187,Norway Lake,47.814,-99.458
07365,Rolling Prairie,47.443,-98.681
07794,Shell,48.066,-102.108
08288,Sullivan,48.421,-98.779
08639,Triumph,48.333,-98.498
09026,Waterloo,48.754,-98.530
09356,Winner,48.496,-103.581
00702,Berlin,46.379,-98.490
01205,Bullion,46.678,-103.769
01520,Central,47.883,-98.193
02070,Cromwell,47.026,-100.559
02812,Estherville,47.201,-100.559
04398,Kennedy,46.330,-102.872
05688,Montrose,48.580,-97.987
07212,Rich Valley,47.985,-99.727
08134,Stafford,48.944,-101.947
08246,Strassburg,47.811,-100.514
08861,Vesta,48.410,-97.982
08928,Wadsworth,47.203,-99.280
09334,Wilson,47.277,-100.695
09400,Woodberry,46.323,-103.113
09500,Young,46.230,-98.835
09526,Zion,48.494,-99.418
00747,Big Bend,47.884,-102.584
01714,Clear Lake,46.945,-100.130
02637,Egeland,48.626,-99.097
02863,Fairbanks,48.771,-101.945
02963,Field,47.796,-98.065
03458,Grand Valley,46.069,-98.819
03834,Henderson,48.683,-98.780
03932,Hillsdale,47.797,-98.857
04124,Illinois,47.980,-98.466
06171,Northfield,48.498,-98.642
06493,Paradise,47.611,-98.565
06701,Pilot Mound,47.636,-98.182
06953,Prescott,48.495,-101.114
07390,Rose Hill,48.258,-100.655
07844,Sidney,48.936,-99.317
07881,Soo,48.943,-102.473
08180,Steiner,46.496,-102.230
08856,Vernon,46.938,-99.731
09081,Weld,46.948,-99.131
00184,Ambrose,48.945,-103.542
00360,Auburn,48.507,-97.440
01893,Connor,46.412,-103.233
02114,Crystal Lake,47.548,-99.973
02169,Dale,48.852,-102.477
02232,De Witt,48.954,-103.787
03094,Fortuna,48.910,-103.779
03899,Highland,47.737,-100.501
04297,Johnson,47.363,-99.458
05357,McLeod,46.394,-97.300
05864,Muskego,48.510,-101.506
07120,Red Lake,46.421,-99.609
07306,Robinson,47.143,-99.781
08057,Spring Lake,47.886,-101.422
08064,Springbrook,48.253,-103.459
00156,Alsen,48.631,-98.705
00802,Black Butte,46.500,-102.614
01676,Clara,48.137,-98.357
01735,Clifford,47.348,-97.411
02664,Eldon,48.072,-99.383
02903,Fancher,48.413,-98.514
03822,Helena,47.376,-98.320
04607,Lake George,48.058,-100.421
04820,Lewis,48.676,-101.125
05779,Mount Carmel,48.950,-98.431
06234,Oakland,48.157,-102.109
06429,Owego,46.509,-97.320
06923,Powers,48.506,-102.551
07889,Skandia,46.764,-98.127
08855,Verner,46.147,-97.920
00436,Balfour,47.965,-100.511
01164,Buckeye,47.030,-99.647
01181,Bucyrus,46.076,-102.809
01709,Clayton,48.758,-102.489
02415,Douglas,47.802,-101.546
02642,Eidsvold,48.857,-100.808
02867,Fairdale,48.491,-98.231
03126,Francis,46.939,-100.518
03244,Garnet,48.670,-103.461
03666,Hampden,48.540,-98.654
04080,Hugo,47.369,-97.666
04782,Leith,46.358,-101.637
05356,McClellan,48.151,-99.396
05604,Minnesota,48.858,-102.185
06310,Oliver,48.423,-103.320
07222,Richland,48.945,-102.338
07310,Rock,47.899,-99.080
07641,Sargent,46.066,-97.821
08096,St. Croix,46.501,-102.487
09087,Wellington,48.581,-100.200
09262,Whiting,46.079,-103.178
01479,Cedar Creek,46.332,-102.978
01714,Clear Lake,47.112,-99.905
02319,Dewey,48.422,-98.249
02714,Elm River,47.281,-96.891
02850,Excelsior,46.938,-100.023
02886,Fairville,47.629,-99.305
03387,Goldfield,45.989,-103.189
03460,Grandfield,47.811,-99.255
03781,Hay,48.761,-98.146
03788,Hayland,48.691,-103.081
04100,Huron,48.766,-98.794
04204,Irvine,48.345,-99.274
04521,Knox,48.328,-99.644
05470,Merkel,47.254,-99.826
05917,Nebo,46.078,-103.676
07098,Ree,48.423,-101.897
07251,Rifle,46.581,-102.602
07426,Round Lake,48.069,-100.313
07710,Sealy,46.595,-99.863
07804,Shepherd,48.332,-98.222
08062,Spring Valley,46.078,-98.922
09170,Westford,46.940,-99.626
00585,Beaver,48.243,-99.513
01207,Bunker,46.674,-99.761
01310,Cameron,47.897,-101.538
01686,Clark,46.590,-102.736
02708,Ellisville,48.496,-103.461
02777,Enterprise,48.155,-98.217
03692,Harding,48.333,-98.735
05194,Mansfield,46.856,-98.386
08087,St. Anna,47.624,-99.704
08707,Twin Lake,48.233,-99.675
09434,Woodward,47.537,-99.319
00423,Baker,46.675,-100.013
00761,Big Stone,48.583,-103.331
01141,Bruce,48.769,-98.918
01721,Clearwater,48.418,-102.303
03329,Glacier,47.282,-99.173
04407,Kent,46.066,-98.305
05046,Lowland,48.507,-102.025
05085,Luverne,47.251,-97.935
05461,Mentor,48.945,-102.995
06977,Prosperity,48.944,-101.814
08527,Tiffany,47.715,-98.848
09078,Weiser,47.031,-99.534
00457,Banner,48.580,-98.786
03143,Frazier,48.771,-103.246
03259,Gate,47.798,-101.799
03634,Haynes,47.025,-99.925
03655,Hamburg,46.162,-98.695
04085,Hume,46.410,-103.113
04948,Logan,46.772,-100.399
05389,McKinnon,47.363,-98.702
07177,Renville,48.763,-101.299
07217,Richburg,48.945,-101.027
07398,Roseland,48.685,-102.303
07400,Rosemont,47.803,-101.391
08160,Starbuck,48.770,-100.786
08442,Teddy,48.747,-99.077
08963,Wallace,47.274,-99.667
09287,Wild Rose,46.669,-100.134
09348,Wing,47.119,-100.326
09494,York,48.324,-99.533
00039,Adelaide,46.163,-103.677
01215,Burg,48.779,-103.511
01295,Callahan,48.586,-101.658
02023,Kramer,48.691,-100.707
04885,Linton,48.071,-101.745
05593,Mineral Springs,46.315,-103.229
06472,Palmer,48.691,-103.201
06589,Pelican,48.170,-99.114
09360,Winona,46.062,-101.577
00043,Adler,47.888,-97.945
00371,Aurora,47.984,-99.357
00409,Baer,46.242,-102.055
01650,Christiania,46.943,-100.253
03238,Gardena,48.701,-100.498
03269,Gem,46.074,-103.420
03496,Grey,48.843,-98.792
03842,Henry,47.234,-103.989
04019,Hope,48.941,-98.143
05610,Minto,48.834,-98.650
06211,Oak Creek,48.675,-100.472
06773,Plain,48.510,-101.636
07377,Roosevelt,48.669,-101.767
08789,Valley,46.241,-98.566
08801,Valley Spring,47.024,-99.166
09254,Whitestone,46.163,-98.814
00345,Atkins,48.430,-99.279
00476,Barnes,46.869,-96.923
00788,Byron,48.935,-98.792
00830,Blaine,48.683,-101.375
02326,Dimond,48.699,-102.416
02691,Elkhorn,48.946,-103.958
03145,Frederick,48.691,-103.331
04281,Jessie,47.542,-98.238
04735,Lawton,48.326,-98.337
05753,Moscow,48.762,-98.667
05970,New City,48.588,-99.435
07066,Randolph,47.809,-103.733
07067,Raney,46.496,-98.974
08414,Tanner,46.759,-99.507
08869,Victor,48.581,-99.036
00727,Bethel,48.504,-99.012
01187,Buena Vista,46.243,-103.058
02031,Crawford,46.320,-103.730
02464,Duck Creek,46.075,-102.559
05580,Mylo,48.635,-99.619
06060,Newland,48.406,-98.377
06562,Peaceful Valley,46.588,-103.235
06802,Pleasant Prairie,47.624,-98.937
06886,Portal,48.945,-102.623
07310,Rock,46.328,-101.737
07793,Sheldon,47.709,-98.965
08217,Stone Creek,48.681,-100.734
08785,Valhalla,47.793,-99.329
00890,Blue Ridge,48.587,-103.570
02937,Fay,48.848,-102.730
03532,Greenbush,48.590,-101.908
03752,Harvey,48.842,-98.269
04746,Leaf Mountain,48.757,-102.754
04936,Lockwood,48.597,-101.506
06181,Northwest,47.272,-100.041
06973,Prospect,48.493,-98.504
07841,Sibley,47.217,-97.965
07916,Smith,48.943,-99.188
08194,Stewart,47.284,-99.910
00025,Acme,46.507,-102.354
00196,Amor,46.076,-103.555
01473,Cedar,46.241,-102.676
02248,Deepwater,47.717,-101.936
02551,East Fork,48.334,-103.530
02912,Farina,46.416,-102.510
03286,German,46.157,-98.922
03287,Germania,46.663,-99.257
04189,Iowa,48.252,-99.790
04441,Kickapoo,48.237,-102.010
05586,Minco,47.869,-98.598
06682,Picton,48.948,-99.447
08764,Upland,48.757,-103.137
00105,Alexander,46.669,-98.998
01109,Brooklyn,48.234,-103.271
03337,Glen,46.584,-98.952
04225,Ivanhoe,48.590,-101.778
04580,Ladd,45.982,-103.442
05099,Lyon,47.195,-98.785
06499,Paris,47.132,-99.154
06971,Progress,47.378,-99.715
07045,Rainbow,48.509,-103.335
07103,Redmond,48.420,-102.153
07442,Royal,48.500,-98.790
08201,Stillwater,46.244,-103.179
08825,Vanville,48.596,-102.418
08915,Voss,48.296,-97.455
00106,Alexandria,48.757,-103.651
01632,Chilton,46.331,-102.495
01914,Coolin,48.414,-99.020
02611,Edgemont,47.394,-100.628
03436,Graf,46.673,-99.507
05658,Monroe,48.755,-99.447
05768,Mound,46.406,-103.731
06645,Petersville,47.180,-99.555
07317,Rock Lake,48.827,-99.210
08348,Sutton,47.402,-98.439
08885,Villard,48.145,-100.551
00373,Austin,48.150,-102.233
00989,Braddock,46.564,-100.091
01171,Bucklin,46.348,-103.983
02094,Crowfoot,48.496,-102.191
02551,East Fork,47.901,-99.737
03456,Grand River,45.996,-103.561
03583,Grover,48.858,-101.814
03634,Haynes,45.974,-102.471
04881,Lynn,47.354,-100.001
05000,Lordsburg,48.770,-100.229
06341,Orange,46.012,-102.055
07315,Rock Hill,47.113,-100.432
09050,Wayne,48.944,-101.158
00357,Atwood,47.215,-99.928
02581,Eastman,47.363,-98.553
04872,Linden,48.937,-98.648
05248,Marion,46.249,-103.523
06181,Northwest,46.237,-98.933
08904,Virginia,48.754,-99.187
08955,Walker,46.505,-102.093
00942,Boone,47.544,-100.097
01304,Calvin,48.853,-98.935
04419,Kern,46.235,-102.300
05600,Minnehaha,45.980,-103.289
06560,Peabody,48.857,-100.632
07051,Raleigh,46.357,-101.305
07542,Saline,48.422,-100.875
07963,Solon,46.408,-102.118
00501,Barton,48.507,-100.176
01400,Carroll,46.411,-102.989
01457,Cato,48.322,-98.609
01549,Champion,48.410,-103.222
01553,Chandler,46.169,-102.425
01902,Conway,48.238,-97.675
03144,Freda,46.311,-101.084
03505,Greely,47.900,-101.020
03655,Hamberg,47.763,-99.515
03899,Highland,46.580,-102.229
03966,Hoffman,48.845,-101.417
05897,Nash,48.471,-97.513
06423,Overland,48.406,-98.645
07865,Silver Lake,47.401,-99.836
07987,South Fork,46.075,-102.061
08018,Southwest,45.963,-97.968
09300,Williams,46.926,-99.490
00699,Bergen,48.002,-100.715
02097,Crown Hill,46.771,-100.026
03243,Garner,46.764,-103.793
03324,Gilmore,48.429,-100.723
04188,Iosco,47.044,-99.287
04641,Lakeview,48.872,-102.049
06697,Pillsbury,47.207,-97.791
08488,Thelma,46.746,-100.112
09227,White Lake,46.501,-103.244
01341,Canfield,47.178,-100.400
01887,Conklin,47.294,-99.299
01984,Cottonwood Lake,47.899,-100.650
02841,Evergreen,48.234,-101.848
00767,Billings,48.579,-98.518
01262,Byersville,47.732,-100.639
01740,Climax,48.501,-103.986
03285,Gerber,47.188,-99.443
03291,Gerrard,48.583,-99.287
05154,Maine,46.244,-102.560
06263,Odessa,46.583,-102.104
07430,Round Top,47.109,-99.024
01741,Clinton,48.844,-103.784
02460,Dublin,48.410,-103.468
02984,Fisher,46.246,-101.685
04053,Howe,46.088,-101.799
04694,Larson,48.889,-102.861
07290,Riverview,48.035,-102.681
03670,Hannah,48.972,-98.692
04955,Loma,48.630,-98.533
04998,Loraine,48.866,-101.568
08952,Wales,48.896,-98.603
03413,Gordon,48.685,-98.654
05474,Merrill,46.242,-102.175
06358,Orrin,48.091,-100.163
00321,Ashby,46.245,-102.435
01757,Clyde,48.770,-98.899
02682,Elk Creek,47.101,-103.860
04078,Hughes,46.328,-103.876
05997,New Home,48.517,-103.212
06572,Pearl,47.244,-103.877
06637,Perth,48.716,-99.458
07087,Rawson,47.818,-103.543
04661,Lansing,48.855,-99.077
07223,Richland Center,46.508,-103.632
07316,Rock Island,48.597,-103.461
02882,Fairview,47.620,-100.062
02911,Fargo,46.944,-96.795
07016,Quinby,47.034,-99.812
00053,Agate,48.623,-99.493
00110,Alfred,46.603,-98.999
00310,Arvilla,47.919,-97.495
00423,Baker,48.161,-99.647
00433,Baldwin,47.027,-100.749
00474,Barlow,47.570,-99.138
00498,Bartlett,48.045,-98.432
00648,Belleville,48.153,-97.798
00690,Bentley,46.329,-102.064
00719,Burt,46.365,-102.155
00723,Berwick,48.361,-100.246
01032,Bremen,47.747,-99.387
01193,Buffalo Springs,46.175,-103.235
01195,Buford,47.999,-103.991
01394,Carpenter,48.960,-99.977
01414,Cartwright,47.860,-103.926
01534,Chaffee,46.774,-97.353
01942,Corinth,48.612,-103.328
01986,Coulee,48.545,-102.012
02116,Crystal Springs,46.878,-99.476
02117,Cuba,46.821,-97.862
02163,Daily,46.718,-97.976
02439,Dresden,48.827,-98.481
02502,Durbin,46.809,-97.149
02668,Eldridge,46.903,-98.852
02749,Emmet,47.646,-101.654
03025,Flora,47.950,-99.418
03042,Fonda,48.670,-100.019
03168,Fryburg,46.871,-103.303
03374,Glover,46.242,-98.139
03454,Grand Rapids,46.444,-98.371
03589,Guelph,46.023,-98.236
03661,Hamlet,48.629,-103.052
03679,Hannover,47.111,-101.427
03713,Harper,46.410,-103.606
03757,Hastings,46.684,-98.094
03769,Havelock,46.475,-102.744
03812,Heaton,47.478,-99.548
03884,Hickson,46.669,-96.810
04048,Huff,46.624,-100.652
04082,Hull,46.029,-100.125
04304,Johnstown,48.144,-97.470
04322,Josephine,47.940,-99.314
04383,Kelvin,48.937,-100.051
04386,Kempton,47.819,-97.614
04506,Kloten,47.716,-98.075
04628,Lake Williams,47.135,-99.614
04648,Lallie,47.978,-99.216
05094,Lynchburg,46.774,-97.263
05152,Maida,48.999,-98.365
05176,Manfred,47.695,-99.748
05183,Manitou,48.331,-102.637
05269,Marshall,47.138,-102.333
05437,Melville,47.335,-99.036
05635,Moffit,46.678,-100.295
06173,Northgate,48.991,-102.262
06188,Norwich,48.246,-100.989
06603,Penn,48.222,-99.089
06976,Prosper,46.963,-97.020
07420,Roth,48.908,-100.803
07475,Russell,48.671,-100.902
07510,Saint Anthony,46.617,-100.913
07527,Saint Michael,47.985,-98.872
07818,Shields,46.234,-101.126
08501,Thorne,48.739,-99.932
08569,Tokio,47.925,-98.816
08770,Urbana,46.934,-98.412
09009,Warsaw,48.296,-97.255
09067,Webster,48.282,-98.876
09263,Whitman,48.159,-98.120
09286,Wild Rice,46.746,-96.809
09343,Windsor,46.896,-99.043
09522,Zenith,46.879,-103.097