phoneme,name,county,latitude,longitude
1161,Columbus,Delaware County,39.986,-82.986
1078,Cleveland,Cuyahoga County,41.499,-81.695
1026,Cincinnati,Hamilton County,39.103,-84.515
5094,Toledo,Lucas County,41.664,-83.555
0039,Akron,Summit County,41.081,-81.519
1357,Dayton,Greene County,39.785,-84.200
3927,Parma,Cuyahoga County,41.405,-81.723
0813,Canton,Stark County,40.799,-81.378
3052,Lorain,Lorain County,41.453,-82.182
2283,Hamilton,Butler County,39.400,-84.561
5635,Youngstown,Mahoning County,41.099,-80.646
1066,Springfield,Clark County,39.924,-83.809
2743,Kettering,Greene County,39.696,-84.150
1687,Elyria,Lorain County,41.368,-82.108
1584,Middletown,Butler County,39.503,-84.365
3654,Newark,Licking County,40.058,-82.401
2869,Lakewood,Cuyahoga County,41.482,-81.798
1493,Dublin,Delaware County,40.113,-83.146
1735,Euclid,Cuyahoga County,41.593,-81.527
3170,Mansfield,Richland County,40.758,-82.515
3327,Mentor,Lake County,41.666,-81.340
0644,Fairfield,Butler County,39.331,-84.543
1384,Delaware,Delaware County,40.299,-83.068
2238,Grove City,Franklin County,39.881,-83.093
2880,Lancaster,Fairfield County,39.714,-82.599
1838,Findlay,Hancock County,41.044,-83.650
5435,Westerville,Delaware County,40.123,-82.913
2460,Hilliard,Franklin County,40.033,-83.158
2974,Lima,Allen County,40.743,-84.105
0661,Brunswick,Medina County,41.238,-81.842
3227,Mason,Warren County,39.360,-84.310
4919,Stow,Summit County,41.160,-81.440
5440,Westlake,Cuyahoga County,41.455,-81.918
3232,Massillon,Stark County,40.797,-81.522
0554,Bowling Green,Wood County,41.375,-83.651
2727,Kent,Portage County,41.154,-81.358
0726,Green,Summit County,40.946,-81.483
0731,Troy,Miami County,40.039,-84.203
0785,Marysville,Union County,40.236,-83.367
0236,Avon,Lorain County,41.452,-82.035
3983,Perrysburg,Wood County,41.557,-83.627
0268,Barberton,Summit County,41.013,-81.605
4566,Sandusky,Erie County,41.449,-82.708
0929,Centerville,Greene County,39.634,-84.146
5641,Zanesville,Muskingum County,39.940,-82.013
4376,Riverside,Montgomery County,39.780,-84.124
4752,Solon,Cuyahoga County,41.390,-81.441
2165,Hudson,Summit County,41.240,-81.441
1005,Chillicothe,Ross County,39.333,-82.982
0083,Alliance,Mahoning County,40.911,-81.120
1546,Lebanon,Warren County,39.435,-84.203
4054,Piqua,Miami County,40.145,-84.242
4699,Sidney,Shelby County,40.284,-84.156
5478,Whitehall,Franklin County,39.967,-82.885
1896,Forest Park,Hamilton County,39.290,-84.504
3826,Oregon,Lucas County,41.644,-83.487
0192,Ashland,Ashland County,40.869,-82.318
4802,Springboro,Montgomery County,39.562,-84.234
5471,White Oak,Hamilton County,39.213,-84.599
3734,Norwood,Hamilton County,39.156,-84.460
0401,Berea,Cuyahoga County,41.366,-81.854
3678,Niles,Trumbull County,41.183,-80.765
1079,Tallmadge,Portage County,41.106,-81.425
4143,Portsmouth,Scioto County,38.732,-82.998
5076,Tiffin,Seneca County,41.114,-83.178
3636,New Philadelphia,Tuscarawas County,40.490,-81.446
1562,Eastlake,Lake County,41.654,-81.450
0226,Aurora,Portage County,41.318,-81.345
1780,Fairview Park,Cuyahoga County,41.441,-81.864
1386,Defiance,Defiance County,41.284,-84.356
3523,Mount Vernon,Knox County,40.393,-82.486
1955,Fremont,Sandusky County,41.350,-83.122
2964,Monroe,Butler County,39.447,-84.371
5228,Vandalia,Montgomery County,39.891,-84.199
5606,Worthington,Franklin County,40.093,-83.018
4159,Powell,Delaware County,40.158,-83.075
0321,Beachwood,Cuyahoga County,41.465,-81.509
5194,University Heights,Cuyahoga County,41.498,-81.537
3112,Lyndhurst,Cuyahoga County,41.520,-81.489
3619,New Franklin,Summit County,40.942,-81.542
0427,Bexley,Franklin County,39.969,-82.938
1544,East Cleveland,Cuyahoga County,41.533,-81.579
1705,Englewood,Montgomery County,39.878,-84.302
5124,Trenton,Butler County,39.481,-84.458
0603,Bridgetown,Hamilton County,39.153,-84.637
1063,Clayton,Montgomery County,39.863,-84.361
3073,Loveland,Clermont County,39.268,-84.275
1920,Fostoria,Hancock County,41.160,-83.412
0342,Bedford,Cuyahoga County,41.393,-81.537
5498,Wickliffe,Lake County,41.605,-81.453
0114,Amelia,Clermont County,39.029,-84.221
5532,Wilmington,Clinton County,39.445,-83.829
3121,Macedonia,Summit County,41.314,-81.508
1141,Salem,Columbiana County,40.905,-80.849
4650,Seven Hills,Cuyahoga County,41.395,-81.676
3729,Norton,Summit County,41.029,-81.646
3124,Mack,Hamilton County,39.158,-84.650
0634,Brooklyn,Cuyahoga County,41.440,-81.735
1409,Dent,Hamilton County,39.186,-84.651
5224,Van Wert,Van Wert County,40.869,-84.584
3719,Northbrook,Hamilton County,39.246,-84.584
4689,Shiloh,Montgomery County,39.809,-84.225
4804,Springdale,Hamilton County,39.287,-84.485
0916,Celina,Mercer County,40.549,-84.570
3596,New Albany,Franklin County,40.083,-82.787
3448,Montgomery,Hamilton County,39.228,-84.354
2043,Vermilion,Erie County,41.408,-82.317
4336,Richmond Heights,Cuyahoga County,41.553,-81.510
2398,Heath,Licking County,40.023,-82.445
1056,London,Madison County,39.886,-83.448
1900,Forestville,Hamilton County,39.075,-84.345
4269,Reading,Hamilton County,39.224,-84.442
2610,Ironton,Lawrence County,38.537,-82.683
2981,Lincoln Village,Franklin County,39.955,-83.131
2074,Girard,Trumbull County,41.154,-80.701
3071,Louisville,Stark County,40.837,-81.260
3761,Oakwood,Montgomery County,39.725,-84.174
4675,Shelby,Richland County,40.881,-82.662
0250,Bainbridge,Geauga County,41.386,-81.340
5619,Wyoming,Hamilton County,39.231,-84.466
0666,Bryan,Williams County,41.475,-84.552
2448,Highland Heights,Cuyahoga County,41.552,-81.478
3724,Northridge,Montgomery County,39.809,-84.190
3838,Orrville,Wayne County,40.844,-81.764
4256,St. Marys,Auglaize County,40.542,-84.389
1570,Eaton,Preble County,39.744,-84.637
3763,Oberlin,Lorain County,41.294,-82.217
0367,Bellevue,Erie County,41.274,-82.840
2732,Kenwood,Hamilton County,39.211,-84.367
2234,Groesbeck,Hamilton County,39.223,-84.587
2729,Kenton,Hardin County,40.647,-83.610
3724,Northridge,Clark County,39.992,-83.779
0784,Campbell,Mahoning County,41.078,-80.599
1769,Fairlawn,Summit County,41.128,-81.610
2540,Hubbard,Trumbull County,41.156,-80.569
0787,Independence,Cuyahoga County,41.369,-81.638
0800,Logan,Hocking County,39.540,-82.407
4962,Sunbury,Delaware County,40.243,-82.859
1214,Cortland,Trumbull County,41.330,-80.725
1398,Delphos,Allen County,40.847,-84.336
5189,Uniontown,Stark County,40.975,-81.408
3511,Mount Healthy,Hamilton County,39.234,-84.546
2777,Kirtland,Lake County,41.629,-81.362
2006,Huron,Erie County,41.395,-82.555
2965,Union,Miami County,39.907,-84.293
1160,Columbiana,Columbiana County,40.886,-80.668
0381,Belpre,Washington County,39.274,-81.573
3813,Ontario,Richland County,40.760,-82.590
4767,South Lebanon,Warren County,39.371,-84.213
3366,Milford,Clermont County,39.165,-84.285
2464,Hillsboro,Highland County,39.202,-83.612
1097,Clyde,Sandusky County,41.304,-82.975
3721,Northgate,Hamilton County,39.253,-84.592
1589,Jackson,Jackson County,39.052,-82.637
5509,Willard,Huron County,41.053,-82.726
4129,Port Clinton,Ottawa County,41.512,-82.938
0641,Brookville,Montgomery County,39.837,-84.411
2031,Geneva,Ashtabula County,41.805,-80.948
2046,Germantown,Montgomery County,39.626,-84.369
2174,Granville,Licking County,40.068,-82.520
2140,Grafton,Lorain County,41.273,-82.055
0832,Carlisle,Montgomery County,39.579,-84.321
3609,New Carlisle,Clark County,39.936,-84.025
5392,Wellston,Jackson County,39.123,-82.533
1382,Deer Park,Hamilton County,39.205,-84.395
0151,Apple Valley,Knox County,40.439,-82.354
5104,Toronto,Jefferson County,40.464,-80.601
0013,Ada,Hardin County,40.770,-83.823
2668,Johnstown,Licking County,40.154,-82.685
3728,Northwood,Wood County,41.607,-83.469
4821,St. Clairsville,Belmont County,40.081,-80.900
5479,Whitehouse,Lucas County,41.519,-83.804
4713,Silverton,Hamilton County,39.193,-84.400
2959,Lexington,Richland County,40.679,-82.582
1133,Coldwater,Mercer County,40.480,-84.628
5419,West Milton,Miami County,39.963,-84.328
3509,Mount Carmel,Clermont County,39.106,-84.304
0190,Ashville,Pickaway County,39.716,-82.953
3589,Nelsonville,Athens County,39.459,-82.232
1257,Crestline,Crawford County,40.783,-82.748
2039,Georgetown,Brown County,38.865,-83.904
1598,Edgewood,Ashtabula County,41.873,-80.773
3628,New Lexington,Perry County,39.714,-82.208
4068,Plain City,Madison County,40.108,-83.274
2211,Greenfield,Highland County,39.353,-83.388
4673,Sheffield,Lorain County,41.421,-82.096
3541,Mulberry,Clermont County,39.193,-84.242
0510,Bluffton,Allen County,40.892,-83.888
5413,West Jefferson,Madison County,39.945,-83.269
4637,Sebring,Mahoning County,40.923,-81.019
5344,Waverly,Pike County,39.127,-82.985
0969,Chattanooga,Mercer County,40.637,-84.785
0984,Cherry Grove,Hamilton County,39.073,-84.322
0278,Barnesville,Belmont County,39.988,-81.177
4818,St. Bernard,Hamilton County,39.167,-84.499
3451,Montpelier,Williams County,41.584,-84.606
5584,Woodlawn,Hamilton County,39.252,-84.470
4986,Swanton,Fulton County,41.585,-83.885
0359,Bellaire,Belmont County,40.016,-80.742
3627,New Lebanon,Montgomery County,39.745,-84.385
2191,Hunter,Warren County,39.493,-84.290
4769,South Point,Lawrence County,38.418,-82.586
5027,Taylor Creek,Hamilton County,39.229,-84.678
5627,Yellow Springs,Greene County,39.806,-83.887
3404,Minerva,Carroll County,40.731,-81.102
0611,Brimfield,Portage County,41.100,-81.347
2218,Greentown,Stark County,40.928,-81.403
0828,Carey,Wyandot County,40.953,-83.382
3761,Oakwood,Cuyahoga County,41.365,-81.508
1176,Northfield,Summit County,41.345,-81.528
3510,Mount Gilead,Morrow County,40.549,-82.827
4519,Salem Heights,Hamilton County,39.072,-84.378
4686,Sherwood,Hamilton County,39.085,-84.361
3820,Orange,Cuyahoga County,41.450,-81.481
2097,Madison,Lake County,41.771,-81.050
1438,Dillonvale,Hamilton County,39.218,-84.402
1399,Delta,Fulton County,41.574,-84.005
2350,Hartville,Stark County,40.964,-81.331
3248,Mayfield,Cuyahoga County,41.552,-81.439
3377,Millersburg,Holmes County,40.555,-81.918
3268,McDonald,Trumbull County,41.164,-80.724
2979,Lincoln Heights,Hamilton County,39.239,-84.456
1491,Dry Ridge,Hamilton County,39.259,-84.619
0848,Carrollton,Carroll County,40.573,-81.086
5393,Wellsville,Columbiana County,40.603,-80.649
1476,Doylestown,Wayne County,40.970,-81.697
5427,West Union,Adams County,38.795,-83.545
0261,Baltimore,Fairfield County,39.845,-82.601
3604,New Bremen,Auglaize County,40.437,-84.380
2861,Lakemore,Summit County,41.021,-81.436
0707,Burlington,Lawrence County,38.407,-82.536
3745,Oak Harbor,Ottawa County,41.507,-83.147
3067,Loudonville,Ashland County,40.634,-82.232
3025,Lodi,Medina County,41.033,-82.012
3640,New Richmond,Clermont County,38.949,-84.280
5368,Waynesville,Warren County,39.530,-84.087
4922,Strasburg,Tuscarawas County,40.595,-81.527
5248,Versailles,Darke County,40.223,-84.484
1403,Dennison,Tuscarawas County,40.393,-81.334
3669,Newtown,Hamilton County,39.124,-84.362
1947,Fredericktown,Knox County,40.481,-82.541
5054,The Plains,Athens County,39.369,-82.132
0418,Bethel,Clermont County,38.964,-84.081
4830,St. Henry,Mercer County,40.418,-84.640
2998,Lisbon,Columbiana County,40.772,-80.768
1234,Covington,Miami County,40.117,-84.354
4671,Shawnee Hills,Greene County,39.653,-83.787
4709,Silver Lake,Summit County,41.159,-81.454
4502,Sabina,Clinton County,39.489,-83.637
1709,Enon,Clark County,39.878,-83.937
5414,West Lafayette,Coshocton County,40.275,-81.751
4108,Poland,Mahoning County,41.024,-80.615
1798,Hebron,Licking County,39.962,-82.491
4946,Sugarcreek,Tuscarawas County,40.503,-81.641
4656,Seville,Medina County,41.010,-81.862
4339,Richwood,Union County,40.426,-83.297
3613,New Concord,Muskingum County,39.994,-81.734
3603,New Boston,Scioto County,38.752,-82.937
2089,Glendale,Hamilton County,39.271,-84.459
2198,Green Meadows,Clark County,39.869,-83.944
2034,Genoa,Ottawa County,41.518,-83.359
3353,Middleport,Meigs County,39.002,-82.049
4788,Spencerville,Allen County,40.709,-84.354
2936,Leipsic,Putnam County,41.098,-83.985
1258,Creston,Medina County,40.977,-81.900
0591,Brewster,Stark County,40.707,-81.598
3490,Morrow,Warren County,39.355,-84.127
2304,Utica,Knox County,40.237,-82.442
4445,Rosemount,Scioto County,38.786,-82.979
2636,Jamestown,Greene County,39.658,-83.735
1021,Churchill,Trumbull County,41.162,-80.665
3520,Mount Sterling,Madison County,39.720,-83.265
0778,Camden,Preble County,39.629,-84.649
0376,Bellville,Richland County,40.618,-82.513
1325,Dalton,Wayne County,40.799,-81.695
1640,Elida,Allen County,40.789,-84.204
5217,Valley View,Cuyahoga County,41.388,-81.605
1595,Edgerton,Williams County,41.449,-84.748
2094,Glenmoor,Columbiana County,40.666,-80.623
4442,Roseland,Richland County,40.789,-82.543
3575,Navarre,Stark County,40.724,-81.522
2931,Leetonia,Columbiana County,40.877,-80.755
1542,Holland,Lucas County,41.622,-83.712
0566,Bradford,Darke County,40.130,-84.427
5599,Woodworth,Mahoning County,40.988,-80.663
3958,Peebles,Adams County,38.949,-83.406
3120,McArthur,Vinton County,39.246,-82.478
5416,West Liberty,Logan County,40.252,-83.756
0646,Fairfax,Hamilton County,39.145,-84.393
4447,Roseville,Muskingum County,39.807,-82.076
2955,Lewisburg,Preble County,39.846,-84.540
1484,Drexel,Montgomery County,39.746,-84.287
4099,Plymouth,Huron County,40.997,-82.667
3299,Mechanicsburg,Champaign County,40.072,-83.556
4760,South Charleston,Clark County,39.825,-83.634
0149,Antwerp,Paulding County,41.181,-84.741
0758,Caldwell,Noble County,39.748,-81.517
1481,Dresden,Muskingum County,40.121,-82.011
0501,Blue Jay,Hamilton County,39.227,-84.737
1291,Crystal Lakes,Clark County,39.889,-84.027
2309,Harbor Hills,Licking County,39.937,-82.435
2851,Lake Mohawk,Carroll County,40.667,-81.199
4363,Ripley,Brown County,38.746,-83.845
1418,Deshler,Henry County,41.208,-83.899
0600,Bridgeport,Belmont County,40.070,-80.740
5183,Union City,Darke County,40.199,-84.805
3260,McComb,Hancock County,41.108,-83.793
4116,Pomeroy,Meigs County,39.028,-82.034
3111,Lynchburg,Clinton County,39.240,-83.786
0004,Aberdeen,Brown County,38.656,-83.761
0587,Bremen,Fairfield County,39.702,-82.427
0635,Brooklyn Heights,Cuyahoga County,41.425,-81.688
3635,New Paris,Preble County,39.857,-84.793
3600,New Baltimore,Hamilton County,39.265,-84.667
3633,New Middletown,Mahoning County,40.961,-80.558
0174,Arlington,Hancock County,40.894,-83.650
0136,Anna,Shelby County,40.394,-84.173
1131,Coldstream,Hamilton County,39.045,-84.341
0951,Somerset,Perry County,39.807,-82.297
1852,Five Points,Warren County,39.569,-84.193
2627,Jackson Center,Shelby County,40.439,-84.040
5425,West Salem,Wayne County,40.971,-82.110
4052,Pioneer,Williams County,41.680,-84.553
3746,Oak Hill,Jackson County,38.894,-82.573
2221,Greenwich,Huron County,41.030,-82.516
4081,Pleasant Grove,Muskingum County,39.952,-81.959
3361,Milan,Erie County,41.289,-82.602
1676,Elmore,Ottawa County,41.471,-83.291
1887,Forest,Hardin County,40.802,-83.510
4736,Smithville,Wayne County,40.862,-81.862
1819,Fayette,Fulton County,41.673,-84.327
3433,Monroeville,Huron County,41.244,-82.696
1508,Dunlap,Hamilton County,39.292,-84.618
2929,Leesburg,Highland County,39.345,-83.553
4083,Pleasant Hills,Hamilton County,39.236,-84.525
2765,Kingston,Ross County,39.474,-82.911
1359,De Graff,Logan County,40.312,-83.916
4934,Stryker,Williams County,41.504,-84.414
2645,Jeffersonville,Fayette County,39.654,-83.564
0193,Ashley,Delaware County,40.409,-82.955
4082,Pleasant Hill,Miami County,40.052,-84.344
0425,Beverly,Washington County,39.548,-81.640
0420,Bethesda,Belmont County,40.016,-81.073
3374,Millbury,Wood County,41.566,-83.425
0150,Apple Creek,Wayne County,40.752,-81.839
0610,Brilliant,Jefferson County,40.265,-80.626
2867,Lakeview,Logan County,40.485,-83.923
1085,Clinton,Summit County,40.927,-81.630
3906,Pandora,Putnam County,40.948,-83.961
3949,Payne,Paulding County,41.078,-84.727
0144,Ansonia,Darke County,40.214,-84.637
3584,Neffs,Belmont County,40.027,-80.815
3852,Ostrander,Delaware County,40.266,-83.213
2156,Grandview,Hamilton County,39.194,-84.724
3649,New Vienna,Clinton County,39.324,-83.691
3152,Malvern,Carroll County,40.692,-81.181
2967,Liberty Center,Henry County,41.443,-84.009
4595,Sardinia,Brown County,39.007,-83.802
1937,Frankfort,Ross County,39.401,-83.181
4670,Shawnee,Hamilton County,39.140,-84.778
4401,Rockford,Mercer County,40.688,-84.647
1338,Danville,Knox County,40.448,-82.260
3088,Luckey,Wood County,41.451,-83.487
3139,Magnolia,Carroll County,40.653,-81.293
0525,Bolivar,Tuscarawas County,40.650,-81.452
2388,Winchester,Adams County,38.942,-83.651
5514,Williamsport,Pickaway County,39.586,-83.120
4941,Suffield,Portage County,41.023,-81.347
1803,Farmersville,Montgomery County,39.679,-84.429
5634,Yorkville,Belmont County,40.154,-80.707
0129,Andover,Ashtabula County,41.607,-80.572
1985,Galena,Delaware County,40.215,-82.880
2475,Hiram,Portage County,41.313,-81.144
4090,Pleasantville,Fairfield County,39.810,-82.522
5210,Valley City,Medina County,41.240,-81.937
0723,Butler,Richland County,40.588,-82.425
0971,Chauncey,Athens County,39.398,-82.129
0320,Beach City,Stark County,40.653,-81.581
2151,Grand Rapids,Wood County,41.412,-83.864
5367,Waynesburg,Stark County,40.668,-81.257
0045,Albany,Athens County,39.228,-82.202
2518,Hopedale,Harrison County,40.325,-80.901
0380,Beloit,Mahoning County,40.923,-80.994
0397,Bentleyville,Cuyahoga County,41.413,-81.411
0213,Attica,Seneca County,41.065,-82.888
0491,Bloomingburg,Fayette County,39.605,-83.395
0214,Atwater,Portage County,41.024,-81.163
4732,Smithfield,Jefferson County,40.271,-80.781
4671,Shawnee Hills,Delaware County,40.158,-83.134
0494,Bloomville,Seneca County,41.052,-83.015
3650,New Washington,Crawford County,40.962,-82.854
4684,Wayne,Wood County,41.301,-83.474
3187,Marblehead,Ottawa County,41.540,-82.735
0065,Alger,Hardin County,40.706,-83.844
2179,Gratis,Preble County,39.648,-84.527
0260,Baltic,Coshocton County,40.444,-81.701
2487,Holiday Lakes,Huron County,41.092,-82.729
3701,North Bend,Hamilton County,39.153,-84.748
1875,Flushing,Belmont County,40.150,-81.066
1731,Etna,Licking County,39.957,-82.682
3625,New Holland,Fayette County,39.554,-83.260
0175,Arlington Heights,Hamilton County,39.215,-84.456
0356,Belle Center,Logan County,40.507,-83.748
4686,Sherwood,Defiance County,41.287,-84.554
3215,Marshallville,Wayne County,40.902,-81.734
3872,Owensville,Clermont County,39.123,-84.136
4996,Sycamore,Wyandot County,40.950,-83.171
5003,Syracuse,Meigs County,38.998,-81.974
4360,Rio Grande,Gallia County,38.880,-82.380
1507,Dunkirk,Hardin County,40.789,-83.643
0876,Castalia,Erie County,41.400,-82.809
2857,Lake Tomahawk,Columbiana County,40.761,-80.596
0250,Bainbridge,Ross County,39.228,-83.270
0990,Chesapeake,Lawrence County,38.428,-82.457
2468,Hilltop,Trumbull County,41.164,-80.737
0684,Buffalo,Guernsey County,39.916,-81.520
0527,Bolton,Stark County,40.940,-81.115
3984,Perrysville,Ashland County,40.658,-82.312
4004,Philo,Muskingum County,39.861,-81.907
2689,Junction City,Perry County,39.721,-82.299
2280,Hamden,Vinton County,39.160,-82.527
4491,Russia,Shelby County,40.234,-84.409
4651,Seven Mile,Butler County,39.480,-84.552
5347,Washingtonville,Columbiana County,40.896,-80.768
3595,Nevada,Wyandot County,40.819,-83.130
3233,Matamoras,Washington County,39.518,-81.073
3259,McClure,Henry County,41.371,-83.942
4787,Spencer,Medina County,41.100,-82.123
4226,Racine,Meigs County,38.971,-81.914
4615,Scio,Harrison County,40.396,-81.085
2916,Lawrenceville,Clark County,39.982,-83.875
4390,Rock Creek,Ashtabula County,41.660,-80.861
3358,Midvale,Tuscarawas County,40.438,-81.373
2132,Goshen,Clermont County,39.233,-84.161
1010,Chippewa Lake,Medina County,41.070,-81.901
5417,West Logan,Hocking County,39.539,-82.428
1822,Felicity,Clermont County,38.839,-84.096
3779,Ohio City,Van Wert County,40.771,-84.616
5336,Warsaw,Coshocton County,40.335,-82.007
5588,Woodmere,Cuyahoga County,41.462,-81.481
3389,Millville,Butler County,39.389,-84.654
4300,Remington,Hamilton County,39.228,-84.321
2767,Kingsville,Ashtabula County,41.891,-80.676
3318,Mendon,Mercer County,40.673,-84.519
5079,Timberlake,Lake County,41.666,-81.443
4689,Shiloh,Richland County,40.967,-82.600
5073,Thurston,Fairfield County,39.840,-82.546
0309,Bay View,Erie County,41.469,-82.827
3117,Lyons,Fulton County,41.700,-84.070
2979,Lincoln Heights,Richland County,40.771,-82.484
3086,Lucas,Richland County,40.705,-82.418
1964,Friendship,Scioto County,38.698,-83.094
1438,Dillonvale,Jefferson County,40.196,-80.775
1414,Derby,Pickaway County,39.769,-83.206
4441,Rosedale,Madison County,40.075,-83.458
4917,Stoutsville,Fairfield County,39.605,-82.829
2769,Kinsman,Trumbull County,41.446,-80.588
4596,Sardis,Monroe County,39.623,-80.913
4261,Rawson,Hancock County,40.959,-83.784
0759,Caledonia,Marion County,40.636,-82.969
0162,Arcadia,Hancock County,41.108,-83.517
3080,Lowell,Washington County,39.530,-81.506
3340,Metamora,Fulton County,41.712,-83.910
3151,Malta,Morgan County,39.649,-81.862
3376,Miller,Lawrence County,38.537,-82.302
2658,Jewett,Harrison County,40.368,-81.005
2564,Iberia,Morrow County,40.670,-82.844
3761,Oakwood,Paulding County,41.096,-84.380
4306,Republic,Seneca County,41.122,-83.016
4135,Port Washington,Tuscarawas County,40.328,-81.521
1505,Dundee,Tuscarawas County,40.587,-81.608
4490,Russellville,Brown County,38.866,-83.787
1047,Clarksville,Clinton County,39.401,-83.981
4221,Quincy,Logan County,40.299,-83.969
0638,Brookside,Belmont County,40.071,-80.761
4190,Proctorville,Lawrence County,38.437,-82.377
0298,Bass Lake,Geauga County,41.556,-81.226
4670,Shawnee,Perry County,39.605,-82.212
0847,Carroll,Fairfield County,39.799,-82.701
1016,Christiansburg,Champaign County,40.055,-84.026
0754,Cairo,Allen County,40.832,-84.086
4001,Phillipsburg,Montgomery County,39.904,-84.402
0060,Alexandria,Licking County,40.089,-82.612
1206,Corning,Perry County,39.603,-82.088
4349,Ridgewood,Hamilton County,39.190,-84.434
4904,Stockport,Morgan County,39.548,-81.793
2050,Gettysburg,Darke County,40.111,-84.495
1096,New Haven,Huron County,41.032,-82.682
1145,Collins,Huron County,41.259,-82.491
5220,Van Buren,Hancock County,41.139,-83.649
1633,Eldorado,Preble County,39.902,-84.675
1861,Fletcher,Miami County,40.145,-84.112
3706,North Hampton,Clark County,39.990,-83.940
2989,Lindsey,Sandusky County,41.419,-83.221
3620,New Hampshire,Auglaize County,40.556,-83.953
2380,Hayesville,Ashland County,40.773,-82.262
1105,Coalton,Jackson County,39.114,-82.611
0335,Beaver,Pike County,39.031,-82.824
5521,Williston,Ottawa County,41.604,-83.340
0122,Amsterdam,Jefferson County,40.474,-80.923
4944,Sugar Grove,Fairfield County,39.626,-82.548
0690,Buford,Highland County,39.077,-83.844
4495,Rutland,Meigs County,39.045,-82.130
1603,Edison,Morrow County,40.558,-82.862
3221,Martinsville,Clinton County,39.324,-83.815
4801,Spring Valley,Greene County,39.609,-84.008
0379,Belmont,Belmont County,40.029,-81.039
3208,Marne,Licking County,40.071,-82.309
1946,Fredericksburg,Wayne County,40.677,-81.870
4335,Richmond,Jefferson County,40.433,-80.772
1043,Clarksburg,Ross County,39.505,-83.153
3992,Petersburg,Mahoning County,40.913,-80.530
2341,Hartford,Licking County,40.240,-82.691
2557,Huntsville,Logan County,40.443,-83.805
0992,Portage,Wood County,41.327,-83.651
5247,Verona,Montgomery County,39.901,-84.506
2153,Grand River,Lake County,41.736,-81.281
2629,Jacksonville,Athens County,39.475,-82.082
2829,Lafayette,Allen County,40.760,-83.949
3519,Mount Pleasant,Jefferson County,40.175,-80.798
3585,Negley,Columbiana County,40.790,-80.539
2499,Holmesville,Holmes County,40.630,-81.924
1177,McDermott,Scioto County,38.835,-83.065
4475,Rudolph,Wood County,41.298,-83.670
1000,Chickasaw,Mercer County,40.437,-84.493
2652,Jersey,Licking County,40.054,-82.723
0323,Beallsville,Monroe County,39.848,-81.037
2494,Holloway,Belmont County,40.162,-81.133
1175,Conesville,Coshocton County,40.184,-81.891
5454,Wharton,Wyandot County,40.861,-83.462
2609,Irondale,Jefferson County,40.572,-80.726
0022,Adelphi,Ross County,39.467,-82.747
5303,Waldo,Marion County,40.459,-83.077
4602,Savannah,Ashland County,40.965,-82.365
1299,Cumberland,Guernsey County,39.852,-81.658
4348,Ridgeway,Hardin County,40.512,-83.569
1820,Fayetteville,Brown County,39.187,-83.932
2328,Harrisburg,Franklin County,39.811,-83.168
0339,Beaverdam,Allen County,40.833,-83.977
3960,Pekin,Carroll County,40.717,-81.122
4415,Rocky Ridge,Ottawa County,41.533,-83.212
0154,Aquilla,Geauga County,41.573,-81.154
2073,Midland,Clinton County,39.306,-83.911
4484,Rushville,Fairfield County,39.765,-82.432
4132,Port Jefferson,Shelby County,40.329,-84.094
0652,Brownsville,Licking County,39.947,-82.257
3844,Osgood,Darke County,40.340,-84.495
4110,Polk,Ashland County,40.944,-82.215
0473,Bladensburg,Knox County,40.285,-82.284
1096,New Haven,Hamilton County,39.276,-84.741
5594,Woodstock,Champaign County,40.174,-83.527
4519,Salem Heights,Columbiana County,40.901,-80.891
4448,Rosewood,Champaign County,40.219,-83.961
0698,Burbank,Wayne County,40.989,-81.995
2118,Good Hope,Fayette County,39.447,-83.365
5534,Wilmot,Stark County,40.656,-81.632
3193,Marengo,Morrow County,40.401,-82.811
3359,Midway,Madison County,39.733,-83.478
2881,Lansing,Belmont County,40.076,-80.790
4925,Stratton,Jefferson County,40.522,-80.626
1327,Damascus,Columbiana County,40.906,-80.949
0551,Bowersville,Greene County,39.581,-83.725
4755,Somerville,Butler County,39.562,-84.638
1059,Clay Center,Ottawa County,41.563,-83.362
1856,Flat Rock,Seneca County,41.236,-82.860
2463,Hills and Dales,Stark County,40.830,-81.445
3488,Morristown,Belmont County,40.063,-81.074
1978,Fulton,Morrow County,40.463,-82.829
4953,Summerfield,Noble County,39.797,-81.336
0885,Catawba,Clark County,39.999,-83.622
2126,Gordon,Darke County,39.931,-84.509
1645,Elizabethtown,Hamilton County,39.159,-84.805
2093,Glenmont,Holmes County,40.520,-82.097
2303,Scott,Paulding County,40.989,-84.584
0675,Buckland,Auglaize County,40.623,-84.260
1698,Empire,Jefferson County,40.508,-80.624
3312,Melrose,Paulding County,41.092,-84.420
0730,Highland,Highland County,39.345,-83.597
3597,New Alexandria,Jefferson County,40.291,-80.679
4151,Potsdam,Miami County,39.963,-84.417
2300,Hannibal,Monroe County,39.667,-80.872
3220,Martinsburg,Knox County,40.270,-82.354
3716,North Star,Darke County,40.325,-84.571
0400,Bentonville,Adams County,38.750,-83.613
3789,Old Washington,Guernsey County,40.039,-81.445
5272,Vinton,Gallia County,38.976,-82.342
5086,Tiro,Crawford County,40.906,-82.773
4456,Roswell,Tuscarawas County,40.476,-81.350
1869,Florida,Henry County,41.322,-84.204
2178,Gratiot,Licking County,39.952,-82.217
2404,Helena,Sandusky County,41.341,-83.292
1513,Dupont,Putnam County,41.056,-84.304
2957,Lewistown,Logan County,40.422,-83.885
2298,Hanging Rock,Lawrence County,38.560,-82.721
3929,Parral,Tuscarawas County,40.561,-81.497
4842,St. Martin,Brown County,39.214,-83.891
0996,Chesterville,Morrow County,40.480,-82.684
2958,Lewisville,Monroe County,39.765,-81.218
4419,Rogers,Columbiana County,40.791,-80.626
3570,Nashville,Holmes County,40.596,-82.112
3891,Palestine,Darke County,40.049,-84.743
4231,Radnor,Delaware County,40.384,-83.151
2338,Harrisville,Harrison County,40.181,-80.888
4951,Sulphur Springs,Crawford County,40.871,-82.877
3824,Orangeville,Trumbull County,41.339,-80.519
5649,Zoar,Tuscarawas County,40.614,-81.422
4520,Salesville,Guernsey County,39.973,-81.337
3787,Old Fort,Seneca County,41.240,-83.150
2062,Gilboa,Putnam County,41.018,-83.922
2371,Haviland,Paulding County,41.019,-84.581
1093,Cloverdale,Putnam County,41.021,-84.304
3495,Moscow,Clermont County,38.857,-84.229
0732,Butlerville,Warren County,39.303,-84.090
2696,Kansas,Seneca County,41.245,-83.285
0296,Bascom,Seneca County,41.133,-83.285
3360,Mifflin,Ashland County,40.774,-82.364
3447,Montezuma,Mercer County,40.489,-84.549
3828,Orient,Pickaway County,39.805,-83.153
4072,Plainville,Hamilton County,39.142,-84.360
2406,Hemlock,Perry County,39.589,-82.155
0899,Cecil,Paulding County,41.219,-84.602
4069,Plainfield,Coshocton County,40.210,-81.720
0492,Bloomingdale,Jefferson County,40.343,-80.818
0018,Adamsville,Muskingum County,40.070,-81.882
2829,Lafayette,Madison County,39.938,-83.407
5341,Wilson,Belmont County,39.861,-81.069
1083,Clifton,Clark County,39.797,-83.825
4084,Pleasant Plain,Warren County,39.279,-84.112
2088,Glencoe,Belmont County,40.008,-80.888
2930,Leesville,Carroll County,40.452,-81.212
3937,Patterson,Hardin County,40.781,-83.526
3556,Mutual,Champaign County,40.079,-83.637
1557,East Rochester,Columbiana County,40.746,-81.035
2653,Jerusalem,Monroe County,39.852,-81.092
1637,Sparta,Morrow County,40.395,-82.700
3667,Newport,Shelby County,40.296,-84.370
4718,Sinking Spring,Highland County,39.073,-83.387
2735,Kirby,Wyandot County,40.813,-83.419
3127,Macksburg,Washington County,39.632,-81.457
0642,Broughton,Paulding County,41.090,-84.535
4957,Summitville,Columbiana County,40.678,-80.886
0479,Blakeslee,Williams County,41.524,-84.730
0877,Castine,Darke County,39.932,-84.624
5632,Yorkshire,Darke County,40.325,-84.496
0302,Batesville,Noble County,39.914,-81.281
3375,Milledgeville,Fayette County,39.593,-83.587
3211,Marseilles,Wyandot County,40.701,-83.393
0824,Carbon Hill,Hocking County,39.502,-82.245
3861,Otway,Scioto County,38.866,-83.187
0596,Brice,Franklin County,39.918,-82.832
5084,Tippecanoe,Harrison County,40.270,-81.287
3733,Norwich,Muskingum County,39.985,-81.792
0929,Centerville,Gallia County,38.898,-82.446
2622,Ithaca,Darke County,39.937,-84.553
4320,Rome,Adams County,38.666,-83.378
0147,Antioch,Monroe County,39.660,-81.068
0725,Fairview,Belmont County,40.057,-81.235
1590,Stafford,Monroe County,39.713,-81.276
2184,Graysville,Monroe County,39.666,-81.174
0371,Belmore,Putnam County,41.153,-83.939
4397,Rockbridge,Hocking County,39.580,-82.522
1961,Fresno,Coshocton County,40.333,-81.742
1639,Elgin,Van Wert County,40.743,-84.476
3427,Monnett,Crawford County,40.718,-83.040
0025,Advance,Fulton County,41.641,-84.112
0027,Africa,Delaware County,40.182,-82.957
0120,Amity,Madison County,40.069,-83.251
0148,Antrim,Guernsey County,40.121,-81.359
0160,Arbela,Union County,40.482,-83.407
0180,Arnold,Union County,40.142,-83.251
0197,Assumption,Fulton County,41.672,-83.912
0207,Atlanta,Pickaway County,39.561,-83.191
0223,Augusta,Carroll County,40.686,-81.021
0232,Avery,Erie County,41.328,-82.621
0234,Avis,Putnam County,41.021,-84.169
0254,Bakersville,Coshocton County,40.356,-81.646
0264,Bangs,Knox County,40.352,-82.552
0289,Bartlett,Washington County,39.419,-81.816
0291,Barton,Belmont County,40.107,-80.841
0419,Bethany,Butler County,39.384,-84.374
0430,Bidwell,Gallia County,38.919,-82.299
0448,Birmingham,Erie County,41.330,-82.361
0450,Byron,Greene County,39.786,-83.981
0490,Blooming Grove,Morrow County,40.708,-82.717
0515,Bogart,Erie County,41.396,-82.651
0542,Boston,Summit County,41.263,-81.559
0577,Brandt,Miami County,39.902,-84.092
0621,Broadway,Union County,40.341,-83.412
0682,Buena Vista,Fayette County,39.422,-83.494
0769,Calumet,Jefferson County,40.482,-80.607
0789,Campbellsport,Portage County,41.136,-81.197
0825,Carbondale,Athens County,39.378,-82.271
0920,Chester,Meigs County,39.087,-81.922
0929,Centerville,Marion County,40.495,-83.243
0960,Charloe,Paulding County,41.131,-84.434
0972,Chautauqua,Montgomery County,39.591,-84.296
0979,Chenoweth,Madison County,39.731,-83.358
1014,Chrisman,Madison County,39.833,-83.373
1037,Claridon,Geauga County,41.539,-81.129
1037,Claridon,Marion County,40.583,-82.997
1045,Clarkson,Columbiana County,40.747,-80.613
1136,Colerain,Belmont County,40.126,-80.809
1147,Collinsville,Butler County,39.515,-84.609
1183,Cook,Fayette County,39.683,-83.307
1311,Cutler,Washington County,39.354,-81.790
1353,Dawn,Darke County,40.217,-84.579
1371,Waterford,Washington County,39.539,-81.644
1426,Diamond,Portage County,41.099,-81.023
1506,Dungannon,Columbiana County,40.734,-80.879
1558,East Union,Noble County,39.768,-81.401
1616,Egypt,Auglaize County,40.386,-84.433
1655,Elkton,Columbiana County,40.762,-80.699
1667,Ellsworth,Mahoning County,41.024,-80.857
1693,Emerson,Jefferson County,40.178,-80.823
1727,Essex,Union County,40.483,-83.316
1766,Fairhaven,Preble County,39.639,-84.772
1843,Hope,Vinton County,39.318,-82.337
1862,Flint,Franklin County,40.127,-83.006
1881,Footville,Ashtabula County,41.662,-80.978
1947,Fredericktown,Columbiana County,40.714,-80.548
1949,Freeburg,Stark County,40.834,-81.148
1959,Frenchtown,Darke County,40.246,-84.524
1976,Fulda,Noble County,39.725,-81.416
1979,Funk,Wayne County,40.753,-82.116
1989,Galloway,Franklin County,39.910,-83.160
2051,Ghent,Summit County,41.158,-81.637
2072,Gilmore,Tuscarawas County,40.291,-81.440
2193,Jefferson,Wayne County,40.802,-82.023
2218,Greentown,Jefferson County,40.251,-80.768
2258,Gypsum,Ottawa County,41.493,-82.876
2277,Hallsville,Ross County,39.444,-82.827
2284,Watertown,Washington County,39.466,-81.632
2341,Hartford,Trumbull County,41.311,-80.568
2458,Hillcrest,Warren County,39.402,-84.256
2471,Hinckley,Medina County,41.238,-81.745
2508,Homerville,Medina County,41.029,-82.126
2519,Hopewell,Muskingum County,39.956,-82.171
2532,Houston,Shelby County,40.254,-84.337
2614,Irwin,Union County,40.123,-83.489
2651,Jerome,Union County,40.166,-83.176
2688,Junction,Paulding County,41.193,-84.459
2722,Kennard,Champaign County,40.193,-83.680
2726,Kensington,Columbiana County,40.735,-80.956
2747,Keystone,Jackson County,38.988,-82.609
2751,Kilgore,Carroll County,40.464,-81.002
2774,Kirkpatrick,Marion County,40.689,-83.009
2776,Kirkwood,Shelby County,40.216,-84.197
2797,Kossuth,Auglaize County,40.659,-84.348
2928,Lees Creek,Clinton County,39.420,-83.649
2941,Lena,Miami County,40.141,-84.032
2964,Monroe,Jackson County,38.856,-82.629
2993,Lynn,Marion County,40.499,-83.107
3000,Litchfield,Medina County,41.168,-82.023
3004,Little York,Montgomery County,39.859,-84.258
3032,Londonderry,Ross County,39.267,-82.790
3066,Louden,Adams County,39.027,-83.453
3134,Madison Mills,Fayette County,39.654,-83.340
3183,Maplewood,Shelby County,40.376,-84.026
3190,Marchand,Stark County,40.881,-81.428
3212,Marshall,Highland County,39.152,-83.485
3241,Maud,Butler County,39.355,-84.390
3249,Maynard,Belmont County,40.123,-80.879
3292,Meade,Pickaway County,39.505,-82.877
3300,Mechanicstown,Carroll County,40.619,-80.951
3306,Medway,Clark County,39.940,-84.030
3310,Melbern,Williams County,41.468,-84.651
3343,Mexico,Wyandot County,40.986,-83.193
3378,Millerstown,Champaign County,40.157,-83.921
3379,Millersville,Sandusky County,41.312,-83.281
3383,Milligan,Perry County,39.728,-82.102
3400,Mineral,Athens County,39.324,-82.265
3402,Mineral Springs,Adams County,38.887,-83.329
3423,Moline,Wood County,41.559,-83.511
3453,Montrose,Summit County,41.136,-81.637
3480,Morning Sun,Preble County,39.596,-84.737
3499,Moulton,Auglaize County,40.556,-84.297
3626,New Hope,Preble County,39.792,-84.713
3638,New Plymouth,Vinton County,39.385,-82.396
3667,Newport,Madison County,39.835,-83.465
3667,Newport,Tuscarawas County,40.359,-81.343
3702,North Bloomfield,Trumbull County,41.308,-80.956
3728,Northwood,Logan County,40.473,-83.733
3783,Okolona,Henry County,41.355,-84.218
3792,Oldtown,Greene County,39.730,-83.938
3871,Owens,Marion County,40.520,-83.158
3940,Patriot,Gallia County,38.774,-82.384
3979,Peoria,Union County,40.314,-83.446
3992,Petersburg,Carroll County,40.514,-81.112
3997,Phalanx,Trumbull County,41.261,-80.979
4018,Pierpont,Ashtabula County,41.749,-80.568
4107,Point Pleasant,Clermont County,38.894,-84.234
4115,Polo,Miami County,40.182,-84.356
4142,Portland,Meigs County,39.003,-81.771
4208,Pyrmont,Montgomery County,39.812,-84.461
4262,Raymond,Union County,40.335,-83.466
4278,Red Lion,Warren County,39.491,-84.250
4293,Reedsville,Meigs County,39.121,-81.748
4297,Rehoboth,Perry County,39.744,-82.193
4303,Reno,Washington County,39.373,-81.396
4307,Resaca,Madison County,40.049,-83.388
4319,Roads,Jackson County,39.081,-82.538
4338,Richville,Stark County,40.751,-81.478
4385,Robertsville,Stark County,40.763,-81.189
4412,Rocky Hill,Jackson County,38.989,-82.545
4471,Royalton,Fairfield County,39.727,-82.767
4512,Saint Joseph,Portage County,41.027,-81.299
4575,Sandyville,Tuscarawas County,40.640,-81.372
4635,Sebastian,Mercer County,40.444,-84.517
4662,Shandon,Butler County,39.326,-84.715
4667,Sharpsburg,Athens County,39.436,-81.912
4724,Slater,Auglaize County,40.528,-84.073
4778,Southington,Trumbull County,41.308,-80.956
4847,St. Patrick,Shelby County,40.371,-84.287
4892,Stewart,Athens County,39.308,-81.894
5060,Thompson,Geauga County,41.690,-81.051
5125,Triadelphia,Morgan County,39.700,-81.965
5190,Unionville,Ashtabula County,41.780,-81.003
5201,Utopia,Clermont County,38.776,-84.057
5266,Vincent,Washington County,39.375,-81.671
5358,Wattsville,Carroll County,40.573,-80.933
5364,Wayland,Portage County,41.161,-81.071
5383,Welsh,Meigs County,39.151,-82.173
5418,West Middletown,Butler County,39.524,-84.418
5424,West Point,Columbiana County,40.708,-80.702
5443,Westminster,Allen County,40.693,-83.980
5612,Wrightsville,Madison County,39.861,-83.247