phoneme,name,latitude,longitude
05584,Milwaukee,43.063,-87.967
02989,Fisherville,44.241,-87.680
07030,Racine,42.726,-87.783
00248,Appleton,44.279,-88.388
02592,Eau Claire,44.820,-91.495
06389,Oshkosh,44.025,-88.543
04250,Janesville,42.683,-89.019
04549,La Crosse,43.801,-91.240
02917,Farmers Valley,43.899,-90.748
05955,New Berlin,42.976,-88.108
09044,Wausau,44.959,-89.630
03535,Greenfield,42.961,-88.013
03133,Franklin,42.889,-88.038
06211,Oak Creek,42.886,-87.863
08309,Sun Prairie,43.184,-89.214
02994,Fitchburg,42.961,-89.470
05801,Mount Pleasant,42.697,-87.856
05864,Muskego,42.906,-88.139
01286,Caledonia,42.808,-87.924
09029,Watertown,43.189,-88.729
06802,Pleasant Prairie,42.553,-87.933
04054,Howard,44.569,-88.072
05273,Marshfield,44.663,-90.172
02118,Cudahy,42.960,-87.861
04360,Kaukauna,44.277,-88.264
07276,River Falls,44.861,-92.624
02480,Dunbarton,42.562,-90.133
00649,Bellevue,44.444,-87.920
03736,Hartford,43.322,-88.378
01639,Chippewa Falls,44.937,-91.393
09243,Whitefish Bay,43.113,-87.900
03534,Greendale,42.941,-87.996
09258,Whitewater,42.837,-88.734
00138,Allouez,44.477,-88.016
07830,Shorewood,43.089,-87.888
03724,Harrison,44.192,-88.294
03352,Glendale,43.135,-87.936
08234,Stoughton,42.917,-89.218
03078,Fort Atkinson,42.929,-88.837
03548,Greenville,44.300,-88.536
07219,Richfield,43.256,-88.194
08343,Sussex,43.134,-88.222
09043,Waupun,43.632,-88.738
01225,Burlington,42.675,-88.272
04889,Lisbon,43.158,-88.250
03958,Hobart,44.499,-88.150
06026,New Richmond,45.123,-92.537
02691,Elkhorn,42.673,-88.545
06885,Portage,43.539,-89.463
08029,Sparta,43.944,-90.813
03738,Hartland,43.105,-88.342
08099,St. Francis,42.968,-87.878
05474,Merrill,45.181,-89.683
05378,McFarland,43.013,-89.290
07207,Rice Lake,45.506,-91.738
09343,Windsor,43.218,-89.342
06824,Plymouth,43.749,-87.977
00167,Altoona,44.805,-91.443
05656,Monona,43.062,-89.334
04074,Hudson,44.983,-92.674
02270,Delavan,42.633,-88.644
04606,Lake Geneva,42.592,-88.433
05838,Mukwonago,42.853,-88.321
07966,Somers,42.640,-87.910
05480,Merton,43.157,-88.364
02266,Delafield,43.049,-88.348
00327,Ashland,46.582,-90.872
06186,Norway,42.797,-88.123
00665,Beloit,42.553,-89.073
07270,Ripon,43.842,-88.836
05838,Mukwonago,42.890,-88.373
04263,Jefferson,43.006,-88.807
09014,Washington,44.742,-91.401
03454,Grand Rapids,44.379,-89.754
08856,Vernon,42.904,-88.252
04454,Kimberly,44.272,-88.339
01972,Cottage Grove,43.076,-89.200
06007,New London,44.396,-88.739
04232,Jackson,43.324,-88.167
03270,Genesee,42.953,-88.359
00114,Algoma,44.023,-88.624
01161,Buchanan,44.269,-88.237
05518,Middleton,43.078,-89.570
02712,Elm Grove,43.043,-88.079
09025,Waterford,42.794,-88.250
04731,Lawrence,44.399,-88.143
01103,Brookfield,43.038,-88.172
04615,Lake Mills,43.081,-88.912
01225,Burlington,42.653,-88.239
08708,Twin Lakes,42.531,-88.248
04584,Lafayette,44.908,-91.295
05132,Madison,43.041,-89.391
03151,Freedom,44.386,-88.289
02613,Edgerton,42.839,-89.070
06324,Onalaska,43.935,-91.267
02834,Evansville,42.780,-89.299
05583,Milton,42.776,-88.944
00702,Berlin,43.970,-88.950
08652,Troy,44.905,-92.682
01849,Columbus,43.337,-89.030
03272,Geneva,42.630,-88.482
04082,Hull,44.565,-89.559
09154,West Salem,43.899,-91.081
01078,Bristol,42.559,-88.049
05343,Mayville,43.494,-88.545
07635,Saratoga,44.296,-89.803
07223,Richland Center,43.335,-90.387
08299,Summit,43.046,-88.477
02373,Dodgeville,42.960,-90.130
08743,Union Grove,42.688,-88.051
02493,Dunn,42.974,-89.313
00862,Bloomfield,42.549,-88.352
02568,East Troy,42.785,-88.405
07791,Shelby,43.769,-91.161
06257,Oconto,44.887,-87.865
04172,Inlet,42.627,-88.585
08624,Trenton,43.400,-88.095
01744,Clintonville,44.621,-88.762
03615,Holland,44.016,-91.315
09111,West Bend,43.391,-88.233
01078,Bristol,43.244,-89.175
00547,Bayside,43.183,-87.902
03437,Grafton,43.352,-87.946
04432,Kewaskum,43.518,-88.231
06953,Prescott,44.749,-92.802
07967,Somerset,45.145,-92.703
01709,Clayton,44.201,-88.582
02419,Dover,42.720,-88.121
05424,Medford,45.139,-90.340
05459,Menominee,44.991,-88.669
00433,Baldwin,44.967,-92.374
08109,St. Joseph,45.047,-92.691
01317,Campbell,43.886,-91.295
09184,Westport,43.167,-89.428
07225,Richmond,45.071,-92.569
02082,Cross Plains,43.114,-89.656
00588,Beaver Dam,43.445,-88.814
06327,Oneida,44.499,-88.183
01632,Chilton,44.029,-88.163
06839,Polk,43.350,-88.211
04446,Kiel,43.916,-88.026
08280,Sugar Creek,42.717,-88.606
06985,Pulaski,44.668,-88.234
07090,Raymond,42.801,-88.013
04660,Lancaster,42.847,-90.711
06146,North Hudson,44.993,-92.757
02790,Erin,43.242,-88.352
06806,Pleasant Valley,44.662,-91.468
05269,Marshall,43.168,-89.067
04032,Horicon,43.451,-88.631
03792,Hayward,45.990,-91.406
08147,Stanley,44.959,-90.944
07309,Rochester,42.741,-88.224
04534,Koshkonong,42.846,-88.919
05923,Neenah,44.156,-88.443
00860,Bloomer,45.100,-91.489
05100,Lyons,42.628,-88.363
00260,Arcadia,44.253,-91.502
02921,Farmington,44.375,-89.174
01506,Center,44.376,-88.440
06322,Omro,44.039,-88.744
07687,Scott,44.587,-87.895
06406,Ottawa,42.976,-88.450
02921,Farmington,43.505,-88.106
03195,Fulton,42.808,-89.127
08184,Stephenson,45.242,-88.136
07755,Seymour,44.515,-88.330
03688,Harbor Springs,44.064,-88.686
07092,Reighmoor,44.057,-88.674
09526,Zion,43.997,-88.662
02518,Eagle,42.893,-88.486
09334,Wilson,43.673,-87.760
00036,Addison,43.413,-88.341
03736,Hartford,43.330,-88.360
09198,Wheatland,42.583,-88.247
07755,Seymour,44.830,-91.342
02709,Ellsworth,44.732,-92.487
07064,Randall,42.543,-88.215
04946,Lodi,43.339,-89.535
01217,Burke,43.136,-89.276
09103,Wescott,44.818,-88.559
01096,Brodhead,42.617,-89.376
09499,Yorkville,42.742,-88.027
02703,Ellington,44.373,-88.551
09455,Wrightstown,44.327,-88.176
07813,Sherwood,44.174,-88.260
00114,Algoma,44.609,-87.433
06234,Oakland,42.985,-88.947
04583,Ladysmith,45.463,-91.104
06352,Oregon,42.902,-89.424
04042,Hortonville,44.335,-88.638
06386,Osceola,45.342,-92.621
02526,Eagle Point,45.032,-91.396
07310,Rock,42.627,-89.083
00094,Alden,45.253,-92.509
04851,Lima,43.669,-87.867
08067,Springfield,43.162,-89.546
08213,Stockton,44.511,-89.467
08952,Wales,43.004,-88.377
07741,Sevastopol,44.930,-87.173
06589,Pelican,45.593,-89.338
00515,Bass Lake,45.936,-91.451
09199,Wheaton,44.908,-91.558
06443,Pacific,43.512,-89.405
02751,Empire,43.752,-88.339
08986,Walworth,42.531,-88.600
03171,Friendship,43.852,-88.468
00501,Barton,43.462,-88.231
06723,Pine Lake,45.687,-89.400
04881,Linn,42.533,-88.487
07204,Rome,44.221,-89.808
04861,Lincoln,45.907,-89.246
05087,Luxemburg,44.539,-87.704
03123,Fox Lake,43.596,-88.935
04338,Juneau,43.406,-88.705
08737,Union,44.843,-91.549
03664,Hammond,44.997,-92.445
02226,Dayton,44.281,-89.164
09455,Wrightstown,44.331,-88.096
06765,Pittsfield,44.599,-88.245
05154,Maine,45.027,-89.690
06928,Poynette,43.390,-89.403
08147,Stanley,45.430,-91.725
01095,Brockway,44.285,-90.840
03707,Harmony,42.714,-88.943
00648,Belleville,42.864,-89.540
02255,Deerfield,43.052,-89.076
02286,Delton,43.565,-89.795
04555,La Grange,42.800,-88.602
00627,Belgium,43.500,-87.850
03659,Hamilton,43.943,-91.100
02291,Denmark,44.348,-87.827
00812,Black Wolf,43.940,-88.479
00993,Bradley,45.539,-89.755
03307,Gilbert,45.431,-89.693
06888,Porters,42.529,-88.959
00360,Auburn,43.594,-88.220
01860,Como,42.612,-88.482
06214,Oak Grove,44.729,-92.681
00030,Adams,42.801,-88.533
08652,Troy,42.779,-88.445
02242,Dekorra,43.458,-89.468
09163,Westby,43.657,-90.854
00005,Abbotsford,44.943,-90.317
03148,Fredonia,43.471,-87.951
03615,Holland,43.591,-87.854
01749,Clover,44.038,-87.702
06068,Newton,43.994,-87.726
01055,Bridge Creek,44.714,-91.049
07276,River Falls,44.816,-92.574
04247,Jamestown,42.555,-90.595
06154,North Prairie,42.934,-88.405
01738,Clifton,44.817,-92.723
04528,Kohler,43.739,-87.782
03509,Green Bay,44.600,-87.796
03535,Greenfield,43.769,-91.081
09050,Wayne,43.514,-88.321
03000,Five Points,43.016,-89.533
07198,Rhine,43.858,-87.973
07831,Shorewood Hills,43.078,-89.446
07669,Schofield,44.910,-89.605
02921,Farmington,44.036,-91.063
04861,Lincoln,45.338,-92.351
08060,Spring Prairie,42.691,-88.404
07772,Sharon,44.627,-89.412
04833,Liberty Grove,45.254,-86.962
01482,Cedar Grove,43.570,-87.823
03853,Herman,43.855,-87.863
01575,Chase,44.718,-88.157
04584,Lafayette,42.714,-88.481
00227,Anson,44.981,-91.287
01869,Concord,43.069,-88.599
03112,Four Corners,46.532,-92.067
07647,Saunders,46.639,-92.109
05248,Marion,44.025,-89.175
02488,Dunkirk,42.881,-89.210
08065,Springdale,42.976,-89.652
02632,Edwards,43.888,-87.830
09150,West Point,43.325,-89.654
02044,Crescent,45.602,-89.483
07302,Roberts,44.984,-92.556
07446,Rubicon,43.340,-88.457
04536,Kossuth,44.191,-87.735
01149,Brunswick,44.721,-91.587
07487,Rutland,42.879,-89.350
05392,McMillan,44.742,-90.163
09014,Washington,44.785,-88.397
08858,Verona,42.968,-89.587
01803,Colby,44.911,-90.316
04555,La Grange,44.038,-90.478
02921,Farmington,45.260,-92.685
07667,Schleswig,43.941,-87.974
09029,Watertown,43.152,-88.741
01319,Campbellsport,43.598,-88.279
07225,Richmond,42.715,-88.749
01310,Cameron,45.409,-91.744
00635,Belle Plaine,44.715,-88.666
08737,Union,42.824,-89.302
06386,Osceola,43.681,-88.217
03532,Greenbush,43.777,-88.101
03475,Grant,44.329,-89.658
04480,Kinnickinnic,44.909,-92.552
00089,Albion,42.879,-89.070
07225,Richmond,44.808,-88.679
01109,Brooklyn,43.858,-88.963
08035,Spencer,44.758,-90.297
00212,Angelica,44.725,-88.305
01187,Buena Vista,43.238,-90.246
05623,Mitchell,43.670,-88.105
02895,Fall River,43.384,-89.045
06393,Osseo,44.572,-91.227
07066,Randolph,43.539,-89.003
07333,Rockland,44.376,-88.060
00326,Ashford,43.587,-88.371
00030,Adams,43.956,-89.818
01248,Butler,43.106,-88.070
02827,Eureka,45.518,-92.609
03241,Garfield,45.348,-92.488
01687,Clarks Point,44.193,-88.693
04145,Indian Shores,44.193,-88.693
06673,Piacenza,44.193,-88.693
09003,Warren,45.000,-92.568
08897,Vinland,44.121,-88.554
07687,Scott,43.591,-88.105
04067,Hubbard,43.413,-88.579
06006,New Lisbon,43.879,-90.165
03583,Grover,45.056,-87.860
08624,Trenton,44.604,-92.565
03203,Gale,44.104,-91.295
03288,Germantown,43.912,-90.029
02025,Cranberry Lake,45.640,-90.347
08049,Spring Brook,44.807,-91.742
09443,Worcester,45.604,-90.292
01286,Caledonia,44.294,-88.787
07440,Roxbury,43.249,-89.675
06475,Palmyra,42.878,-88.586
04889,Lisbon,43.856,-90.132
02239,Decatur,42.644,-89.428
08278,Sugar Camp,45.794,-89.314
04461,King,44.337,-89.142
02590,Eaton,44.437,-87.821
08714,Two Rivers,44.193,-87.577
02527,Eagle River,45.917,-89.244
08874,Vienna,43.248,-89.429
02202,Darien,42.623,-88.722
06938,Prairie Lake,45.333,-91.733
03212,Galesville,44.082,-91.349
01308,Cambridge,43.007,-89.021
09245,Whitehall,44.367,-91.317
04035,Horse Creek,45.258,-92.583
09014,Washington,45.942,-89.136
07470,Rushford,44.019,-88.814
00864,Blooming Grove,43.033,-89.316
01457,Cato,44.143,-87.861
04650,Lamartine,43.733,-88.569
04758,Lebanon,44.459,-88.787
08470,Texas,45.072,-89.557
02850,Excelsior,43.520,-89.879
04861,Lincoln,44.641,-90.255
05744,Morrison,44.299,-87.989
01732,Cleveland,43.915,-87.747
09262,Whiting,44.494,-89.559
06779,Plainville,43.709,-89.813
04758,Lebanon,43.233,-88.594
07219,Richfield,44.548,-90.132
07475,Russell,46.947,-90.847
06047,Newark,42.542,-89.228
04869,Lind,44.285,-89.044
08247,Stratford,44.801,-90.079
04795,Leon,44.115,-89.079
04099,Hurley,46.450,-90.187
03615,Holland,44.274,-88.099
06818,Plover,44.434,-89.584
06883,Port Washington,43.427,-87.880
00788,Byron,43.652,-88.451
03659,Hamilton,43.697,-88.459
00367,Augusta,44.680,-91.120
06965,Princeton,43.826,-89.114
06786,Platteville,42.704,-90.515
04659,Lanark,44.382,-89.278
04872,Lyndon,43.678,-87.974
07444,Royalton,44.413,-88.863
01109,Brooklyn,42.850,-89.376
06665,Phillips,45.697,-90.400
04900,Little Falls,44.098,-90.877
04872,Lyndon,43.669,-89.872
01286,Caledonia,43.471,-89.548
00747,Big Bend,42.881,-88.207
08531,Tilden,45.007,-91.438
01732,Cleveland,44.823,-90.019
02493,Dunn,44.744,-91.911
04130,Independence,44.357,-91.420
08200,Stiles,44.861,-88.048
01949,Cornell,45.167,-91.149
07811,Sherman,43.588,-87.982
02607,Edgar,44.927,-89.963
09258,Whitewater,42.776,-88.733
00801,Black Brook,45.254,-92.332
02666,Eldorado,43.825,-88.622
05423,Medary,43.855,-91.209
05673,Montello,43.791,-89.320
02995,Fitzgerald,43.982,-88.621
07259,Ring,43.909,-88.640
03164,Frenchville,44.150,-91.323
02894,Fall Creek,44.764,-91.277
01069,Brighton,42.629,-88.100
01188,Buffalo,43.686,-89.328
01300,Calumet,43.911,-88.291
01741,Clinton,43.686,-90.741
01919,Cooperstown,44.313,-87.774
06955,Preston,44.019,-89.790
08062,Spring Valley,44.852,-92.243
07687,Scott,45.157,-89.728
09433,Woodville,44.953,-92.291
00190,Amherst,44.462,-89.296
06499,Paris,42.634,-88.051
00030,Adams,44.354,-90.830
06101,Nokomis,45.606,-89.732
07795,Shell Lake,45.739,-91.925
09043,Waupun,43.686,-88.698
02921,Farmington,43.076,-88.672
07125,Red River,44.645,-87.676
04711,Lauderdale Lakes,42.772,-88.581
01022,Brazeau,45.116,-88.209
01405,Carson,44.549,-89.737
05686,Montpelier,44.459,-87.707
00699,Bergen,43.663,-91.201
00803,Black Creek,44.477,-88.451
08773,Utica,43.937,-88.704
02729,Elroy,43.741,-90.272
05428,Medina,43.156,-89.064
02828,Eureka Center,45.513,-92.652
03478,Grantsburg,45.776,-92.683
07587,Sanborn,46.433,-90.909
05211,Maple Heights,43.956,-88.317
00479,Barneveld,43.016,-89.895
03302,Gibson,44.282,-87.707
04360,Kaukauna,44.349,-88.227
08073,Springville,43.584,-90.940
04084,Humboldt,44.502,-87.826
05248,Marion,44.677,-88.902
06924,Powers Lake,42.554,-88.295
02749,Emmet,43.238,-88.712
03159,Fremont,44.646,-90.368
00831,Blair,44.294,-91.235
08073,Springville,43.778,-89.788
05861,Muscoda,43.186,-90.432
09170,Westford,43.498,-88.941
04687,Larrabee,44.268,-87.715
08125,St. Peter,43.836,-88.341
03315,Gillett,44.890,-88.307
04851,Lima,42.799,-88.841
08074,Springwater,44.200,-89.197
04687,Larrabee,44.636,-88.806
05658,Monroe,42.643,-89.662
04263,Jefferson,43.583,-90.975
02593,Eau Galle,44.899,-92.308
03800,Hazelhurst,45.808,-89.725
02226,Dayton,42.827,-89.513
02852,Exeter,42.791,-89.583
00489,Barre,43.842,-91.083
04141,Indian Hills,43.805,-88.990
08055,Spring Grove,43.815,-88.941
08774,Utley,43.727,-88.906
03133,Franklin,44.195,-87.868
04831,Liberty,44.018,-87.863
03301,Gibraltar,45.166,-87.269
08490,Theresa,43.517,-88.451
06824,Plymouth,42.620,-89.184
03240,Gardner,44.850,-87.580
02151,Cutter,46.633,-91.959
06508,Parkland,46.648,-91.998
06654,Peyton,46.650,-92.021
00788,Byron,44.027,-90.374
01817,Colfax,44.988,-91.708
01649,Christiana,42.972,-89.091
04806,Lessor,44.631,-88.410
03911,Hilbert,44.140,-88.164
08624,Trenton,43.571,-88.839
06383,Osborn,44.452,-88.342
02841,Evergreen,45.851,-91.975
09389,Wolf River,44.187,-88.828
00089,Albion,44.288,-90.968
07151,Reedsville,44.154,-87.957
00082,Albany,42.727,-89.421
04594,Lake,45.201,-87.887
00244,Apple River,45.427,-92.355
04823,Lewiston,43.581,-89.636
05682,Monticello,42.746,-89.595
00371,Aurora,45.786,-88.101
06234,Oakland,46.495,-91.990
07148,Reid,44.810,-89.419
03797,Hazel Green,42.534,-90.436
07150,Reedsburg,43.508,-90.016
06729,Pine Valley,44.556,-90.623
07017,Quincy,43.889,-89.915
04263,Jefferson,42.553,-89.538
00961,Bovina,44.458,-88.552
02167,Dakota,44.032,-89.317
00489,Berry,43.157,-89.659
04232,Jackson,43.781,-89.652
07222,Richland,43.336,-90.368
07846,Sigel,44.903,-91.172
02582,Easton,44.991,-89.423
01187,Buena Vista,44.371,-89.459
04861,Lincoln,44.736,-91.262
01897,Conover,46.055,-89.258
06048,Newburg,43.432,-88.048
01155,Brussels,44.736,-87.621
03362,Glenmore,44.386,-87.927
05688,Montrose,42.883,-89.577
04861,Lincoln,45.550,-88.863
01113,Brookside,43.861,-89.817
02582,Easton,43.838,-89.807
03853,Herman,43.407,-88.470
06214,Oak Grove,43.386,-88.746
07178,Rio,43.448,-89.240
03145,Frederic,45.659,-92.467
04432,Kewaskum,43.513,-88.219
00585,Beaver,45.138,-88.018
03133,Franklin,43.481,-90.892
05273,Marshfield,43.843,-88.232
01109,Brooklyn,42.808,-89.432
03552,Greenwood,44.770,-90.599
04804,LeRoy,43.573,-88.561
04594,Lake,45.920,-90.563
04905,Little River,44.967,-87.895
07426,Round Lake,46.046,-91.115
06892,Portland,43.199,-88.975
05540,Milford,43.101,-88.847
01664,Cicero,44.544,-88.446
05796,Mount Morris,44.114,-89.191
01754,Cloverland,45.943,-89.365
00512,Bashaw,45.771,-91.976
00702,Berlin,43.936,-88.937
02631,Edson,44.930,-91.035
01486,Cedar Lake,45.594,-91.598
02870,Fairfield,43.535,-89.646
01699,Clarno,42.546,-89.655
02870,Fairfield,42.633,-88.776
03797,Hazel Green,42.552,-90.487
00862,Bloomfield,44.205,-88.944
05059,Luck,45.576,-92.483
05277,Martell,44.830,-92.398
04887,Linwood,44.488,-89.665
00342,Athens,45.033,-90.074
04599,Lake Camelot,44.213,-89.763
05899,Nashville,45.523,-89.025
02594,Eau Pleine,44.655,-89.750
08303,Sumpter,43.367,-89.784
00164,Alto,43.677,-88.795
02223,Day,44.722,-90.012
04041,Hortonia,44.338,-88.686
03279,Georgetown,45.514,-92.335
01506,Center,42.709,-89.180
03780,Hawthorne,46.503,-91.861
01709,Clayton,43.360,-90.746
08692,Turtle Lake,45.391,-92.150
08299,Summit,46.426,-92.175
02524,Eagle Lake,42.707,-88.128
04640,Laketown,45.592,-92.600
00142,Alma,44.441,-90.855
01283,Calamus,43.414,-88.946
07737,Seneca,44.400,-89.956
02279,Delmar,44.994,-90.997
02654,Elba,43.327,-88.951
07846,Sigel,44.469,-89.902
02335,Dickeyville,42.627,-90.592
01379,Carlton,44.377,-87.587
06690,Pigeon,44.397,-91.222
09014,Washington,43.423,-90.133
00750,Big Flats,44.112,-89.808
00371,Aurora,44.035,-88.958
03321,Gilman,44.809,-92.308
08737,Union,44.719,-87.703
00992,Bradford,42.622,-88.828
01189,Buffalo City,44.231,-91.864
06660,Phelps,46.064,-89.088
08067,Springfield,44.995,-92.207
08383,Sylvester,42.640,-89.543
08151,Stanton,45.173,-92.467
07333,Rockland,44.112,-87.987
07312,Rock Creek,44.727,-91.721
05064,Ludington,44.829,-91.127
05223,Marathon,44.894,-89.778
02985,Fish Creek,45.128,-87.247
01649,Christiana,43.681,-90.846
07561,Sampson,45.240,-91.434
02682,Elk Creek,44.427,-91.400
03614,Hale,44.466,-91.263
06812,Pleasantville,44.454,-91.305
05048,Lowville,43.383,-89.327
07127,Red Springs,44.895,-88.807
01942,Corinth,45.003,-90.139
03516,Green Lake,43.844,-88.960
04297,Johnson,45.011,-89.356
05533,Milan,44.981,-90.179
06887,Porter,42.810,-89.177
03002,Flambeau,45.519,-91.126
04461,King,45.505,-89.618
05592,Mineral Point,42.871,-90.146
09494,York,42.814,-89.779
03475,Grant,44.727,-88.930
01709,Clayton,45.341,-92.229
03655,Hamburg,43.685,-91.083
06123,Norrie,44.886,-89.254
03056,Forest,43.753,-88.209
03109,Fountain Valley,44.091,-88.986
07668,Schley,45.249,-89.508
06214,Oak Grove,45.590,-91.712
05343,Mayville,44.992,-90.388
02319,Dewey,44.642,-89.577
03133,Franklin,44.372,-87.708
02680,Elk,45.675,-90.515
09337,Wilton,43.857,-90.492
00692,Benton,42.570,-90.381
04804,Leroy,43.582,-88.592
04232,Jackson,45.938,-92.234
00702,Berlin,45.076,-89.786
01230,Burns,43.945,-90.976
02440,Dresser,45.356,-92.634
04861,Lincoln,44.618,-87.642
05575,Milltown,45.526,-92.509
06955,Preston,44.294,-91.249
01059,Bridgeport,43.009,-91.058
00888,Blue Mounds,43.017,-89.832
04630,Lakeland,45.581,-91.969
06437,Oxford,43.770,-89.539
05210,Maple Grove,44.628,-88.301
01286,Caledonia,44.018,-91.359
04184,Iola,44.552,-89.172
03108,Fountain Prairie,43.417,-89.055
01437,Cassel,44.896,-89.893
06776,Plainfield,44.214,-89.492
02204,Darlington,42.653,-90.114
07811,Sherman,44.983,-91.953
07591,Sand Lake,45.817,-91.470
08055,Spring Grove,42.549,-89.425
02911,Fargo,43.456,-90.957
03041,Folsom,43.438,-90.838
09234,White River,46.536,-90.851
01803,Colby,44.895,-90.380
03655,Hamburg,45.091,-89.885
01123,Browning,45.154,-90.220
05315,Matteson,44.638,-88.669
09398,Wood River,45.782,-92.593
03535,Greenfield,43.461,-89.649
01741,Clinton,42.536,-88.847
06430,Owen,44.949,-90.564
01714,Clear Lake,45.249,-92.215
02749,Emmet,44.811,-89.894
08621,Trego,45.918,-91.837
06189,Norwood,45.078,-89.039
01732,Cleveland,45.153,-91.275
03947,Hingham,43.639,-87.914
06592,Pella,44.729,-88.790
01609,Chester,43.583,-88.701
03707,Harmony,43.576,-91.096
02604,Eden,43.694,-88.361
00081,Alban,44.628,-89.284
03884,Hixon,44.994,-90.620
09347,Winfield,43.601,-90.023
07737,Seneca,43.265,-90.958
00144,Almena,45.435,-92.103
07992,South Lancaster,42.811,-90.724
01274,Cady,44.907,-92.191
01006,Brandon,43.735,-88.781
01741,Clinton,45.420,-91.973
05210,Maple Grove,45.337,-91.849
07687,Scott,43.598,-89.174
07772,Sharon,42.537,-88.718
08853,Vermont,43.072,-89.786
03899,Highland,43.047,-90.380
09026,Waterloo,43.151,-88.931
06718,Pine Grove,44.291,-89.539
04663,Land o' Lakes,46.161,-89.219
06237,Oakley,42.548,-89.428
08721,Tyrone,42.548,-89.428
06073,Niagara,45.722,-87.936
04795,Leon,43.877,-90.830
03539,Greenleaf,44.313,-88.096
05154,Maine,44.548,-88.560
01267,Cable,46.202,-91.305
01802,Colburn,45.040,-91.045
02998,Five Corners,42.654,-89.896
04100,Huron,45.119,-90.983
09372,Wiota,42.637,-89.953
03475,Grant,44.544,-90.504
03994,Holton,44.996,-90.248
05144,Magnolia,42.716,-89.289
05214,Maple Plain,45.607,-92.083
05210,Maple Grove,44.189,-87.924
05814,Mountain,45.163,-88.429
08509,Thorp,44.996,-90.871
08214,Stoddard,43.662,-91.218
00285,Arlington,43.338,-89.380
00268,Arena,43.166,-89.913
02742,Emerald,45.084,-92.309
05172,Manchester,43.691,-89.048
08735,Underhill,44.875,-88.384
04644,Lakewood,45.339,-88.434
09411,Woodland,43.600,-90.253
08302,Sumner,44.558,-91.217
04263,Jefferson,43.770,-90.753
02402,Dorchester,45.001,-90.331
08302,Sumner,42.885,-88.983
09014,Washington,42.727,-89.661
05755,Mosel,43.806,-87.740
09067,Webster,43.597,-90.740
04595,Lake Arrowhead,44.204,-89.845
04967,Lone Rock,43.183,-90.198
08077,Spruce,44.953,-88.165
09031,Waterville,44.635,-92.047
01952,Corning,45.276,-89.952
03738,Hartland,44.641,-92.441
04881,Lynn,44.583,-90.410
07290,Riverview,45.244,-88.446
07811,Sherman,44.728,-90.375
09433,Woodville,44.183,-88.205
02420,Dovre,45.255,-91.606
03724,Harrison,45.477,-89.507
09494,York,44.638,-90.491
06159,North Shore,42.911,-88.920
00476,Barnes,46.307,-91.485
09382,Wittenberg,44.799,-89.161
04831,Liberty,44.416,-88.653
06234,Oakland,45.938,-92.369
00788,Biron,44.424,-89.780
08067,Springfield,43.947,-89.533
05172,Manchester,44.206,-90.779
09278,Wien,44.902,-90.024
06907,Potosi,42.701,-90.716
08372,Swiss,46.025,-92.283
01226,Burnett,43.498,-88.701
03112,Four Corners,45.671,-92.591
00585,Beaver,44.810,-90.500
03738,Hartland,44.721,-88.421
06769,Pittsville,44.439,-90.125
02125,Cumberland,45.508,-91.967
00487,Barron,45.437,-91.853
02590,Eaton,44.025,-87.976
08737,Union,43.595,-90.494
04767,Leeds,43.311,-89.324
02724,Elmwood,44.781,-92.146
08502,Thornapple,45.410,-91.220
02765,Englewood,43.429,-89.075
00585,Beaver,45.425,-92.214
09323,Willow Springs,42.756,-90.132
02436,Drammen,44.646,-91.594
09169,Westfield,43.859,-89.531
05687,Montreal,46.428,-90.246
04054,Howard,44.951,-91.538
08302,Sumner,45.386,-91.653
02593,Eau Galle,44.692,-92.012
00664,Belmont,42.788,-90.363
02415,Douglas,43.685,-89.549
07310,Rock,44.549,-90.249
00274,Argyle,42.701,-89.867
03104,Fountain City,44.132,-91.719
03867,Hewitt,44.645,-90.100
04565,La Prairie,42.629,-88.944
04861,Lincoln,44.114,-90.502
09287,Wild Rose,44.179,-89.249
00361,Auburndale,44.642,-90.023
03931,Hillsboro,43.689,-90.369
00360,Auburn,45.152,-91.613
08652,Troy,43.246,-89.922
01712,Clear Creek,44.640,-91.347
05050,Loyal,44.722,-90.507
04089,Hunter,45.919,-91.178
00307,Arthur,45.060,-91.156
00611,Beecher,45.588,-87.995
07333,Rockland,43.908,-90.917
04861,Lincoln,44.370,-91.366
00539,Bayfield,46.880,-90.954
04851,Lima,42.816,-90.489
09389,Wolf River,45.235,-88.727
03045,Footville,42.671,-89.209
06686,Pierce,44.536,-87.490
01307,Cambria,43.542,-89.107
01439,Cassville,42.714,-90.991
08737,Union,44.549,-88.915
02594,Eau Pleine,44.815,-90.133
03552,Greenwood,43.564,-90.418
05273,Marshfield,44.617,-90.092
00131,Allenton,43.421,-88.341
01141,Bruce,45.457,-91.273
04304,Johnstown,42.700,-88.806
07066,Randolph,43.615,-89.035
04082,Hull,44.895,-90.248
03413,Gordon,46.295,-91.825
03957,Hoard,44.994,-90.490
05861,Muscoda,43.164,-90.488
08151,Stanton,44.989,-92.079
01568,Charlestown,44.013,-88.071
02044,Crescent,45.068,-91.147
02457,Drywood,45.048,-91.168
03241,Garfield,44.558,-91.116
03273,Genoa,43.546,-91.173
04750,Lena,44.991,-88.056
06405,Otsego,43.402,-89.166
03279,Georgetown,42.624,-90.484
01272,Cadiz,42.552,-89.775
03367,Glenwood,45.080,-92.207
09396,Wood,44.473,-90.141
03721,Harris,43.856,-89.431
06229,Oakdale,43.923,-90.372
01188,Buffalo,44.082,-91.595
03681,Hansen,44.475,-90.019
02114,Crystal Lake,45.510,-92.098
04008,Honey Creek,43.339,-89.921
04872,Linden,42.915,-90.263
08755,Unity,44.822,-90.367
06621,Pepin,44.475,-92.142
06773,Plain,43.279,-90.044
00869,Bloomington,42.885,-90.923
02497,Dupont,44.635,-88.927
00564,Bear Creek,44.547,-88.794
01834,Coloma,44.026,-89.534
00046,Adrian,43.945,-90.595
01686,Clark,44.981,-90.613
03475,Grant,45.416,-91.133
06628,Perry,42.901,-89.779
03853,Herman,44.804,-88.789
07403,Rosendale,43.853,-88.706
04236,Jacksonport,44.979,-87.186
04441,Kickapoo,43.455,-90.715
00699,Bergen,44.735,-89.762
02581,Eastman,43.185,-90.956
08062,Spring Valley,42.624,-89.310
08187,Sterling,45.609,-92.765
07073,Rantoul,44.110,-88.099
03730,Harrisville,43.878,-89.405
01812,Coleman,45.065,-88.034
06267,Ogema,45.426,-90.385
01806,Cold Spring,42.891,-88.774
00787,Birnamwood,44.932,-89.210
01422,Cascade,43.658,-88.007
00473,Barksdale,46.621,-90.932
08930,Wagner,45.302,-87.736
00082,Albany,44.630,-91.710
03154,Freeman,43.370,-91.083
07325,Rockbridge,43.448,-90.364
08763,Upham,45.328,-89.170
02226,Dayton,43.336,-90.488
02590,Eaton,44.739,-90.610
08110,St. Lawrence,44.469,-89.050
00142,Alma,44.320,-91.915
02499,Durand,44.632,-91.931
09444,Worden,44.904,-90.871
01718,Clearfield,43.938,-90.132
00288,Armenia,44.179,-90.011
03657,Hammel,45.152,-90.506
05998,New Hope,44.551,-89.282
09014,Washington,45.395,-86.931
02169,Dale,44.273,-88.678
05892,Naples,44.545,-91.581
04449,Kildare,43.734,-89.910
09067,Webster,45.877,-92.367
05441,Mellen,46.326,-90.661
07475,Russell,45.360,-89.505
09161,Westboro,45.335,-90.464
03827,Helvetia,44.544,-89.032
05054,Lucas,44.894,-92.071
00089,Albion,44.553,-91.479
04987,Longwood,44.887,-90.598
09494,York,43.247,-89.061
08067,Springfield,44.287,-91.096
01738,Clifton,43.879,-90.357
04851,Lima,44.634,-91.873
09180,Weston,44.643,-90.607
02648,El Paso,44.770,-92.344
05993,New Haven,43.689,-89.650
03159,Fremont,44.260,-88.865
06892,Portland,43.769,-90.858
06818,Plover,44.978,-89.303
02187,Daniels,45.772,-92.466
06231,Oakfield,43.676,-88.589
00787,Birnamwood,44.913,-89.156
04636,Lakeside,46.677,-91.841
04850,Lily Lake,42.566,-88.210
06964,Primrose,42.901,-89.662
02250,Deer Creek,45.084,-90.248
03535,Greenfield,44.046,-90.599
08072,Springvale,43.760,-88.701
02255,Deerfield,44.114,-89.417
07387,Rose,44.200,-89.298
08899,Viola,43.508,-90.674
05993,New Haven,45.166,-92.095
08334,Superior,46.721,-92.104
00565,Bear Lake,45.590,-91.850
02882,Fairview,43.368,-90.943
05547,Milladore,44.649,-89.916
03133,Franklin,43.306,-90.039
08158,Star Prairie,45.197,-92.531
08208,Stockbridge,44.072,-88.299
04197,Iron River,46.564,-91.408
09087,Wellington,43.769,-90.492
08299,Summit,43.689,-90.133
03763,Hatley,44.887,-89.339
05269,Marshall,45.336,-90.988
09180,Weston,44.929,-89.529
06499,Paris,42.647,-90.617
09003,Warren,44.026,-89.063
05218,Maple Valley,44.995,-88.299
04201,Ironton,43.522,-90.144
04238,Jacobs,46.167,-90.518
03171,Friendship,43.971,-89.817
02858,Falun,45.462,-92.314
05206,Maple,46.590,-91.721
04221,Ithaca,43.341,-90.282
07247,Ridgeway,43.002,-89.990
00564,Bear Creek,43.304,-90.153
07204,Rome,42.980,-88.631
07793,Sheldon,43.774,-90.622
08288,Sullivan,43.013,-88.588
08692,Turtle Lake,45.331,-92.104
09255,Whitestown,43.689,-90.628
05248,Marion,43.075,-90.724
04920,Livingston,42.900,-90.434
09340,Winchester,44.199,-88.665
01652,Christie,44.644,-90.612
03370,Globe,44.644,-90.612
03867,Hewitt,45.075,-89.419
04977,Long Lake,45.691,-91.717
06866,Poplar,46.584,-91.799
07313,Rock Falls,45.314,-89.743
03132,Frankfort,44.906,-90.134
03654,Halsey,45.082,-90.027
06846,Polonia,44.570,-89.413
00450,Bancroft,44.310,-89.514
01519,Centerville,43.941,-87.755
01849,Columbus,43.327,-89.078
03552,Greenwood,45.245,-90.200
09180,Weston,44.813,-92.072
02250,Deer Creek,44.546,-88.672
09002,Warner,44.811,-90.617
06360,Orion,43.203,-90.428
01423,Casco,44.558,-87.618
00149,Almond,44.295,-89.424
05801,Mount Pleasant,42.726,-89.543
08527,Tiffany,45.080,-92.072
03056,Forest,43.689,-90.490
09426,Woodruff,45.896,-89.699
00664,Belmont,44.286,-89.297
08773,Utica,43.367,-90.907
05529,Mifflin,42.871,-90.354
06954,Presque Isle,46.247,-89.729
00453,Bangor,43.854,-90.970
01069,Brighton,44.808,-90.249
00706,Bern,45.101,-90.122
01145,Brule,46.582,-91.612
00779,Birchwood,45.717,-91.600
02697,Ellenboro,42.783,-90.614
06065,Newport,43.606,-89.708
02027,Crandon,45.600,-88.979
06140,North Freedom,43.460,-89.868
00976,Boyd,44.952,-91.035
03402,Goodman,45.636,-88.325
01135,Brownsville,43.616,-88.491
02794,Irving,44.190,-90.901
04320,Jordan,42.640,-89.769
08737,Union,44.644,-92.205
06185,Norwalk,43.831,-90.622
03103,Fountain,43.856,-90.251
08057,Spring Lake,44.812,-92.197
00683,Bennett,46.449,-91.854
00327,Ashland,46.382,-90.734
01138,Brownville,45.031,-90.934
05753,Moscow,42.833,-89.855
05209,Maple Creek,44.471,-88.690
07591,Sand Lake,45.864,-92.228
07687,Scott,45.932,-92.086
07818,Shields,43.854,-89.294
03056,Forest,45.137,-92.260
09198,Wheatland,43.456,-91.185
07221,Richford,44.024,-89.435
09169,Westfield,43.426,-90.007
03490,Gratiot,42.563,-90.034
02614,Edgewater,45.742,-91.475
03666,Hampden,43.332,-89.177
06171,Northfield,44.459,-91.100
07588,Sand Creek,45.167,-91.686
05934,Neosho,43.310,-88.518
00386,Avon,42.539,-89.293
06824,Plymouth,43.778,-90.251
03352,Glendale,43.782,-90.346
05928,Nelson,44.441,-91.974
00148,Almon,44.897,-89.053
00774,Birch,45.331,-89.629
02173,Dallas,45.251,-91.857
06806,Pleasant Valley,44.906,-92.466
00515,Bass Lake,45.940,-91.597
03671,Hancock,44.097,-89.538
04682,Laona,45.565,-88.674
05951,New Auburn,45.199,-91.566
08181,Stella,45.694,-89.241
06952,Prentice,45.546,-90.287
08187,Sterling,43.482,-91.040
00347,Atlanta,45.511,-91.337
04552,La Follette,45.769,-92.244
09013,Washburn,46.669,-91.099
00385,Avoca,43.182,-90.325
09026,Waterloo,42.727,-90.829
09089,Wells,43.856,-90.731
02319,Dewey,45.774,-92.083
07473,Rusk,45.336,-91.487
02683,Elk Grove,42.672,-90.391
04831,Liberty,42.901,-90.606
05461,Mentor,44.555,-90.868
05583,Milton,44.178,-91.759
08378,Sylvan,43.423,-90.628
04368,Kieler,42.581,-90.603
05269,Marshall,43.423,-90.489
06341,Orange,43.938,-90.250
08072,Springvale,43.503,-89.189
00030,Adams,42.727,-89.779
06068,Newton,43.948,-89.420
05443,Melrose,44.131,-90.998
00857,Bloom,43.510,-90.491
02319,Dewey,45.504,-90.978
04452,Kimball,46.482,-90.306
01310,Cameron,44.616,-90.167
05772,Moundville,43.679,-89.456
03724,Harrison,42.726,-90.603
06331,Ontario,43.722,-90.593
03561,Gresham,44.853,-88.788
02863,Fairbanks,44.718,-89.045
01732,Cleveland,44.549,-90.965
07229,Richwood,43.246,-90.614
07687,Scott,43.249,-90.725
04053,How,44.978,-88.429
01471,Cecil,44.810,-88.452
05264,Marquette,43.758,-89.165
06415,Oulu,46.633,-91.532
05476,Merrimac,43.373,-89.623
06502,Park Ridge,44.519,-89.546
08263,Stubbs,45.433,-91.342
09296,Willard,45.329,-91.126
02278,Dellwood,43.984,-89.939
02820,Ettrick,44.168,-91.269
05789,Mount Ida,42.972,-90.761
09014,Washington,43.769,-90.971
07861,Silver Cliff,45.456,-88.321
08218,Stone Lake,45.861,-91.597
02419,Dover,44.473,-91.577
03027,Florence,45.922,-88.252
08860,Vesper,44.482,-89.964
03526,Green Valley,44.728,-89.898
09170,Westford,43.511,-90.243
00549,Bayview,46.738,-90.902
04530,Komensky,44.377,-90.638
09334,Wilson,45.155,-91.839
08755,Unity,44.551,-91.345
03404,Goodrich,45.149,-90.086
03462,Grandview,46.314,-91.068
01231,Burnside,44.386,-91.470
05245,Marietta,43.153,-90.784
02725,Elmwood Park,42.692,-87.822
07818,Shields,43.234,-88.816
00776,Birch Creek,45.248,-91.218
03709,Harmony Hill,43.210,-90.711
04304,Johnstown,45.507,-92.227
08109,St. Joseph,43.786,-91.042
04104,Hutchins,44.983,-89.034
08951,Waldwick,42.826,-90.040
06408,Otter Creek,45.088,-91.847
07737,Seneca,44.821,-88.950
01947,Cornelia,42.689,-90.578
02518,Eagle,43.245,-90.490
02431,Doyle,45.509,-91.601
03002,Flambeau,45.786,-90.568
00038,Adell,43.619,-87.952
03112,Four Corners,45.168,-88.845
01996,Courtland,43.500,-89.060
07447,Ruby,45.177,-90.988
09315,Willow,43.417,-90.258
05749,Morse,46.222,-90.628
08095,St. Cloud,43.823,-88.167
07246,Ridgeville,43.886,-90.562
07468,Rush River,44.905,-92.406
02998,Five Corners,44.811,-89.043
03351,Glencoe,44.275,-91.612
04507,Knapp,44.955,-92.075
03070,Forestville,44.690,-87.479
00066,Ainsworth,45.381,-88.983
01782,Cobb,42.967,-90.330
03475,Grant,44.131,-90.601
08429,Taylor,44.321,-91.120
09050,Wayne,42.548,-89.889
04390,Kendall,43.792,-90.368
07473,Rusk,45.855,-92.104
07536,Salem,44.623,-92.358
04078,Hughes,46.522,-91.489
08948,Waldo,43.675,-87.949
07377,Roosevelt,45.079,-90.750
07408,Rosholt,44.628,-89.309
05239,Marengo,46.349,-90.888
04584,Lafayette,44.025,-90.732
00023,Ackley,45.175,-89.337
00494,Barronett,45.678,-91.971
02114,Crystal Lake,43.949,-89.303
07809,Sheridan,45.168,-91.970
08576,Tomahawk,45.416,-89.909
05463,Mercer,46.166,-90.063
03724,Harrison,44.639,-89.171
08512,Three Lakes,45.798,-89.163
00891,Blue River,43.188,-90.567
02866,Fairchild,44.645,-90.987
00371,Aurora,45.174,-90.873
02841,Evergreen,45.164,-88.873
06176,Northport,44.410,-88.794
03151,Freedom,43.415,-89.901
03585,Grow,45.423,-90.987
03000,Five Points,43.320,-90.595
04818,Levis,44.472,-90.639
05248,Marion,43.807,-89.946
00532,Bay City,44.586,-92.450
07035,Radisson,45.822,-91.203
03841,Henrietta,43.512,-90.375
02757,Endeavor,43.716,-89.466
04952,Lohrville,44.037,-89.117
07451,Rudolph,44.496,-89.808
04376,Kelly,46.458,-90.988
06408,Otter Creek,44.640,-91.226
03322,Gilmanton,44.471,-91.676
00564,Bear Creek,44.531,-88.726
02864,Fairburn,43.971,-89.037
09038,Waubeek,44.666,-91.973
01788,Cochrane,44.227,-91.835
09334,Wilson,44.828,-91.023
01859,Commonwealth,45.914,-88.240
06310,Oliver,46.657,-92.195
04337,Junction City,44.591,-89.767
00206,Anderson,45.670,-92.776
04390,Kendall,42.760,-90.233
05387,McKinley,45.341,-90.858
01376,Cary,44.460,-90.250
00668,Belvidere,44.272,-91.831
00747,Big Bend,45.341,-91.341
02514,Dyckesville,44.640,-87.765
04621,Lake Sherwood,44.206,-89.788
06131,North Bend,44.091,-91.117
01425,Casey,45.950,-91.962
03475,Grant,45.070,-91.716
05658,Monroe,44.101,-89.948
07755,Seymour,42.654,-90.250
02371,Dodge,44.125,-91.513
07737,Seneca,43.949,-89.069
09227,White Lake,45.157,-88.765
01392,Caroline,44.721,-88.891
03237,Garden Valley,44.466,-90.984
04002,Homestead,45.744,-88.287
04569,La Valle,43.582,-90.128
06245,Oasis,44.201,-89.424
09350,Wingville,42.987,-90.486
08755,Unity,44.851,-90.313
09340,Winchester,46.222,-89.898
01738,Clifton,42.899,-90.488
07475,Russell,43.859,-88.103
03321,Gilman,45.167,-90.808
05743,Morris,44.812,-89.042
04438,Keystone,46.524,-91.189
02938,Fayette,42.754,-90.035
00056,Agenda,46.079,-90.380
09028,Watterstown,43.158,-90.598
03919,Hill,45.413,-90.237
07663,Scandinavia,44.462,-89.149
09458,Wyalusing,42.944,-91.141
02078,Cross,44.174,-91.639
04861,Lincoln,45.866,-92.473
03692,Harding,45.297,-89.851
01256,Butternut,46.013,-90.490
04328,Juda,42.590,-89.506
09467,Wyoming,43.126,-90.112
04395,Kennan,45.488,-90.616
09014,Washington,45.335,-91.237
01470,Cazenovia,43.525,-90.204
02638,Egg Harbor,45.046,-87.297
06985,Pulaski,43.158,-90.355
00616,Bell,46.775,-91.119
08161,Stark,43.594,-90.614
05316,Mattoon,45.004,-89.042
00412,Bagley,42.906,-91.101
08737,Union,45.943,-92.480
01638,Chippewa,46.028,-90.701
02738,Embarrass,44.666,-88.707
05617,Mission,44.345,-90.763
05631,Modena,44.458,-91.797
08114,St. Marie,43.895,-89.084
02322,Dexter,44.394,-90.146
06915,Pound,45.094,-88.034
05406,Mead,44.809,-90.731
08457,Tennyson,42.690,-90.685
02827,Eureka,44.004,-88.842
03899,Highland,46.424,-91.635
05387,McKinley,45.571,-92.177
02781,Ephraim,45.156,-87.168
02604,Eden,42.998,-90.351
03287,Germania,44.725,-89.163
04831,Liberty,43.516,-90.734
03814,Hebron,42.925,-88.693
03056,Forest,43.510,-90.625
00827,Blackwell,45.514,-88.612
07322,Rock Springs,43.492,-89.919
03775,Hawkins,45.515,-90.720
09200,Wheeler,45.044,-91.909
06581,Peck,45.242,-89.245
09364,Winter,45.820,-91.012
03132,Frankfort,44.550,-92.070
04861,Lincoln,43.944,-89.643
02419,Dover,45.672,-90.188
02653,Ella,44.537,-92.050
03133,Franklin,44.213,-91.124
06871,Porcupine,44.584,-92.096
03151,Freedom,45.442,-88.736
03174,Friesland,43.589,-89.067
01757,Clyde,43.119,-90.211
01629,Chili,44.627,-90.357
09334,Wilson,45.525,-89.870
07184,Reserve,45.881,-91.387
09467,Wyoming,44.646,-89.041
03724,Harrison,45.068,-89.306
04537,Krakow,44.762,-88.251
00920,Bowler,44.863,-88.982
02412,Doty,45.206,-88.615
04521,Knox,45.546,-90.110
04657,Lamont,42.705,-89.985
01109,Brooklyn,46.006,-91.854
04998,Lorain,45.680,-92.220
02746,Emery,45.729,-90.149
03916,Hiles,45.704,-88.977
05122,Maxville,44.532,-92.009
08394,Taft,45.097,-90.874
02231,De Soto,43.432,-91.201
03975,Hollandale,42.876,-89.936
05044,Lowell,43.340,-88.817
04507,Knapp,44.258,-90.505
02135,Curran,44.379,-91.105
04731,Lawrence,45.422,-90.843
04950,Loganville,43.440,-90.036
00839,Blanchard,42.793,-89.901
03867,Hewett,44.553,-90.737
04794,Leola,44.203,-89.668
05296,Mason,46.459,-91.115
07811,Sherman,46.051,-90.092
04474,Kingston,43.696,-89.128
06078,Nichols,44.563,-88.463
09013,Washburn,44.457,-90.516
04613,Lake Lorraine,42.730,-88.740
05666,Montana,44.341,-91.665
02150,Cutler,44.026,-90.237
05788,Mount Hope,42.982,-90.844
04573,Lac La Belle,43.146,-88.517
07951,Sobieski,44.721,-88.072
02109,Crystal,45.864,-91.732
02432,Doylestown,43.428,-89.150
00412,Bagley,45.089,-88.287
05856,Murry,45.601,-91.201
02777,Enterprise,45.497,-89.258
02285,Delta,46.473,-91.270
05547,Milladore,44.606,-89.855
04207,Isabelle,44.572,-92.412
03049,Ford,45.167,-90.743
03413,Gordon,46.178,-90.754
03765,Haugen,45.609,-91.775
01749,Clover,46.781,-91.215
07793,Sheldon,45.311,-90.956
07240,Ridgeland,45.204,-91.895
04861,Lincoln,46.391,-90.987
07607,Sandy Hook,42.543,-90.610
02253,Deer Park,45.188,-92.385
01451,Catawba,45.473,-90.472
01353,Canton,44.565,-91.822
01754,Cloverland,46.677,-91.679
02429,Downsville,44.775,-91.932
08638,Tripp,46.625,-91.375
01137,Browntown,42.578,-89.794
03288,Germantown,43.277,-88.158
08655,True,45.510,-90.879
06910,Potter,44.121,-88.099
01443,Castle Rock,43.075,-90.488
07169,Remington,44.295,-90.202
03761,Hatfield,44.415,-90.731
08878,Vilas,43.090,-89.235
08067,Springfield,42.642,-88.412
06638,Peru,44.720,-91.811
02427,Downing,45.046,-92.132
02175,Dalton,43.657,-89.207
08878,Vilas,45.250,-89.363
06958,Price,45.259,-88.977
01732,Cleveland,45.245,-90.757
01828,Collins,44.086,-87.983
08738,Union Center,43.685,-90.267
08692,Turtle Lake,42.732,-88.678
01802,Colburn,44.110,-89.678
06703,Pilsen,46.569,-91.176
03707,Harmony,45.581,-90.512
03583,Grover,45.205,-90.618
06703,Pilsen,44.444,-87.725
07326,Rockdale,42.972,-89.031
08204,Stinnett,46.027,-91.611
09334,Wilson,44.954,-92.174
06129,North Bay,42.765,-87.780
00830,Blaine,46.128,-92.180
06634,Pershing,45.248,-90.868
07222,Richland,45.512,-90.780
07377,Roosevelt,45.681,-92.086
03596,Gull Lake,46.038,-91.750
06008,New Lyme,44.121,-90.729
02959,Ferryville,43.351,-91.102
03619,Hackett,45.605,-90.273
02165,Dairyland,46.216,-92.156
05806,Mount Sterling,43.315,-90.929
04067,Hubbard,45.603,-91.134
06266,Ogdensburg,44.452,-89.032
03279,Georgetown,45.601,-90.622
00126,Allen's Grove,42.580,-88.763
01376,Carey,46.289,-90.203
02437,Draper,45.886,-90.831
03368,Glidden,46.135,-90.579
04102,Hustler,43.880,-90.272
04861,Lincoln,44.346,-91.748
06356,Orienta,46.721,-91.438
03970,Holcombe,45.224,-91.117
03645,Hallie,44.877,-91.374
05929,Nelsonville,44.495,-89.310
09421,Woodman,43.046,-90.820
04855,Lime Ridge,43.468,-90.155
00175,Alvin,45.985,-88.829
02955,Fern,45.836,-88.386
03916,Hiles,44.394,-90.277
04820,Lewis,45.711,-92.402
09528,Zoar,45.015,-88.899
05576,Millville,43.033,-90.930
01450,Cataract,44.088,-90.842
05682,Monticello,42.528,-90.139
08299,Summit,45.329,-89.379
02623,Edmund,42.967,-90.265
04881,Lynne,45.624,-90.002
06568,Peeksville,46.098,-90.530
07219,Richfield,44.024,-89.645
00126,Allens Grove,42.580,-88.763
05413,Meadowbrook,45.675,-91.133
07411,Ross,45.712,-88.725
00904,Boaz,43.331,-90.526
07970,Somo,45.507,-90.003
08189,Steuben,43.181,-90.859
03680,Hanover,42.639,-89.162
07987,South Fork,45.581,-90.721
09334,Wilson,45.583,-91.490
03098,Foster,44.687,-90.864
05053,Lublin,45.077,-90.725
06727,Pine River,44.152,-89.077
02181,Danbury,46.007,-92.371
00749,Big Falls,45.614,-90.971
01248,Butler,44.804,-90.873
08698,Tustin,44.163,-88.892
09231,White Oak Springs,42.531,-90.253
00632,Bell Center,43.292,-90.827
07687,Scott,44.121,-90.359
08578,Tony,45.483,-90.993
03344,Glen Flora,45.496,-90.894
09408,Woodford,42.649,-89.863
02479,Dunbar,45.651,-88.172
08218,Stone Lake,45.839,-91.552
00272,Argonne,45.660,-88.879
02448,Drummond,46.337,-91.258
06521,Parrish,45.420,-89.403
04624,Lake Tomahawk,45.814,-89.594
06599,Pence,46.415,-90.272
08607,Townsend,45.328,-88.590
00494,Barronett,45.637,-91.993
03459,Grand View,46.367,-91.108
01587,Chelsea,45.290,-90.307
02979,Finley,44.213,-90.136
00400,Babcock,44.302,-90.111
06584,Piehl,45.682,-89.112
08210,Stockholm,44.483,-92.262
04168,Ingram,45.505,-90.812
03526,Green Valley,44.796,-88.270
00751,Big Foot Prairie,42.496,-88.602
01448,Caswell,45.666,-88.687
07657,Saxon,46.493,-90.414
04474,Kingston,44.179,-90.250
04520,Knowlton,44.716,-89.683
00749,Big Falls,44.616,-89.016
03345,Glen Haven,42.826,-91.071
04977,Long Lake,45.843,-88.668
00206,Anderson,46.334,-90.464
08300,Summit Lake,45.378,-89.195
08506,Thornton,44.797,-88.691
08723,Yuba,43.539,-90.430
01674,Clam Lake,46.164,-90.902
09295,Wilkinson,45.530,-91.460
03994,Houlton,45.061,-92.791
01490,Cedar Rapids,45.588,-90.847
00133,Allenville,44.133,-88.619
00022,Ackerville,43.310,-88.258
00028,Ada,43.877,-87.896
00047,Advance,44.788,-88.332
00050,Etna,42.566,-90.328
00051,Afton,42.604,-89.071
00079,Alaska,44.541,-87.501
00087,Albertville,44.960,-91.601
00125,Allen,44.661,-91.367
00153,Alpha,45.772,-92.569
00216,Angus,45.636,-91.603
00240,Apollonia,45.450,-91.302
00242,Apple Creek,44.326,-88.375
00292,Armstrong,43.710,-88.195
00297,Arnold,45.249,-91.004
00305,Artesia Beach,43.935,-88.315
00319,Ash Ridge,43.474,-90.550
00328,Ashley,44.693,-89.608
00330,Ashton,43.141,-89.541
00345,Atkins,45.665,-89.023
00354,Attica,42.770,-89.481
00355,Atwater,43.561,-88.734
00359,Aubrey,43.315,-90.293
00377,Avalon,42.633,-88.868
00408,Badger,44.337,-89.239
00428,Bakerville,44.627,-90.218
00441,Ballou,46.318,-90.585
00445,Balmoral,43.226,-90.464
00484,Barnum,43.219,-90.840
00509,Basco,42.912,-89.515
00512,Bashaw,45.769,-92.063
00516,Bassett,42.541,-88.228
00517,Basswood,43.263,-90.499
00519,Batavia,43.594,-88.051
00520,Bateman,44.931,-91.268
00537,Bay View,44.633,-87.744
00567,Bear Valley,43.308,-90.195
00606,Beebe,46.407,-91.839
00612,Beechwood,43.593,-88.120
00687,Benoit,46.502,-91.077
00688,Benson,45.717,-92.856
00727,Bethel,44.541,-90.090
00730,Bethesda,42.988,-88.318
00759,Big Spring,43.669,-89.644
00773,Binghamton,44.458,-88.456
00774,Birch,46.538,-90.576
00779,Birchwood,44.458,-87.571
00806,Black Hawk,43.269,-89.927
00810,Black River,46.562,-92.147
00830,Blaine,44.309,-89.315
00868,Bloomingdale,43.643,-90.778
00870,Bloomville,45.293,-89.528
00903,Boardman,45.066,-92.600
00926,Bolt,44.342,-87.705
00935,Bonita,45.120,-88.459
00982,Boylston,46.597,-92.129
00993,Bradley,44.801,-90.015
01003,Branch,44.146,-87.761
01008,Brant,44.073,-88.204
01067,Briggsville,43.655,-89.585
01104,Brookfield Center,43.037,-88.172
01112,Brooks,43.825,-89.644
01113,Brookside,44.805,-87.998
01157,Bryant,45.208,-89.024
01172,Buckman,44.414,-87.785
01187,Buena Vista,42.713,-90.688
01240,Burton,42.718,-90.817
01282,Calamine,42.742,-90.162
01285,Caldwell,42.835,-88.276
01301,Calvary,43.847,-88.244
01353,Canton,45.428,-91.660
01388,Carnegie,46.633,-92.193
01410,Carter,45.391,-88.628
01417,Caryville,44.751,-91.674
01437,Cassell,43.207,-89.875
01466,Cavour,45.651,-88.629
01473,Cedar,46.507,-90.498
01479,Cedar Creek,43.340,-88.223
01481,Cedar Falls,44.936,-91.884
01499,Cedarville,45.454,-87.983
01512,Center Valley,44.402,-88.460
01519,Centerville,44.070,-91.451
01534,Chaffey,46.398,-92.164
01549,Champion,44.589,-87.794
01560,Chapin,42.621,-87.973
01691,Clarks Mills,44.090,-87.864
01724,Cleghorn,44.684,-91.427
01735,Clifford,45.555,-90.043
01753,Cloverdale,44.025,-90.179
01757,Clyde,44.516,-87.583
01769,Kolberg,44.719,-87.549
01772,Colgate,43.193,-88.207
01781,Cobban,45.103,-91.206
01835,Columbia,44.516,-90.720
01857,Comfort,44.775,-92.036
01862,Comstock,45.478,-92.075
01907,Cooksville,42.835,-89.241
01956,Koro,43.968,-88.844
01982,Cottonville,44.058,-89.806
01994,County Line,44.990,-87.853
02120,Cullen,44.962,-87.853
02132,Kirby,44.091,-90.539
02135,Curran,44.356,-87.746
02143,Cushing,45.571,-92.651
02146,Custer,44.511,-89.426
02171,Daleyville,42.915,-89.815
02183,Dancy,44.688,-89.713
02241,Decker,43.471,-87.862
02254,Deerbrook,45.234,-89.156
02278,Dellwood,43.563,-89.841
02323,Dexterville,44.376,-90.111
02354,Disco,44.262,-91.009
02367,Dobie,45.552,-91.684
02367,Dobie,46.527,-91.805
02386,Donald,45.252,-90.897
02413,Dotyville,43.752,-88.261
02466,Dudley,45.336,-89.465
02483,Dundas,44.234,-88.198
02484,Dundee,43.655,-88.164
02495,Dunnville,44.719,-91.906
02510,Duvall,44.661,-87.713
02533,Earl,45.911,-91.761
02595,Ebenezer,43.138,-88.738
02642,Eidsvold,44.964,-90.866
02704,Ellis,44.575,-89.447
02708,Ellisville,44.458,-87.684
02719,Elmhurst,45.053,-89.189
02721,Elmo,42.643,-90.436
02723,Elmore,43.575,-88.303
02732,Elton,45.168,-88.886
02744,Emmerich,45.091,-89.829
02791,Irma,45.351,-89.666
02850,Excelsior,43.252,-90.628
02861,Fair Play,42.536,-90.561
02898,Falls City,44.797,-91.769
02903,Fancher,44.473,-89.373
02919,Farmersville,43.558,-88.531
02972,Fillmore,43.498,-88.061
02993,Fisk,43.956,-88.678
02998,Five Corners,44.458,-88.456
03096,Forward,42.897,-89.756
03098,Foster,44.643,-91.312
03112,Four Corners,44.075,-90.914
03133,Franklin,43.836,-87.901
03217,Galloway,44.713,-89.264
03241,Garfield,44.562,-89.294
03244,Garnet,43.936,-88.263
03287,Germania,43.891,-89.257
03319,Gillingham,43.426,-90.445
03336,Gleason,45.309,-89.496
03374,Glover,44.913,-92.681
03501,Graytown,45.199,-92.127
03556,Grellton,43.135,-88.788
03608,Guthrie,42.925,-88.200
03659,Hamilton,43.284,-87.972
03678,Hannibal,45.252,-90.789
03707,Harmony,45.099,-87.820
03708,Harmony Grove,43.372,-89.551
03712,Herold,44.306,-91.842
03724,Harrison,44.214,-88.400
03770,Haven,43.848,-87.753
03782,Hay Creek,44.622,-91.075
03785,Hayes,45.000,-88.423
03822,Helena,43.171,-90.022
03828,Hematite,45.909,-88.209
03830,Hemlock,44.824,-90.612
03861,Hersey,44.963,-92.212
03876,Hickory Corners,45.005,-88.254
03879,Hickory Grove,43.106,-90.599
03879,Hickory Grove,44.298,-87.868
03900,Highland Beach,44.187,-88.316
03904,Highland Park,43.894,-88.347
03909,Highwood,42.860,-89.022
03923,Hillcrest,46.503,-91.898
03932,Hillsdale,45.316,-91.860
03933,Hillside,42.935,-89.043
03945,Hines,46.543,-91.908
03962,Hochheim,43.457,-88.469
03980,Hollister,45.248,-88.791
03993,Holt,44.718,-89.325
03996,Holy Cross,43.470,-87.896
04000,Homer,43.085,-90.617
04008,Honey Creek,42.748,-88.308
04019,Hope,43.052,-89.246
04063,Hoyt,46.411,-90.300
04066,Hub City,43.471,-90.356
04095,Huntington,45.192,-92.559
04110,Hyde,43.073,-89.982
04120,Idlewild,44.888,-87.427
04135,Indian Creek,45.705,-92.207
04139,Indian Heights,42.852,-89.018
04139,Indian Heights,43.686,-89.831
04160,Ingersoll,44.852,-89.260
04162,Ingle,43.624,-89.128
04175,Ino,46.531,-91.179
04176,Institute,44.893,-87.287
04190,Ipswich,42.708,-90.410
04205,Irvington,44.836,-91.955
04213,Island Lake,45.319,-91.369
04214,Island Park,44.023,-88.802
04237,Jacksonville,43.952,-90.558
04269,Jenkinsville,42.635,-90.370
04273,Jennings,45.508,-89.072
04275,Jericho,43.970,-88.266
04275,Jericho,42.878,-88.423
04287,Jewett,45.117,-92.436
04289,Jimtown,43.353,-90.638
04293,Joel,45.361,-92.235
04295,Johannesburg,45.165,-92.594
04296,Johnsburg,43.877,-88.290
04301,Johnsonville,43.798,-87.909
04329,Juddville,45.084,-87.250
04336,Junction,45.010,-90.902
04370,Keene,44.367,-89.474
04376,Kelly,43.967,-90.100
04398,Kennedy,45.910,-90.657
04436,Keyesville,43.340,-90.219
04504,Klondike,42.590,-88.119
04504,Klondike,45.068,-88.160
04506,Kloten,44.035,-88.266
04509,Kneeland,42.827,-88.008
04510,Knellsville,43.414,-87.871
04519,Knowles,43.573,-88.504
04538,Kremlin,45.651,-87.845
04567,La Rue,43.436,-89.889
04582,Ladoga,43.720,-88.674
04602,Lake Como,42.590,-88.502
04629,Lakefield,43.295,-87.926
04633,Lakeport,44.449,-92.180
04649,Lamar,45.426,-92.570
04672,Laney,44.644,-88.289
04691,Lark,44.314,-87.950
04694,Larsen,44.192,-88.624
04710,Lauderdale,42.765,-88.556
04731,Lawrence,43.884,-89.544
04735,Lawton,44.776,-92.416
04744,Lead Mine,42.571,-90.345
04748,Lemington,45.759,-91.353
04768,Leeman,44.574,-88.556
04777,Lehigh,45.441,-91.551
04783,Leland,43.336,-89.948
04788,Lennox,45.512,-89.072
04798,Leonards,46.170,-91.321
04805,Leslie,42.771,-90.366
04818,Levis,44.539,-91.105
04827,Leyden,42.731,-89.129
04848,Lily,45.307,-88.854
04852,Lima Center,42.789,-88.827
04876,Lindsey,44.556,-90.300
04885,Linton,42.534,-88.502
04896,Little Chicago,45.047,-89.844
04900,Little Falls,45.274,-92.419
04902,Little Hope,44.318,-89.109
04904,Little Prairie,42.839,-88.539
04923,Loyd,43.423,-90.243
04948,Logan,45.087,-88.400
04959,Lombard,44.959,-90.739
04960,London,43.048,-89.013
04967,Lone Rock,43.944,-90.214
04992,Lookout,44.458,-91.579
04994,Loomis,45.193,-87.899
05004,Loretta,45.886,-90.853
05017,Lost Lake,43.459,-88.989
05027,Louisburg,42.579,-90.556
05067,Lufkin,44.751,-91.611
05076,Lund,44.540,-92.206
05092,Lykens,45.424,-92.469
05095,Lyndhurst,44.842,-88.813
05123,Mackville,44.344,-88.415
05164,Malone,43.860,-88.281
05167,Malvern,45.608,-89.285
05169,Mann,44.700,-90.217
05212,Maple Hill,45.017,-90.984
05220,Mapleton,43.179,-88.460
05222,Maplewood,44.748,-87.479
05227,Marblehead,43.704,-88.384
05256,Marxville,43.191,-89.660
05257,Markton,45.122,-88.665
05274,Marshland,44.074,-91.555
05284,Martinsville,43.180,-89.590
05293,Marytown,43.914,-88.202
05308,Mather,44.143,-90.309
05334,Mayfield,43.329,-88.197
05350,McAllister,45.327,-87.721
05364,McCord,45.555,-89.900
05412,Meadow Valley,44.215,-90.221
05428,Medina,44.273,-88.638
05433,Meehan,44.436,-89.647
05490,Metz,44.214,-88.886
05506,Middle River,46.569,-91.901
05512,Middlebury,42.937,-89.883
05528,Midway,43.929,-91.258
05530,Mikesville,44.170,-88.605
05537,Miles,45.229,-87.779
05548,Millard,42.734,-88.621
05592,Mineral Point,42.712,-89.467
05595,Minersville,46.407,-90.797
05659,Monroe Center,44.112,-89.939
05674,Monterey,43.171,-88.499
05681,Montgomeryville,43.356,-90.740
05695,Moon,44.772,-89.788
05725,Morgan,44.794,-88.190
05725,Morgan,44.885,-88.824
05745,Morrisonville,43.277,-89.359
05809,Mount Vernon,42.947,-89.656
05810,Mount View,44.952,-89.727
05813,Mount Zion,43.257,-90.734
05872,Myra,43.416,-88.096
05882,Namur,44.734,-87.670
05936,Neptune,43.373,-90.267
05946,Nevins,44.496,-90.365
05949,New Amsterdam,43.983,-91.317
06015,New Paris,43.733,-87.972
06023,New Prospect,43.616,-88.179
06029,New Rome,44.219,-89.881
06066,Newry,43.712,-90.817
06068,Newton,43.590,-91.063
06069,Newtonburg,44.052,-87.762
06097,Nobleton,45.679,-91.703
06108,Nora,43.031,-89.150
06118,Norman,44.371,-87.603
06129,North Bay,45.146,-87.083
06133,North Bloomfield,42.574,-88.355
06134,North Branch,44.447,-90.999
06136,North Creek,44.271,-91.432
06162,North Star,44.617,-89.422
06166,North York,46.393,-90.778
06175,Northland,44.595,-89.208
06176,Northport,45.292,-86.980
06183,Norton,45.016,-91.834
06200,Nutterville,45.004,-89.527
06202,Nye,45.314,-92.581
06209,Oak Center,43.661,-88.600
06216,Oak Hall,42.950,-89.437
06218,Oak Hill,42.936,-88.587
06223,Oak Orchard,44.781,-87.926
06240,Oakridge,44.588,-92.396
06243,Oakwood,44.046,-88.603
06273,Oil City,43.751,-90.587
06311,Olivet,44.786,-92.257
06329,Ono,44.656,-92.256
06366,Ormsby,45.256,-89.252
06396,Ostrander,44.393,-88.838
06401,Otis,45.269,-89.693
06472,Palmer,44.906,-92.395
06492,Paoli,42.929,-89.524
06518,Parnell,43.667,-88.100
06577,Pearson,45.364,-89.016
06583,Peebles,43.816,-88.376
06591,Pelican Lake,45.499,-89.167
06612,Penokee,46.314,-90.694
06642,Petersburg,43.272,-90.838
06669,Phipps,46.063,-91.414
06671,Phlox,45.051,-89.014
06679,Pickerel,45.359,-88.911
06681,Pickett,43.911,-88.730
06687,Pierceville,43.136,-89.153
06693,Pike Lake,44.822,-89.352
06693,Pike Lake,43.314,-88.342
06712,Pine Bluff,43.061,-89.656
06716,Pine Creek,44.134,-91.527
06718,Pine Grove,44.416,-87.889
06718,Pine Grove,44.900,-91.631
06723,Pine Lake,46.256,-90.141
06727,Pine River,45.134,-89.622
06755,Pipersville,43.142,-88.650
06803,Pleasant Ridge,43.055,-90.073
06806,Pleasant Valley,43.721,-91.173
06836,Poland,44.444,-87.826
06873,Port Arthur,45.429,-91.162
06902,Postville,42.799,-89.753
06918,Powell,46.089,-89.959
06949,Pray,44.373,-90.497
06955,Preston,42.975,-90.547
06958,Price,44.582,-91.055
06991,Purdy,43.517,-91.048
07012,Queenstown,45.352,-90.288
07064,Randall,45.696,-92.835
07068,Range,45.396,-92.285
07070,Rankin,44.596,-87.503
07101,Readfield,44.273,-88.770
07112,Red Banks,44.611,-87.863
07112,Red Banks,44.277,-88.859
07116,Red Cliff,46.856,-90.788
07125,Red River,44.825,-88.704
07126,Red Rock,42.642,-90.047
07148,Reed,43.376,-91.039
07163,Riley,43.023,-89.623
07181,Requa,44.587,-91.145
07188,Retreat,43.446,-91.081
07215,Richardson,45.319,-92.200
07229,Richwood,43.241,-88.783
07244,Ridgetop,45.930,-88.270
07271,Rising Sun,43.418,-90.958
07287,Riverside,46.076,-92.248
07287,Riverside,42.594,-90.022
07313,Rock Falls,44.719,-91.690
07327,Rockfield,43.258,-88.126
07337,Rockton,43.641,-90.602
07340,Rockville,42.727,-90.682
07340,Rockville,43.920,-87.998
07342,Rockwood,44.168,-87.706
07358,Rogersville,43.749,-88.632
07365,Rolling Prairie,43.459,-88.734
07368,Romance,43.552,-91.145
07377,Roosevelt,45.672,-89.315
07395,Rosecrans,44.277,-87.827
07411,Ross,43.541,-90.753
07418,Rostok,44.502,-87.501
07434,Rouse,46.356,-90.466
07463,Rural,44.313,-89.153
07467,Rush Lake,43.924,-88.839
07473,Rusk,44.908,-91.834
07475,Russell,44.428,-91.479
07488,Rutledge,42.555,-90.634
07494,Sabin,43.431,-90.569
07522,Saint Lawrence,43.370,-88.333
07548,Salona,44.746,-87.356
07561,Sampson,44.765,-88.186
07591,Sand Lake,45.368,-92.559
07593,Sand Prairie,43.205,-90.611
07603,Sandusky,43.395,-90.152
07660,Saylesville,43.300,-88.439
07660,Saylesville,42.949,-88.320
07673,Schultz,42.690,-89.603
07710,Seeley,46.121,-91.361
07721,Sedgwick,46.467,-90.606
07764,Shamrock,44.174,-90.804
07769,Shantytown,44.688,-89.424
07804,Sheppard,44.261,-90.781
07809,Sheridan,44.396,-89.198
07813,Sherwood,44.468,-90.356
07824,Shirley,44.357,-87.948
07844,Sidney,44.553,-90.639
07854,Silica,43.850,-88.342
07862,Silver Creek,43.557,-88.025
07865,Silver Lake,44.055,-89.226
07881,Sioux,46.737,-90.880
07896,Slabtown,42.967,-88.635
07900,Slateford,42.786,-90.193
07911,Slovan,44.531,-87.583
07938,Snell,45.059,-89.285
07941,Sniderville,44.352,-88.191
07973,Soperton,45.438,-88.636
08000,South Range,46.608,-91.984
08023,Spaulding,44.356,-90.416
08040,Split Rock,44.705,-89.026
08044,Sprague,44.148,-90.131
08057,Spring Lake,44.023,-89.159
08062,Spring Valley,43.939,-87.839
08064,Springbrook,45.949,-91.688
08087,St. Anna,43.893,-88.121
08106,St. Joe,43.854,-88.189
08107,St. John,44.169,-88.204
08118,St. Mary's,43.798,-90.687
08157,Star Lake,46.038,-89.472
08163,Starks,45.663,-89.222
08174,Stearns,42.656,-89.607
08216,Stone,42.875,-89.310
08277,Sugar Bush,44.502,-87.786
08277,Sugar Bush,44.482,-88.736
08281,Sugar Grove,43.426,-90.684
08283,Sugar Island,43.226,-88.580
08320,Sunflower,45.803,-89.642
08324,Sunnyside,46.604,-92.057
08330,Sunset,45.003,-89.492
08331,Sunset Beach,43.502,-88.866
08344,Sutherland,46.438,-91.177
08352,Swan,44.931,-90.119
08382,Sylvania,42.699,-87.958
08409,Tamarack,44.175,-91.448
08423,Tarrant,44.597,-91.843
08445,Tell,44.381,-91.866
08497,Thompson,43.259,-88.371
08527,Tiffany,42.583,-88.927
08546,Tioga,44.684,-90.793
08597,Torun,44.614,-89.509
08637,Tripoli,45.555,-89.994
08654,Truax,44.849,-91.569
08657,Truman,42.719,-90.230
08706,Twin Grove,42.531,-89.543
08739,Union Church,42.844,-88.069
08773,Utica,42.966,-89.122
08798,Valley Junction,44.053,-90.412
08804,Valmy,44.908,-87.263
08808,Van Buren,42.676,-90.726
08871,Victory,43.486,-91.213
08877,Viking,44.862,-92.359
08955,Walker,44.386,-89.979
08979,Walsh,45.179,-87.763
09023,Waterbury,44.385,-90.598
09031,Waterville,43.020,-88.438
09046,Waverly,44.729,-92.257
09054,Wayside,44.255,-87.953
09064,Weber,44.822,-90.090
09089,Wells,44.096,-88.043
09100,Wentworth,46.600,-91.836
09101,Werley,43.019,-90.765
09109,West Almond,44.286,-89.461
09112,West Bloomfield,44.221,-88.972
09138,West Middleton,43.060,-89.572
09151,West Prairie,44.064,-91.516
09151,West Prairie,43.467,-91.022
09184,Westport,43.205,-90.641
09213,Whitcomb,44.783,-89.119
09218,White City,43.619,-90.453
09220,White Creek,43.826,-89.855
09230,White Oak,42.518,-90.277
09243,Whitefish Bay,44.906,-87.217
09284,Wilcox,44.998,-87.835
09287,Wild Rose,43.287,-90.582
09291,Wildwood,44.892,-92.299
09296,Willard,44.735,-90.719
09307,Williamstown,43.507,-88.563
09327,Wills,46.539,-91.539
09355,Winnebago,44.076,-88.525
09387,Wolf Creek,45.556,-92.723
09407,Wooddale,45.685,-91.461
09409,Woodhull,43.778,-88.573
09411,Woodland,43.370,-88.519
09417,Woodlawn,45.432,-88.821
09431,Woodstock,43.472,-90.427
09476,Yankeetown,43.380,-90.798
09480,Yarnell,45.727,-91.419
09488,Yellowstone,42.798,-89.970
09494,York,44.450,-91.145
09495,York Center,43.239,-89.070
09501,Young America,43.452,-88.186
09521,Zenda,42.512,-88.482